{"type": "FeatureCollection", "features": [{"type": "Feature", "geometry": {"type": "LineString", "coordinates": [[4.9065292, 52.3431755], [4.9065172, 52.3432106]]}, "properties": {"Speed": 15.5, "road_quality": 2, "marker": 7, "trip_id": "CRASH_Trip1", "hrot_diff": 1, "sample_diff": 13, "time_diff_s": 0.26, "gps_distance_m": 4.0, "original_speed": "1834", "wheel_diameter_mm": 711.1999999999999, "braking_intensity": 0.0, "is_braking": false, "is_crash": false, "crash_intensity_g": 0.0, "segment_start_sample": 1913, "segment_end_sample": 1926, "Speed_display": 16.4}}, {"type": "Feature", "geometry": {"type": "LineString", "coordinates": [[4.9065172, 52.3432106], [4.9065005, 52.3432513]]}, "properties": {"Speed": 16.8, "road_quality": 2, "marker": 7, "trip_id": "CRASH_Trip1", "hrot_diff": 1, "sample_diff": 12, "time_diff_s": 0.24, "gps_distance_m": 4.7, "original_speed": "1904", "wheel_diameter_mm": 711.1999999999999, "braking_intensity": 0.0, "is_braking": false, "is_crash": false, "crash_intensity_g": 0.0, "segment_start_sample": 1966, "segment_end_sample": 1978, "Speed_display": 16.5}}, {"type": "Feature", "geometry": {"type": "LineString", "coordinates": [[4.9065005, 52.3432513], [4.9064842, 52.3432901]]}, "properties": {"Speed": 16.8, "road_quality": 2, "marker": 7, "trip_id": "CRASH_Trip1", "hrot_diff": 1, "sample_diff": 12, "time_diff_s": 0.24, "gps_distance_m": 4.5, "original_speed": "1941", "wheel_diameter_mm": 711.1999999999999, "braking_intensity": 0.0, "is_braking": false, "is_crash": false, "crash_intensity_g": 0.0, "segment_start_sample": 2017, "segment_end_sample": 2029, "Speed_display": 16.3}}, {"type": "Feature", "geometry": {"type": "LineString", "coordinates": [[4.9064842, 52.3432901], [4.9064641, 52.3433339]]}, "properties": {"Speed": 16.8, "road_quality": 2, "marker": 7, "trip_id": "CRASH_Trip1", "hrot_diff": 1, "sample_diff": 12, "time_diff_s": 0.24, "gps_distance_m": 5.1, "original_speed": "1960", "wheel_diameter_mm": 711.1999999999999, "braking_intensity": 0.0, "is_braking": false, "is_crash": false, "crash_intensity_g": 0.0, "segment_start_sample": 2069, "segment_end_sample": 2081, "Speed_display": 16.1}}, {"type": "Feature", "geometry": {"type": "LineString", "coordinates": [[4.9064641, 52.3433339], [4.9064484, 52.3433726]]}, "properties": {"Speed": 15.5, "road_quality": 2, "marker": 7, "trip_id": "CRASH_Trip1", "hrot_diff": 1, "sample_diff": 13, "time_diff_s": 0.26, "gps_distance_m": 4.4, "original_speed": "1941", "wheel_diameter_mm": 711.1999999999999, "braking_intensity": 0.0, "is_braking": false, "is_crash": false, "crash_intensity_g": 0.0, "segment_start_sample": 2106, "segment_end_sample": 2119, "Speed_display": 16.1}}, {"type": "Feature", "geometry": {"type": "LineString", "coordinates": [[4.9064484, 52.3433726], [4.9064308, 52.3434148]]}, "properties": {"Speed": 14.4, "road_quality": 2, "marker": 7, "trip_id": "CRASH_Trip1", "hrot_diff": 1, "sample_diff": 14, "time_diff_s": 0.28, "gps_distance_m": 4.8, "original_speed": "2049", "wheel_diameter_mm": 711.1999999999999, "braking_intensity": 0.0, "is_braking": false, "is_crash": false, "crash_intensity_g": 0.0, "segment_start_sample": 2167, "segment_end_sample": 2181, "Speed_display": 16.4}}, {"type": "Feature", "geometry": {"type": "LineString", "coordinates": [[4.9064308, 52.3434148], [4.9064158, 52.3434514]]}, "properties": {"Speed": 16.8, "road_quality": 2, "marker": 7, "trip_id": "CRASH_Trip1", "hrot_diff": 1, "sample_diff": 12, "time_diff_s": 0.24, "gps_distance_m": 4.2, "original_speed": "2000", "wheel_diameter_mm": 711.1999999999999, "braking_intensity": 0.0, "is_braking": false, "is_crash": false, "crash_intensity_g": 0.0, "segment_start_sample": 2218, "segment_end_sample": 2230, "Speed_display": 16.1}}, {"type": "Feature", "geometry": {"type": "LineString", "coordinates": [[4.9064158, 52.3434514], [4.9063953, 52.3434934]]}, "properties": {"Speed": 18.3, "road_quality": 2, "marker": 7, "trip_id": "CRASH_Trip1", "hrot_diff": 1, "sample_diff": 11, "time_diff_s": 0.22, "gps_distance_m": 4.9, "original_speed": "2016", "wheel_diameter_mm": 711.1999999999999, "braking_intensity": 0.0, "is_braking": false, "is_crash": false, "crash_intensity_g": 0.0, "segment_start_sample": 2266, "segment_end_sample": 2277, "Speed_display": 16.1}}, {"type": "Feature", "geometry": {"type": "LineString", "coordinates": [[4.9063953, 52.3434934], [4.9063859, 52.3435349]]}, "properties": {"Speed": 15.5, "road_quality": 2, "marker": 7, "trip_id": "CRASH_Trip1", "hrot_diff": 1, "sample_diff": 13, "time_diff_s": 0.26, "gps_distance_m": 4.7, "original_speed": "2049", "wheel_diameter_mm": 711.1999999999999, "braking_intensity": 0.0, "is_braking": false, "is_crash": false, "crash_intensity_g": 0.0, "segment_start_sample": 2315, "segment_end_sample": 2328, "Speed_display": 17.2}}, {"type": "Feature", "geometry": {"type": "LineString", "coordinates": [[4.9063859, 52.3435349], [4.9063789, 52.3435725]]}, "properties": {"Speed": 15.5, "road_quality": 3, "marker": 7, "trip_id": "CRASH_Trip1", "hrot_diff": 1, "sample_diff": 13, "time_diff_s": 0.26, "gps_distance_m": 4.2, "original_speed": "2066", "wheel_diameter_mm": 711.1999999999999, "braking_intensity": 0.0, "is_braking": false, "is_crash": false, "crash_intensity_g": 0.0, "segment_start_sample": 2362, "segment_end_sample": 2375, "Speed_display": 17.2}}, {"type": "Feature", "geometry": {"type": "LineString", "coordinates": [[4.9063789, 52.3435725], [4.9063662, 52.3436112]]}, "properties": {"Speed": 20.1, "road_quality": 3, "marker": 7, "trip_id": "CRASH_Trip1", "hrot_diff": 1, "sample_diff": 10, "time_diff_s": 0.2, "gps_distance_m": 4.4, "original_speed": "2066", "wheel_diameter_mm": 711.1999999999999, "braking_intensity": 0.0, "is_braking": false, "is_crash": false, "crash_intensity_g": 0.0, "segment_start_sample": 2411, "segment_end_sample": 2421, "Speed_display": 17.6}}, {"type": "Feature", "geometry": {"type": "LineString", "coordinates": [[4.9063662, 52.3436112], [4.9063555, 52.3436534]]}, "properties": {"Speed": 16.8, "road_quality": 2, "marker": 7, "trip_id": "CRASH_Trip1", "hrot_diff": 1, "sample_diff": 12, "time_diff_s": 0.24, "gps_distance_m": 4.7, "original_speed": "2118", "wheel_diameter_mm": 711.1999999999999, "braking_intensity": 0.0, "is_braking": false, "is_crash": false, "crash_intensity_g": 0.0, "segment_start_sample": 2470, "segment_end_sample": 2482, "Speed_display": 18.2}}, {"type": "Feature", "geometry": {"type": "LineString", "coordinates": [[4.9063555, 52.3436534], [4.9063387, 52.3436961]]}, "properties": {"Speed": 20.1, "road_quality": 2, "marker": 7, "trip_id": "CRASH_Trip1", "hrot_diff": 1, "sample_diff": 10, "time_diff_s": 0.2, "gps_distance_m": 4.9, "original_speed": "2100", "wheel_diameter_mm": 711.1999999999999, "braking_intensity": 0.0, "is_braking": false, "is_crash": false, "crash_intensity_g": 0.0, "segment_start_sample": 2518, "segment_end_sample": 2528, "Speed_display": 18.7}}, {"type": "Feature", "geometry": {"type": "LineString", "coordinates": [[4.9063387, 52.3436961], [4.9063234, 52.3437393]]}, "properties": {"Speed": 18.3, "road_quality": 2, "marker": 7, "trip_id": "CRASH_Trip1", "hrot_diff": 1, "sample_diff": 11, "time_diff_s": 0.22, "gps_distance_m": 4.9, "original_speed": "2136", "wheel_diameter_mm": 711.1999999999999, "braking_intensity": 0.0, "is_braking": false, "is_crash": false, "crash_intensity_g": 0.0, "segment_start_sample": 2564, "segment_end_sample": 2575, "Speed_display": 18.4}}, {"type": "Feature", "geometry": {"type": "LineString", "coordinates": [[4.9063234, 52.3437393], [4.9063113, 52.3437822]]}, "properties": {"Speed": 18.3, "road_quality": 2, "marker": 7, "trip_id": "CRASH_Trip1", "hrot_diff": 1, "sample_diff": 11, "time_diff_s": 0.22, "gps_distance_m": 4.8, "original_speed": "2155", "wheel_diameter_mm": 711.1999999999999, "braking_intensity": 0.0, "is_braking": false, "is_crash": false, "crash_intensity_g": 0.0, "segment_start_sample": 2611, "segment_end_sample": 2622, "Speed_display": 18.1}}, {"type": "Feature", "geometry": {"type": "LineString", "coordinates": [[4.9063113, 52.3437822], [4.9063052, 52.3438227]]}, "properties": {"Speed": 18.3, "road_quality": 2, "marker": 7, "trip_id": "CRASH_Trip1", "hrot_diff": 1, "sample_diff": 11, "time_diff_s": 0.22, "gps_distance_m": 4.5, "original_speed": "2100", "wheel_diameter_mm": 711.1999999999999, "braking_intensity": 0.0, "is_braking": false, "is_crash": false, "crash_intensity_g": 0.0, "segment_start_sample": 2669, "segment_end_sample": 2680, "Speed_display": 17.2}}, {"type": "Feature", "geometry": {"type": "LineString", "coordinates": [[4.9063052, 52.3438227], [4.9062958, 52.3439056]]}, "properties": {"Speed": 15.5, "road_quality": 2, "marker": 7, "trip_id": "CRASH_Trip1", "hrot_diff": 1, "sample_diff": 13, "time_diff_s": 0.26, "gps_distance_m": 9.2, "original_speed": "2100", "wheel_diameter_mm": 711.1999999999999, "braking_intensity": 0.0, "is_braking": false, "is_crash": false, "crash_intensity_g": 0.0, "segment_start_sample": 2763, "segment_end_sample": 2776, "Speed_display": 16.6}}, {"type": "Feature", "geometry": {"type": "LineString", "coordinates": [[4.9062958, 52.3439056], [4.9062827, 52.3439476]]}, "properties": {"Speed": 15.5, "road_quality": 2, "marker": 7, "trip_id": "CRASH_Trip1", "hrot_diff": 1, "sample_diff": 13, "time_diff_s": 0.26, "gps_distance_m": 4.8, "original_speed": "2192", "wheel_diameter_mm": 711.1999999999999, "braking_intensity": 0.0, "is_braking": false, "is_crash": false, "crash_intensity_g": 0.0, "segment_start_sample": 2810, "segment_end_sample": 2823, "Speed_display": 16.6}}, {"type": "Feature", "geometry": {"type": "LineString", "coordinates": [[4.9062827, 52.3439476], [4.9062694, 52.3439914]]}, "properties": {"Speed": 15.5, "road_quality": 2, "marker": 7, "trip_id": "CRASH_Trip1", "hrot_diff": 1, "sample_diff": 13, "time_diff_s": 0.26, "gps_distance_m": 5.0, "original_speed": "2155", "wheel_diameter_mm": 711.1999999999999, "braking_intensity": 0.0, "is_braking": false, "is_crash": false, "crash_intensity_g": 0.0, "segment_start_sample": 2857, "segment_end_sample": 2870, "Speed_display": 16.1}}, {"type": "Feature", "geometry": {"type": "LineString", "coordinates": [[4.9062694, 52.3439914], [4.9062516, 52.3440345]]}, "properties": {"Speed": 18.3, "road_quality": 2, "marker": 7, "trip_id": "CRASH_Trip1", "hrot_diff": 1, "sample_diff": 11, "time_diff_s": 0.22, "gps_distance_m": 4.9, "original_speed": "2118", "wheel_diameter_mm": 711.1999999999999, "braking_intensity": 0.0, "is_braking": false, "is_crash": false, "crash_intensity_g": 0.0, "segment_start_sample": 2928, "segment_end_sample": 2939, "Speed_display": 16.1}}, {"type": "Feature", "geometry": {"type": "LineString", "coordinates": [[4.9062516, 52.3440345], [4.9062375, 52.3440807]]}, "properties": {"Speed": 15.5, "road_quality": 2, "marker": 7, "trip_id": "CRASH_Trip1", "hrot_diff": 1, "sample_diff": 13, "time_diff_s": 0.26, "gps_distance_m": 5.2, "original_speed": "2155", "wheel_diameter_mm": 711.1999999999999, "braking_intensity": 0.0, "is_braking": false, "is_crash": false, "crash_intensity_g": 0.0, "segment_start_sample": 2974, "segment_end_sample": 2987, "Speed_display": 16.6}}, {"type": "Feature", "geometry": {"type": "LineString", "coordinates": [[4.9062375, 52.3440807], [4.9062264, 52.3441153]]}, "properties": {"Speed": 15.5, "road_quality": 2, "marker": 7, "trip_id": "CRASH_Trip1", "hrot_diff": 1, "sample_diff": 13, "time_diff_s": 0.26, "gps_distance_m": 3.9, "original_speed": "2066", "wheel_diameter_mm": 711.1999999999999, "braking_intensity": 0.0, "is_braking": false, "is_crash": false, "crash_intensity_g": 0.0, "segment_start_sample": 3011, "segment_end_sample": 3024, "Speed_display": 16.0}}, {"type": "Feature", "geometry": {"type": "LineString", "coordinates": [[4.9062264, 52.3441153], [4.9062146, 52.3441546]]}, "properties": {"Speed": 18.3, "road_quality": 2, "marker": 7, "trip_id": "CRASH_Trip1", "hrot_diff": 1, "sample_diff": 11, "time_diff_s": 0.22, "gps_distance_m": 4.4, "original_speed": "2136", "wheel_diameter_mm": 711.1999999999999, "braking_intensity": 0.0, "is_braking": false, "is_crash": false, "crash_intensity_g": 0.0, "segment_start_sample": 3058, "segment_end_sample": 3069, "Speed_display": 15.5}}, {"type": "Feature", "geometry": {"type": "LineString", "coordinates": [[4.9062146, 52.3441546], [4.9061965, 52.3442014]]}, "properties": {"Speed": 12.6, "road_quality": 3, "marker": 7, "trip_id": "CRASH_Trip1", "hrot_diff": 1, "sample_diff": 16, "time_diff_s": 0.32, "gps_distance_m": 5.3, "original_speed": "2155", "wheel_diameter_mm": 711.1999999999999, "braking_intensity": 0.0, "is_braking": false, "is_crash": false, "crash_intensity_g": 0.0, "segment_start_sample": 3104, "segment_end_sample": 3120, "Speed_display": 16.0}}, {"type": "Feature", "geometry": {"type": "LineString", "coordinates": [[4.9061965, 52.3442014], [4.906183, 52.3442442]]}, "properties": {"Speed": 15.5, "road_quality": 2, "marker": 7, "trip_id": "CRASH_Trip1", "hrot_diff": 1, "sample_diff": 13, "time_diff_s": 0.26, "gps_distance_m": 4.8, "original_speed": "2192", "wheel_diameter_mm": 711.1999999999999, "braking_intensity": 0.0, "is_braking": false, "is_crash": false, "crash_intensity_g": 0.0, "segment_start_sample": 3174, "segment_end_sample": 3187, "Speed_display": 15.8}}, {"type": "Feature", "geometry": {"type": "LineString", "coordinates": [[4.906183, 52.3442442], [4.9061663, 52.3442862]]}, "properties": {"Speed": 18.3, "road_quality": 2, "marker": 7, "trip_id": "CRASH_Trip1", "hrot_diff": 1, "sample_diff": 11, "time_diff_s": 0.22, "gps_distance_m": 4.8, "original_speed": "2155", "wheel_diameter_mm": 711.1999999999999, "braking_intensity": 0.0, "is_braking": false, "is_crash": false, "crash_intensity_g": 0.0, "segment_start_sample": 3208, "segment_end_sample": 3219, "Speed_display": 15.8}}, {"type": "Feature", "geometry": {"type": "LineString", "coordinates": [[4.9061663, 52.3442862], [4.9061459, 52.3443354]]}, "properties": {"Speed": 14.4, "road_quality": 2, "marker": 7, "trip_id": "CRASH_Trip1", "hrot_diff": 1, "sample_diff": 14, "time_diff_s": 0.28, "gps_distance_m": 5.6, "original_speed": "2100", "wheel_diameter_mm": 711.1999999999999, "braking_intensity": 0.0, "is_braking": false, "is_crash": false, "crash_intensity_g": 0.0, "segment_start_sample": 3278, "segment_end_sample": 3292, "Speed_display": 16.4}}, {"type": "Feature", "geometry": {"type": "LineString", "coordinates": [[4.9061459, 52.3443354], [4.9061328, 52.3443782]]}, "properties": {"Speed": 18.3, "road_quality": 2, "marker": 7, "trip_id": "CRASH_Trip1", "hrot_diff": 1, "sample_diff": 11, "time_diff_s": 0.22, "gps_distance_m": 4.8, "original_speed": "2173", "wheel_diameter_mm": 711.1999999999999, "braking_intensity": 0.0, "is_braking": false, "is_crash": false, "crash_intensity_g": 0.0, "segment_start_sample": 3316, "segment_end_sample": 3327, "Speed_display": 16.7}}, {"type": "Feature", "geometry": {"type": "LineString", "coordinates": [[4.9061328, 52.3443782], [4.9061197, 52.3444187]]}, "properties": {"Speed": 15.5, "road_quality": 2, "marker": 7, "trip_id": "CRASH_Trip1", "hrot_diff": 1, "sample_diff": 13, "time_diff_s": 0.26, "gps_distance_m": 4.6, "original_speed": "2118", "wheel_diameter_mm": 711.1999999999999, "braking_intensity": 0.0, "is_braking": false, "is_crash": false, "crash_intensity_g": 0.0, "segment_start_sample": 3362, "segment_end_sample": 3375, "Speed_display": 17.0}}, {"type": "Feature", "geometry": {"type": "LineString", "coordinates": [[4.9061197, 52.3444187], [4.9061065, 52.3444602]]}, "properties": {"Speed": 16.8, "road_quality": 2, "marker": 7, "trip_id": "CRASH_Trip1", "hrot_diff": 1, "sample_diff": 12, "time_diff_s": 0.24, "gps_distance_m": 4.7, "original_speed": "2118", "wheel_diameter_mm": 711.1999999999999, "braking_intensity": 0.0, "is_braking": false, "is_crash": false, "crash_intensity_g": 0.0, "segment_start_sample": 3409, "segment_end_sample": 3421, "Speed_display": 18.2}}, {"type": "Feature", "geometry": {"type": "LineString", "coordinates": [[4.9061065, 52.3444602], [4.9060899, 52.3445026]]}, "properties": {"Speed": 20.1, "road_quality": 2, "marker": 7, "trip_id": "CRASH_Trip1", "hrot_diff": 1, "sample_diff": 10, "time_diff_s": 0.2, "gps_distance_m": 4.8, "original_speed": "2136", "wheel_diameter_mm": 711.1999999999999, "braking_intensity": 0.0, "is_braking": false, "is_crash": false, "crash_intensity_g": 0.0, "segment_start_sample": 3467, "segment_end_sample": 3477, "Speed_display": 18.2}}, {"type": "Feature", "geometry": {"type": "LineString", "coordinates": [[4.9060899, 52.3445026], [4.9060662, 52.3445469]]}, "properties": {"Speed": 20.1, "road_quality": 2, "marker": 7, "trip_id": "CRASH_Trip1", "hrot_diff": 1, "sample_diff": 10, "time_diff_s": 0.2, "gps_distance_m": 5.2, "original_speed": "2192", "wheel_diameter_mm": 711.1999999999999, "braking_intensity": 0.0, "is_braking": false, "is_crash": false, "crash_intensity_g": 0.0, "segment_start_sample": 3512, "segment_end_sample": 3522, "Speed_display": 18.7}}, {"type": "Feature", "geometry": {"type": "LineString", "coordinates": [[4.9060662, 52.3445469], [4.9060529, 52.3445908]]}, "properties": {"Speed": 18.3, "road_quality": 2, "marker": 7, "trip_id": "CRASH_Trip1", "hrot_diff": 1, "sample_diff": 11, "time_diff_s": 0.22, "gps_distance_m": 5.0, "original_speed": "2212", "wheel_diameter_mm": 711.1999999999999, "braking_intensity": 0.0, "is_braking": false, "is_crash": false, "crash_intensity_g": 0.0, "segment_start_sample": 3568, "segment_end_sample": 3579, "Speed_display": 19.4}}, {"type": "Feature", "geometry": {"type": "LineString", "coordinates": [[4.9060529, 52.3445908], [4.9060328, 52.3446335]]}, "properties": {"Speed": 18.3, "road_quality": 2, "marker": 7, "trip_id": "CRASH_Trip1", "hrot_diff": 1, "sample_diff": 11, "time_diff_s": 0.22, "gps_distance_m": 4.9, "original_speed": "2192", "wheel_diameter_mm": 711.1999999999999, "braking_intensity": 0.0, "is_braking": false, "is_crash": false, "crash_intensity_g": 0.0, "segment_start_sample": 3614, "segment_end_sample": 3625, "Speed_display": 19.0}}, {"type": "Feature", "geometry": {"type": "LineString", "coordinates": [[4.9060328, 52.3446335], [4.9060135, 52.3446796]]}, "properties": {"Speed": 20.1, "road_quality": 3, "marker": 7, "trip_id": "CRASH_Trip1", "hrot_diff": 1, "sample_diff": 10, "time_diff_s": 0.2, "gps_distance_m": 5.3, "original_speed": "2192", "wheel_diameter_mm": 711.1999999999999, "braking_intensity": 0.0, "is_braking": false, "is_crash": false, "crash_intensity_g": 0.0, "segment_start_sample": 3659, "segment_end_sample": 3669, "Speed_display": 18.4}}, {"type": "Feature", "geometry": {"type": "LineString", "coordinates": [[4.9060135, 52.3446796], [4.9060029, 52.344726]]}, "properties": {"Speed": 18.3, "road_quality": 3, "marker": 7, "trip_id": "CRASH_Trip1", "hrot_diff": 1, "sample_diff": 11, "time_diff_s": 0.22, "gps_distance_m": 5.2, "original_speed": "2293", "wheel_diameter_mm": 711.1999999999999, "braking_intensity": 0.0, "is_braking": false, "is_crash": false, "crash_intensity_g": 0.0, "segment_start_sample": 3714, "segment_end_sample": 3725, "Speed_display": 18.7}}, {"type": "Feature", "geometry": {"type": "LineString", "coordinates": [[4.9060029, 52.344726], [4.9059893, 52.3447697]]}, "properties": {"Speed": 16.8, "road_quality": 2, "marker": 7, "trip_id": "CRASH_Trip1", "hrot_diff": 1, "sample_diff": 12, "time_diff_s": 0.24, "gps_distance_m": 4.9, "original_speed": "2293", "wheel_diameter_mm": 711.1999999999999, "braking_intensity": 0.0, "is_braking": false, "is_crash": false, "crash_intensity_g": 0.0, "segment_start_sample": 3768, "segment_end_sample": 3780, "Speed_display": 18.4}}, {"type": "Feature", "geometry": {"type": "LineString", "coordinates": [[4.9059893, 52.3447697], [4.9059715, 52.3448141]]}, "properties": {"Speed": 20.1, "road_quality": 2, "marker": 7, "trip_id": "CRASH_Trip1", "hrot_diff": 1, "sample_diff": 10, "time_diff_s": 0.2, "gps_distance_m": 5.1, "original_speed": "2232", "wheel_diameter_mm": 711.1999999999999, "braking_intensity": 0.0, "is_braking": false, "is_crash": false, "crash_intensity_g": 0.0, "segment_start_sample": 3813, "segment_end_sample": 3823, "Speed_display": 18.1}}, {"type": "Feature", "geometry": {"type": "LineString", "coordinates": [[4.9059715, 52.3448141], [4.9059469, 52.3448586]]}, "properties": {"Speed": 16.8, "road_quality": 2, "marker": 7, "trip_id": "CRASH_Trip1", "hrot_diff": 1, "sample_diff": 12, "time_diff_s": 0.24, "gps_distance_m": 5.2, "original_speed": "2272", "wheel_diameter_mm": 711.1999999999999, "braking_intensity": 0.0, "is_braking": false, "is_crash": false, "crash_intensity_g": 0.0, "segment_start_sample": 3868, "segment_end_sample": 3880, "Speed_display": 17.5}}, {"type": "Feature", "geometry": {"type": "LineString", "coordinates": [[4.9059469, 52.3448586], [4.9059284, 52.3449077]]}, "properties": {"Speed": 18.3, "road_quality": 3, "marker": 7, "trip_id": "CRASH_Trip1", "hrot_diff": 1, "sample_diff": 11, "time_diff_s": 0.22, "gps_distance_m": 5.6, "original_speed": "2192", "wheel_diameter_mm": 711.1999999999999, "braking_intensity": 0.0, "is_braking": false, "is_crash": false, "crash_intensity_g": 0.0, "segment_start_sample": 3924, "segment_end_sample": 3935, "Speed_display": 17.8}}, {"type": "Feature", "geometry": {"type": "LineString", "coordinates": [[4.9059284, 52.3449077], [4.9059121, 52.3449497]]}, "properties": {"Speed": 15.5, "road_quality": 3, "marker": 7, "trip_id": "CRASH_Trip1", "hrot_diff": 1, "sample_diff": 13, "time_diff_s": 0.26, "gps_distance_m": 4.8, "original_speed": "2252", "wheel_diameter_mm": 711.1999999999999, "braking_intensity": 0.0, "is_braking": false, "is_crash": false, "crash_intensity_g": 0.0, "segment_start_sample": 3959, "segment_end_sample": 3972, "Speed_display": 17.8}}, {"type": "Feature", "geometry": {"type": "LineString", "coordinates": [[4.9059121, 52.3449497], [4.9059025, 52.3449954]]}, "properties": {"Speed": 18.3, "road_quality": 2, "marker": 7, "trip_id": "CRASH_Trip1", "hrot_diff": 1, "sample_diff": 11, "time_diff_s": 0.22, "gps_distance_m": 5.1, "original_speed": "2136", "wheel_diameter_mm": 711.1999999999999, "braking_intensity": 0.0, "is_braking": false, "is_crash": false, "crash_intensity_g": 0.0, "segment_start_sample": 4016, "segment_end_sample": 4027, "Speed_display": 18.9}}, {"type": "Feature", "geometry": {"type": "LineString", "coordinates": [[4.9059025, 52.3449954], [4.9058843, 52.345043]]}, "properties": {"Speed": 20.1, "road_quality": 3, "marker": 7, "trip_id": "CRASH_Trip1", "hrot_diff": 1, "sample_diff": 10, "time_diff_s": 0.2, "gps_distance_m": 5.4, "original_speed": "2212", "wheel_diameter_mm": 711.1999999999999, "braking_intensity": 0.0, "is_braking": false, "is_crash": false, "crash_intensity_g": 0.0, "segment_start_sample": 4062, "segment_end_sample": 4072, "Speed_display": 18.9}}, {"type": "Feature", "geometry": {"type": "LineString", "coordinates": [[4.9058843, 52.345043], [4.9058599, 52.3450942]]}, "properties": {"Speed": 22.3, "road_quality": 4, "marker": 6, "trip_id": "CRASH_Trip1", "hrot_diff": 1, "sample_diff": 9, "time_diff_s": 0.18, "gps_distance_m": 5.9, "original_speed": "-1", "wheel_diameter_mm": 711.1999999999999, "braking_intensity": 0.0, "is_braking": false, "is_crash": false, "crash_intensity_g": 0.0, "segment_start_sample": 4116, "segment_end_sample": 4125, "Speed_display": 19.2}}, {"type": "Feature", "geometry": {"type": "LineString", "coordinates": [[4.9058599, 52.3450942], [4.905837, 52.3451388]]}, "properties": {"Speed": 18.3, "road_quality": 3, "marker": 6, "trip_id": "CRASH_Trip1", "hrot_diff": 1, "sample_diff": 11, "time_diff_s": 0.22, "gps_distance_m": 5.2, "original_speed": "-1", "wheel_diameter_mm": 711.1999999999999, "braking_intensity": 0.0, "is_braking": false, "is_crash": false, "crash_intensity_g": 0.0, "segment_start_sample": 4170, "segment_end_sample": 4181, "Speed_display": 18.6}}, {"type": "Feature", "geometry": {"type": "LineString", "coordinates": [[4.905837, 52.3451388], [4.905817, 52.3451788]]}, "properties": {"Speed": 16.8, "road_quality": 2, "marker": 7, "trip_id": "CRASH_Trip1", "hrot_diff": 1, "sample_diff": 12, "time_diff_s": 0.24, "gps_distance_m": 4.7, "original_speed": "2314", "wheel_diameter_mm": 711.1999999999999, "braking_intensity": 0.0, "is_braking": false, "is_crash": false, "crash_intensity_g": 0.0, "segment_start_sample": 4213, "segment_end_sample": 4225, "Speed_display": 18.6}}, {"type": "Feature", "geometry": {"type": "LineString", "coordinates": [[4.905817, 52.3451788], [4.9058004, 52.3452226]]}, "properties": {"Speed": 15.5, "road_quality": 2, "marker": 7, "trip_id": "CRASH_Trip1", "hrot_diff": 1, "sample_diff": 13, "time_diff_s": 0.26, "gps_distance_m": 5.0, "original_speed": "2272", "wheel_diameter_mm": 711.1999999999999, "braking_intensity": 0.0, "is_braking": false, "is_crash": false, "crash_intensity_g": 0.0, "segment_start_sample": 4267, "segment_end_sample": 4280, "Speed_display": 17.5}}, {"type": "Feature", "geometry": {"type": "LineString", "coordinates": [[4.9058004, 52.3452226], [4.9057769, 52.3452569]]}, "properties": {"Speed": 20.1, "road_quality": 3, "marker": 7, "trip_id": "CRASH_Trip1", "hrot_diff": 1, "sample_diff": 10, "time_diff_s": 0.2, "gps_distance_m": 4.1, "original_speed": "2314", "wheel_diameter_mm": 711.1999999999999, "braking_intensity": 0.0, "is_braking": false, "is_crash": false, "crash_intensity_g": 0.0, "segment_start_sample": 4312, "segment_end_sample": 4322, "Speed_display": 18.3}}, {"type": "Feature", "geometry": {"type": "LineString", "coordinates": [[4.9057769, 52.3452569], [4.905761, 52.3452939]]}, "properties": {"Speed": 16.8, "road_quality": 3, "marker": 7, "trip_id": "CRASH_Trip1", "hrot_diff": 1, "sample_diff": 12, "time_diff_s": 0.24, "gps_distance_m": 4.3, "original_speed": "2314", "wheel_diameter_mm": 711.1999999999999, "braking_intensity": 0.0, "is_braking": false, "is_crash": false, "crash_intensity_g": 0.0, "segment_start_sample": 4365, "segment_end_sample": 4377, "Speed_display": 19.0}}, {"type": "Feature", "geometry": {"type": "LineString", "coordinates": [[4.905761, 52.3452939], [4.9057486, 52.3453391]]}, "properties": {"Speed": 22.3, "road_quality": 2, "marker": 7, "trip_id": "CRASH_Trip1", "hrot_diff": 1, "sample_diff": 9, "time_diff_s": 0.18, "gps_distance_m": 5.1, "original_speed": "2212", "wheel_diameter_mm": 711.1999999999999, "braking_intensity": 0.0, "is_braking": false, "is_crash": false, "crash_intensity_g": 0.0, "segment_start_sample": 4411, "segment_end_sample": 4420, "Speed_display": 19.2}}, {"type": "Feature", "geometry": {"type": "LineString", "coordinates": [[4.9057486, 52.3453391], [4.9057263, 52.3453861]]}, "properties": {"Speed": 20.1, "road_quality": 2, "marker": 7, "trip_id": "CRASH_Trip1", "hrot_diff": 1, "sample_diff": 10, "time_diff_s": 0.2, "gps_distance_m": 5.4, "original_speed": "2293", "wheel_diameter_mm": 711.1999999999999, "braking_intensity": 0.0, "is_braking": false, "is_crash": false, "crash_intensity_g": 0.0, "segment_start_sample": 4476, "segment_end_sample": 4486, "Speed_display": 18.3}}, {"type": "Feature", "geometry": {"type": "LineString", "coordinates": [[4.9057263, 52.3453861], [4.9057081, 52.3454289]]}, "properties": {"Speed": 16.8, "road_quality": 2, "marker": 7, "trip_id": "CRASH_Trip1", "hrot_diff": 1, "sample_diff": 12, "time_diff_s": 0.24, "gps_distance_m": 4.9, "original_speed": "2293", "wheel_diameter_mm": 711.1999999999999, "braking_intensity": 0.0, "is_braking": false, "is_crash": false, "crash_intensity_g": 0.0, "segment_start_sample": 4518, "segment_end_sample": 4530, "Speed_display": 19.0}}, {"type": "Feature", "geometry": {"type": "LineString", "coordinates": [[4.9057081, 52.3454289], [4.9056952, 52.3454679]]}, "properties": {"Speed": 15.5, "road_quality": 3, "marker": 7, "trip_id": "CRASH_Trip1", "hrot_diff": 1, "sample_diff": 13, "time_diff_s": 0.26, "gps_distance_m": 4.4, "original_speed": "2314", "wheel_diameter_mm": 711.1999999999999, "braking_intensity": 0.0, "is_braking": false, "is_crash": false, "crash_intensity_g": 0.0, "segment_start_sample": 4563, "segment_end_sample": 4576, "Speed_display": 18.2}}, {"type": "Feature", "geometry": {"type": "LineString", "coordinates": [[4.9056952, 52.3454679], [4.9056819, 52.3455134]]}, "properties": {"Speed": 20.1, "road_quality": 3, "marker": 7, "trip_id": "CRASH_Trip1", "hrot_diff": 1, "sample_diff": 10, "time_diff_s": 0.2, "gps_distance_m": 5.1, "original_speed": "2232", "wheel_diameter_mm": 711.1999999999999, "braking_intensity": 0.0, "is_braking": false, "is_crash": false, "crash_intensity_g": 0.0, "segment_start_sample": 4609, "segment_end_sample": 4619, "Speed_display": 17.5}}, {"type": "Feature", "geometry": {"type": "LineString", "coordinates": [[4.9056819, 52.3455134], [4.9056675, 52.3455613]]}, "properties": {"Speed": 18.3, "road_quality": 2, "marker": 7, "trip_id": "CRASH_Trip1", "hrot_diff": 1, "sample_diff": 11, "time_diff_s": 0.22, "gps_distance_m": 5.4, "original_speed": "2293", "wheel_diameter_mm": 711.1999999999999, "braking_intensity": 0.0, "is_braking": false, "is_crash": false, "crash_intensity_g": 0.0, "segment_start_sample": 4664, "segment_end_sample": 4675, "Speed_display": 17.5}}, {"type": "Feature", "geometry": {"type": "LineString", "coordinates": [[4.9056675, 52.3455613], [4.9056525, 52.3456026]]}, "properties": {"Speed": 16.8, "road_quality": 2, "marker": 7, "trip_id": "CRASH_Trip1", "hrot_diff": 1, "sample_diff": 12, "time_diff_s": 0.24, "gps_distance_m": 4.7, "original_speed": "2232", "wheel_diameter_mm": 711.1999999999999, "braking_intensity": 0.0, "is_braking": false, "is_crash": false, "crash_intensity_g": 0.0, "segment_start_sample": 4709, "segment_end_sample": 4721, "Speed_display": 17.5}}, {"type": "Feature", "geometry": {"type": "LineString", "coordinates": [[4.9056525, 52.3456026], [4.905641, 52.3456389]]}, "properties": {"Speed": 16.8, "road_quality": 2, "marker": 7, "trip_id": "CRASH_Trip1", "hrot_diff": 1, "sample_diff": 12, "time_diff_s": 0.24, "gps_distance_m": 4.1, "original_speed": "2192", "wheel_diameter_mm": 711.1999999999999, "braking_intensity": 0.0, "is_braking": false, "is_crash": false, "crash_intensity_g": 0.0, "segment_start_sample": 4765, "segment_end_sample": 4777, "Speed_display": 17.1}}, {"type": "Feature", "geometry": {"type": "LineString", "coordinates": [[4.905641, 52.3456389], [4.9056267, 52.3456822]]}, "properties": {"Speed": 15.5, "road_quality": 2, "marker": 7, "trip_id": "CRASH_Trip1", "hrot_diff": 1, "sample_diff": 13, "time_diff_s": 0.26, "gps_distance_m": 4.9, "original_speed": "2212", "wheel_diameter_mm": 711.1999999999999, "braking_intensity": 0.0, "is_braking": false, "is_crash": false, "crash_intensity_g": 0.0, "segment_start_sample": 4822, "segment_end_sample": 4835, "Speed_display": 17.1}}, {"type": "Feature", "geometry": {"type": "LineString", "coordinates": [[4.9056267, 52.3456822], [4.9056123, 52.3457258]]}, "properties": {"Speed": 18.3, "road_quality": 2, "marker": 7, "trip_id": "CRASH_Trip1", "hrot_diff": 1, "sample_diff": 11, "time_diff_s": 0.22, "gps_distance_m": 4.9, "original_speed": "2212", "wheel_diameter_mm": 711.1999999999999, "braking_intensity": 0.0, "is_braking": false, "is_crash": false, "crash_intensity_g": 0.0, "segment_start_sample": 4858, "segment_end_sample": 4869, "Speed_display": 17.1}}, {"type": "Feature", "geometry": {"type": "LineString", "coordinates": [[4.9056123, 52.3457258], [4.9055921, 52.3457753]]}, "properties": {"Speed": 18.3, "road_quality": 2, "marker": 7, "trip_id": "CRASH_Trip1", "hrot_diff": 1, "sample_diff": 11, "time_diff_s": 0.22, "gps_distance_m": 5.7, "original_speed": "2192", "wheel_diameter_mm": 711.1999999999999, "braking_intensity": 0.0, "is_braking": false, "is_crash": false, "crash_intensity_g": 0.0, "segment_start_sample": 4927, "segment_end_sample": 4938, "Speed_display": 16.9}}, {"type": "Feature", "geometry": {"type": "LineString", "coordinates": [[4.9055921, 52.3457753], [4.9055738, 52.3458099]]}, "properties": {"Speed": 16.8, "road_quality": 2, "marker": 7, "trip_id": "CRASH_Trip1", "hrot_diff": 1, "sample_diff": 12, "time_diff_s": 0.24, "gps_distance_m": 4.0, "original_speed": "2173", "wheel_diameter_mm": 711.1999999999999, "braking_intensity": 0.0, "is_braking": false, "is_crash": false, "crash_intensity_g": 0.0, "segment_start_sample": 4962, "segment_end_sample": 4974, "Speed_display": 17.4}}, {"type": "Feature", "geometry": {"type": "LineString", "coordinates": [[4.9055738, 52.3458099], [4.9055603, 52.3458448]]}, "properties": {"Speed": 15.5, "road_quality": 3, "marker": 7, "trip_id": "CRASH_Trip1", "hrot_diff": 1, "sample_diff": 13, "time_diff_s": 0.26, "gps_distance_m": 4.0, "original_speed": "2155", "wheel_diameter_mm": 711.1999999999999, "braking_intensity": 0.0, "is_braking": false, "is_crash": false, "crash_intensity_g": 0.0, "segment_start_sample": 5007, "segment_end_sample": 5020, "Speed_display": 16.9}}, {"type": "Feature", "geometry": {"type": "LineString", "coordinates": [[4.9055603, 52.3458448], [4.9055473, 52.3458901]]}, "properties": {"Speed": 18.3, "road_quality": 3, "marker": 7, "trip_id": "CRASH_Trip1", "hrot_diff": 1, "sample_diff": 11, "time_diff_s": 0.22, "gps_distance_m": 5.1, "original_speed": "2136", "wheel_diameter_mm": 711.1999999999999, "braking_intensity": 0.0, "is_braking": false, "is_crash": false, "crash_intensity_g": 0.0, "segment_start_sample": 5067, "segment_end_sample": 5078, "Speed_display": 16.3}}, {"type": "Feature", "geometry": {"type": "LineString", "coordinates": [[4.9055473, 52.3458901], [4.9055376, 52.3459328]]}, "properties": {"Speed": 15.5, "road_quality": 2, "marker": 7, "trip_id": "CRASH_Trip1", "hrot_diff": 1, "sample_diff": 13, "time_diff_s": 0.26, "gps_distance_m": 4.8, "original_speed": "2118", "wheel_diameter_mm": 711.1999999999999, "braking_intensity": 0.0, "is_braking": false, "is_crash": false, "crash_intensity_g": 0.0, "segment_start_sample": 5114, "segment_end_sample": 5127, "Speed_display": 16.6}}, {"type": "Feature", "geometry": {"type": "LineString", "coordinates": [[4.9055376, 52.3459328], [4.905538, 52.3459691]]}, "properties": {"Speed": 15.5, "road_quality": 2, "marker": 7, "trip_id": "CRASH_Trip1", "hrot_diff": 1, "sample_diff": 13, "time_diff_s": 0.26, "gps_distance_m": 4.0, "original_speed": "1960", "wheel_diameter_mm": 711.1999999999999, "braking_intensity": 0.0, "is_braking": false, "is_crash": false, "crash_intensity_g": 0.0, "segment_start_sample": 5165, "segment_end_sample": 5178, "Speed_display": 16.6}}, {"type": "Feature", "geometry": {"type": "LineString", "coordinates": [[4.905538, 52.3459691], [4.9055402, 52.3460073]]}, "properties": {"Speed": 18.3, "road_quality": 3, "marker": 7, "trip_id": "CRASH_Trip1", "hrot_diff": 1, "sample_diff": 11, "time_diff_s": 0.22, "gps_distance_m": 4.3, "original_speed": "1923", "wheel_diameter_mm": 711.1999999999999, "braking_intensity": 0.0, "is_braking": false, "is_crash": false, "crash_intensity_g": 0.0, "segment_start_sample": 5218, "segment_end_sample": 5229, "Speed_display": 16.1}}, {"type": "Feature", "geometry": {"type": "LineString", "coordinates": [[4.9055402, 52.3460073], [4.9055481, 52.346054]]}, "properties": {"Speed": 15.5, "road_quality": 3, "marker": 7, "trip_id": "CRASH_Trip1", "hrot_diff": 1, "sample_diff": 13, "time_diff_s": 0.26, "gps_distance_m": 5.2, "original_speed": "1886", "wheel_diameter_mm": 711.1999999999999, "braking_intensity": 0.0, "is_braking": false, "is_crash": false, "crash_intensity_g": 0.0, "segment_start_sample": 5256, "segment_end_sample": 5269, "Speed_display": 16.3}}, {"type": "Feature", "geometry": {"type": "LineString", "coordinates": [[4.9055481, 52.346054], [4.9055824, 52.3460898]]}, "properties": {"Speed": 15.5, "road_quality": 3, "marker": 7, "trip_id": "CRASH_Trip1", "hrot_diff": 1, "sample_diff": 13, "time_diff_s": 0.26, "gps_distance_m": 4.6, "original_speed": "1941", "wheel_diameter_mm": 711.1999999999999, "braking_intensity": 0.0, "is_braking": false, "is_crash": false, "crash_intensity_g": 0.0, "segment_start_sample": 5307, "segment_end_sample": 5320, "Speed_display": 16.3}}, {"type": "Feature", "geometry": {"type": "LineString", "coordinates": [[4.9055824, 52.3460898], [4.905633, 52.3461302]]}, "properties": {"Speed": 16.8, "road_quality": 2, "marker": 7, "trip_id": "CRASH_Trip1", "hrot_diff": 1, "sample_diff": 12, "time_diff_s": 0.24, "gps_distance_m": 5.7, "original_speed": "1984", "wheel_diameter_mm": 711.1999999999999, "braking_intensity": 0.0, "is_braking": false, "is_crash": false, "crash_intensity_g": 0.0, "segment_start_sample": 5357, "segment_end_sample": 5369, "Speed_display": 15.8}}, {"type": "Feature", "geometry": {"type": "LineString", "coordinates": [[4.905633, 52.3461302], [4.9056984, 52.3461548]]}, "properties": {"Speed": 15.5, "road_quality": 3, "marker": 7, "trip_id": "CRASH_Trip1", "hrot_diff": 1, "sample_diff": 13, "time_diff_s": 0.26, "gps_distance_m": 5.2, "original_speed": "2100", "wheel_diameter_mm": 711.1999999999999, "braking_intensity": 0.0, "is_braking": false, "is_crash": false, "crash_intensity_g": 0.0, "segment_start_sample": 5415, "segment_end_sample": 5428, "Speed_display": 15.8}}, {"type": "Feature", "geometry": {"type": "LineString", "coordinates": [[4.9056984, 52.3461548], [4.9057408, 52.3461715]]}, "properties": {"Speed": 15.5, "road_quality": 3, "marker": 7, "trip_id": "CRASH_Trip1", "hrot_diff": 1, "sample_diff": 13, "time_diff_s": 0.26, "gps_distance_m": 3.4, "original_speed": "2136", "wheel_diameter_mm": 711.1999999999999, "braking_intensity": 0.0, "is_braking": false, "is_crash": false, "crash_intensity_g": 0.0, "segment_start_sample": 5462, "segment_end_sample": 5475, "Speed_display": 16.0}}, {"type": "Feature", "geometry": {"type": "LineString", "coordinates": [[4.9057408, 52.3461715], [4.9058143, 52.3461895]]}, "properties": {"Speed": 15.5, "road_quality": 3, "marker": 7, "trip_id": "CRASH_Trip1", "hrot_diff": 1, "sample_diff": 13, "time_diff_s": 0.26, "gps_distance_m": 5.4, "original_speed": "2136", "wheel_diameter_mm": 711.1999999999999, "braking_intensity": 0.0, "is_braking": false, "is_crash": false, "crash_intensity_g": 0.0, "segment_start_sample": 5509, "segment_end_sample": 5522, "Speed_display": 15.3}}, {"type": "Feature", "geometry": {"type": "LineString", "coordinates": [[4.9058143, 52.3461895], [4.9058807, 52.3462051]]}, "properties": {"Speed": 16.8, "road_quality": 3, "marker": 7, "trip_id": "CRASH_Trip1", "hrot_diff": 1, "sample_diff": 12, "time_diff_s": 0.24, "gps_distance_m": 4.8, "original_speed": "2173", "wheel_diameter_mm": 711.1999999999999, "braking_intensity": 0.0, "is_braking": false, "is_crash": false, "crash_intensity_g": 0.0, "segment_start_sample": 5566, "segment_end_sample": 5578, "Speed_display": 15.1}}, {"type": "Feature", "geometry": {"type": "LineString", "coordinates": [[4.9058807, 52.3462051], [4.9059549, 52.3462154]]}, "properties": {"Speed": 13.4, "road_quality": 3, "marker": 7, "trip_id": "CRASH_Trip1", "hrot_diff": 1, "sample_diff": 15, "time_diff_s": 0.3, "gps_distance_m": 5.2, "original_speed": "2272", "wheel_diameter_mm": 711.1999999999999, "braking_intensity": 0.0, "is_braking": false, "is_crash": false, "crash_intensity_g": 0.0, "segment_start_sample": 5610, "segment_end_sample": 5625, "Speed_display": 17.0}}, {"type": "Feature", "geometry": {"type": "LineString", "coordinates": [[4.9059549, 52.3462154], [4.9060265, 52.3462273]]}, "properties": {"Speed": 14.4, "road_quality": 3, "marker": 7, "trip_id": "CRASH_Trip1", "hrot_diff": 1, "sample_diff": 14, "time_diff_s": 0.28, "gps_distance_m": 5.0, "original_speed": "2232", "wheel_diameter_mm": 711.1999999999999, "braking_intensity": 0.0, "is_braking": false, "is_crash": false, "crash_intensity_g": 0.0, "segment_start_sample": 5655, "segment_end_sample": 5669, "Speed_display": 17.3}}, {"type": "Feature", "geometry": {"type": "LineString", "coordinates": [[4.9060265, 52.3462273], [4.9060934, 52.3462292]]}, "properties": {"Speed": 25.1, "road_quality": 3, "marker": 7, "trip_id": "CRASH_Trip1", "hrot_diff": 1, "sample_diff": 8, "time_diff_s": 0.16, "gps_distance_m": 4.5, "original_speed": "2155", "wheel_diameter_mm": 711.1999999999999, "braking_intensity": 0.0, "is_braking": false, "is_crash": false, "crash_intensity_g": 0.0, "segment_start_sample": 5726, "segment_end_sample": 5734, "Speed_display": 17.0}}, {"type": "Feature", "geometry": {"type": "LineString", "coordinates": [[4.9060934, 52.3462292], [4.9061332, 52.346234]]}, "properties": {"Speed": 16.8, "road_quality": 3, "marker": 7, "trip_id": "CRASH_Trip1", "hrot_diff": 1, "sample_diff": 12, "time_diff_s": 0.24, "gps_distance_m": 2.8, "original_speed": "2212", "wheel_diameter_mm": 711.1999999999999, "braking_intensity": 0.0, "is_braking": false, "is_crash": false, "crash_intensity_g": 0.0, "segment_start_sample": 5759, "segment_end_sample": 5771, "Speed_display": 17.5}}, {"type": "Feature", "geometry": {"type": "LineString", "coordinates": [[4.9061332, 52.346234], [4.906197, 52.346245]]}, "properties": {"Speed": 15.5, "road_quality": 2, "marker": 7, "trip_id": "CRASH_Trip1", "hrot_diff": 1, "sample_diff": 13, "time_diff_s": 0.26, "gps_distance_m": 4.5, "original_speed": "2232", "wheel_diameter_mm": 711.1999999999999, "braking_intensity": 0.0, "is_braking": false, "is_crash": false, "crash_intensity_g": 0.0, "segment_start_sample": 5816, "segment_end_sample": 5829, "Speed_display": 17.5}}, {"type": "Feature", "geometry": {"type": "LineString", "coordinates": [[4.906197, 52.346245], [4.9062685, 52.3462715]]}, "properties": {"Speed": 15.5, "road_quality": 2, "marker": 7, "trip_id": "CRASH_Trip1", "hrot_diff": 1, "sample_diff": 13, "time_diff_s": 0.26, "gps_distance_m": 5.7, "original_speed": "2118", "wheel_diameter_mm": 711.1999999999999, "braking_intensity": 0.0, "is_braking": false, "is_crash": false, "crash_intensity_g": 0.0, "segment_start_sample": 5863, "segment_end_sample": 5876, "Speed_display": 15.5}}, {"type": "Feature", "geometry": {"type": "LineString", "coordinates": [[4.9062685, 52.3462715], [4.9063423, 52.3462962]]}, "properties": {"Speed": 14.4, "road_quality": 3, "marker": 7, "trip_id": "CRASH_Trip1", "hrot_diff": 1, "sample_diff": 14, "time_diff_s": 0.28, "gps_distance_m": 5.7, "original_speed": "2155", "wheel_diameter_mm": 711.1999999999999, "braking_intensity": 0.0, "is_braking": false, "is_crash": false, "crash_intensity_g": 0.0, "segment_start_sample": 5922, "segment_end_sample": 5936, "Speed_display": 15.1}}, {"type": "Feature", "geometry": {"type": "LineString", "coordinates": [[4.9063423, 52.3462962], [4.9064083, 52.3463133]]}, "properties": {"Speed": 15.5, "road_quality": 3, "marker": 7, "trip_id": "CRASH_Trip1", "hrot_diff": 1, "sample_diff": 13, "time_diff_s": 0.26, "gps_distance_m": 4.9, "original_speed": "2192", "wheel_diameter_mm": 711.1999999999999, "braking_intensity": 0.0, "is_braking": false, "is_crash": false, "crash_intensity_g": 0.0, "segment_start_sample": 5968, "segment_end_sample": 5981, "Speed_display": 16.0}}, {"type": "Feature", "geometry": {"type": "LineString", "coordinates": [[4.9064083, 52.3463133], [4.9064719, 52.3463306]]}, "properties": {"Speed": 14.4, "road_quality": 3, "marker": 7, "trip_id": "CRASH_Trip1", "hrot_diff": 1, "sample_diff": 14, "time_diff_s": 0.28, "gps_distance_m": 4.7, "original_speed": "2066", "wheel_diameter_mm": 711.1999999999999, "braking_intensity": 0.0, "is_braking": false, "is_crash": false, "crash_intensity_g": 0.0, "segment_start_sample": 6017, "segment_end_sample": 6031, "Speed_display": 16.5}}, {"type": "Feature", "geometry": {"type": "LineString", "coordinates": [[4.9064719, 52.3463306], [4.9065306, 52.3463425]]}, "properties": {"Speed": 20.1, "road_quality": 2, "marker": 7, "trip_id": "CRASH_Trip1", "hrot_diff": 1, "sample_diff": 10, "time_diff_s": 0.2, "gps_distance_m": 4.2, "original_speed": "2000", "wheel_diameter_mm": 711.1999999999999, "braking_intensity": 0.0, "is_braking": false, "is_crash": false, "crash_intensity_g": 0.0, "segment_start_sample": 6067, "segment_end_sample": 6077, "Speed_display": 17.3}}, {"type": "Feature", "geometry": {"type": "LineString", "coordinates": [[4.9065306, 52.3463425], [4.9065912, 52.3463552]]}, "properties": {"Speed": 18.3, "road_quality": 3, "marker": 7, "trip_id": "CRASH_Trip1", "hrot_diff": 1, "sample_diff": 11, "time_diff_s": 0.22, "gps_distance_m": 4.4, "original_speed": "2155", "wheel_diameter_mm": 711.1999999999999, "braking_intensity": 0.0, "is_braking": false, "is_crash": false, "crash_intensity_g": 0.0, "segment_start_sample": 6114, "segment_end_sample": 6125, "Speed_display": 17.6}}, {"type": "Feature", "geometry": {"type": "LineString", "coordinates": [[4.9065912, 52.3463552], [4.9066633, 52.3463724]]}, "properties": {"Speed": 18.3, "road_quality": 3, "marker": 7, "trip_id": "CRASH_Trip1", "hrot_diff": 1, "sample_diff": 11, "time_diff_s": 0.22, "gps_distance_m": 5.3, "original_speed": "2066", "wheel_diameter_mm": 711.1999999999999, "braking_intensity": 0.0, "is_braking": false, "is_crash": false, "crash_intensity_g": 0.0, "segment_start_sample": 6160, "segment_end_sample": 6171, "Speed_display": 17.8}}, {"type": "Feature", "geometry": {"type": "LineString", "coordinates": [[4.9066633, 52.3463724], [4.9067353, 52.3463911]]}, "properties": {"Speed": 16.8, "road_quality": 3, "marker": 7, "trip_id": "CRASH_Trip1", "hrot_diff": 1, "sample_diff": 12, "time_diff_s": 0.24, "gps_distance_m": 5.3, "original_speed": "2212", "wheel_diameter_mm": 711.1999999999999, "braking_intensity": 0.0, "is_braking": false, "is_crash": false, "crash_intensity_g": 0.0, "segment_start_sample": 6218, "segment_end_sample": 6230, "Speed_display": 16.9}}, {"type": "Feature", "geometry": {"type": "LineString", "coordinates": [[4.9067353, 52.3463911], [4.9068007, 52.3464066]]}, "properties": {"Speed": 15.5, "road_quality": 3, "marker": 7, "trip_id": "CRASH_Trip1", "hrot_diff": 1, "sample_diff": 13, "time_diff_s": 0.26, "gps_distance_m": 4.8, "original_speed": "2212", "wheel_diameter_mm": 711.1999999999999, "braking_intensity": 0.0, "is_braking": false, "is_crash": false, "crash_intensity_g": 0.0, "segment_start_sample": 6262, "segment_end_sample": 6275, "Speed_display": 16.6}}, {"type": "Feature", "geometry": {"type": "LineString", "coordinates": [[4.9068007, 52.3464066], [4.9068736, 52.3464238]]}, "properties": {"Speed": 15.5, "road_quality": 3, "marker": 7, "trip_id": "CRASH_Trip1", "hrot_diff": 1, "sample_diff": 13, "time_diff_s": 0.26, "gps_distance_m": 5.3, "original_speed": "2100", "wheel_diameter_mm": 711.1999999999999, "braking_intensity": 0.0, "is_braking": false, "is_crash": false, "crash_intensity_g": 0.0, "segment_start_sample": 6310, "segment_end_sample": 6323, "Speed_display": 16.0}}, {"type": "Feature", "geometry": {"type": "LineString", "coordinates": [[4.9068736, 52.3464238], [4.906931, 52.3464352]]}, "properties": {"Speed": 16.8, "road_quality": 2, "marker": 7, "trip_id": "CRASH_Trip1", "hrot_diff": 1, "sample_diff": 12, "time_diff_s": 0.24, "gps_distance_m": 4.1, "original_speed": "2173", "wheel_diameter_mm": 711.1999999999999, "braking_intensity": 0.0, "is_braking": false, "is_crash": false, "crash_intensity_g": 0.0, "segment_start_sample": 6368, "segment_end_sample": 6380, "Speed_display": 16.0}}, {"type": "Feature", "geometry": {"type": "LineString", "coordinates": [[4.906931, 52.3464352], [4.9069942, 52.3464459]]}, "properties": {"Speed": 15.5, "road_quality": 3, "marker": 7, "trip_id": "CRASH_Trip1", "hrot_diff": 1, "sample_diff": 13, "time_diff_s": 0.26, "gps_distance_m": 4.5, "original_speed": "2212", "wheel_diameter_mm": 711.1999999999999, "braking_intensity": 0.0, "is_braking": false, "is_crash": false, "crash_intensity_g": 0.0, "segment_start_sample": 6413, "segment_end_sample": 6426, "Speed_display": 16.4}}, {"type": "Feature", "geometry": {"type": "LineString", "coordinates": [[4.9069942, 52.3464459], [4.9070644, 52.3464565]]}, "properties": {"Speed": 16.8, "road_quality": 3, "marker": 7, "trip_id": "CRASH_Trip1", "hrot_diff": 1, "sample_diff": 12, "time_diff_s": 0.24, "gps_distance_m": 4.9, "original_speed": "2173", "wheel_diameter_mm": 711.1999999999999, "braking_intensity": 0.0, "is_braking": false, "is_crash": false, "crash_intensity_g": 0.0, "segment_start_sample": 6459, "segment_end_sample": 6471, "Speed_display": 16.7}}, {"type": "Feature", "geometry": {"type": "LineString", "coordinates": [[4.9070644, 52.3464565], [4.9074368, 52.346508]]}, "properties": {"Speed": 17.6, "road_quality": 2, "marker": 7, "trip_id": "CRASH_Trip1", "hrot_diff": 22, "sample_diff": 251, "time_diff_s": 5.02, "gps_distance_m": 25.9, "original_speed": "2192", "wheel_diameter_mm": 711.1999999999999, "braking_intensity": 0.13, "is_braking": false, "is_crash": true, "crash_intensity_g": 13.38, "segment_start_sample": 6494, "segment_end_sample": 6745, "Speed_display": 16.7}}, {"type": "Feature", "geometry": {"type": "LineString", "coordinates": [[4.9074368, 52.346508], [4.9075103, 52.3465169]]}, "properties": {"Speed": 16.8, "road_quality": 3, "marker": 7, "trip_id": "CRASH_Trip1", "hrot_diff": 1, "sample_diff": 12, "time_diff_s": 0.24, "gps_distance_m": 5.1, "original_speed": "2358", "wheel_diameter_mm": 711.1999999999999, "braking_intensity": 0.0, "is_braking": false, "is_crash": false, "crash_intensity_g": 0.0, "segment_start_sample": 6758, "segment_end_sample": 6770, "Speed_display": 17.0}}, {"type": "Feature", "geometry": {"type": "LineString", "coordinates": [[4.9075103, 52.3465169], [4.907589, 52.3465286]]}, "properties": {"Speed": 16.8, "road_quality": 3, "marker": 7, "trip_id": "CRASH_Trip1", "hrot_diff": 1, "sample_diff": 12, "time_diff_s": 0.24, "gps_distance_m": 5.5, "original_speed": "2293", "wheel_diameter_mm": 711.1999999999999, "braking_intensity": 0.0, "is_braking": false, "is_crash": false, "crash_intensity_g": 0.0, "segment_start_sample": 6811, "segment_end_sample": 6823, "Speed_display": 18.1}}, {"type": "Feature", "geometry": {"type": "LineString", "coordinates": [[4.907589, 52.3465286], [4.9076662, 52.3465381]]}, "properties": {"Speed": 16.8, "road_quality": 3, "marker": 7, "trip_id": "CRASH_Trip1", "hrot_diff": 1, "sample_diff": 12, "time_diff_s": 0.24, "gps_distance_m": 5.3, "original_speed": "2358", "wheel_diameter_mm": 711.1999999999999, "braking_intensity": 0.0, "is_braking": false, "is_crash": false, "crash_intensity_g": 0.0, "segment_start_sample": 6865, "segment_end_sample": 6877, "Speed_display": 19.0}}, {"type": "Feature", "geometry": {"type": "LineString", "coordinates": [[4.9076662, 52.3465381], [4.9077384, 52.3465473]]}, "properties": {"Speed": 22.3, "road_quality": 3, "marker": 7, "trip_id": "CRASH_Trip1", "hrot_diff": 1, "sample_diff": 9, "time_diff_s": 0.18, "gps_distance_m": 5.0, "original_speed": "2293", "wheel_diameter_mm": 711.1999999999999, "braking_intensity": 0.0, "is_braking": false, "is_crash": false, "crash_intensity_g": 0.0, "segment_start_sample": 6910, "segment_end_sample": 6919, "Speed_display": 19.0}}, {"type": "Feature", "geometry": {"type": "LineString", "coordinates": [[4.9077384, 52.3465473], [4.9078142, 52.3465577]]}, "properties": {"Speed": 22.3, "road_quality": 3, "marker": 7, "trip_id": "CRASH_Trip1", "hrot_diff": 1, "sample_diff": 9, "time_diff_s": 0.18, "gps_distance_m": 5.3, "original_speed": "2272", "wheel_diameter_mm": 711.1999999999999, "braking_intensity": 0.0, "is_braking": false, "is_crash": false, "crash_intensity_g": 0.0, "segment_start_sample": 6965, "segment_end_sample": 6974, "Speed_display": 19.7}}, {"type": "Feature", "geometry": {"type": "LineString", "coordinates": [[4.9078142, 52.3465577], [4.9078876, 52.3465689]]}, "properties": {"Speed": 16.8, "road_quality": 3, "marker": 7, "trip_id": "CRASH_Trip1", "hrot_diff": 1, "sample_diff": 12, "time_diff_s": 0.24, "gps_distance_m": 5.1, "original_speed": "2252", "wheel_diameter_mm": 711.1999999999999, "braking_intensity": 0.0, "is_braking": false, "is_crash": false, "crash_intensity_g": 0.0, "segment_start_sample": 7018, "segment_end_sample": 7030, "Speed_display": 19.4}}, {"type": "Feature", "geometry": {"type": "LineString", "coordinates": [[4.9078876, 52.3465689], [4.9079729, 52.3465816]]}, "properties": {"Speed": 20.1, "road_quality": 3, "marker": 7, "trip_id": "CRASH_Trip1", "hrot_diff": 1, "sample_diff": 10, "time_diff_s": 0.2, "gps_distance_m": 6.0, "original_speed": "2380", "wheel_diameter_mm": 711.1999999999999, "braking_intensity": 0.0, "is_braking": false, "is_crash": false, "crash_intensity_g": 0.0, "segment_start_sample": 7063, "segment_end_sample": 7073, "Speed_display": 18.3}}, {"type": "Feature", "geometry": {"type": "LineString", "coordinates": [[4.9079729, 52.3465816], [4.9080339, 52.3465894]]}, "properties": {"Speed": 15.5, "road_quality": 2, "marker": 7, "trip_id": "CRASH_Trip1", "hrot_diff": 1, "sample_diff": 13, "time_diff_s": 0.26, "gps_distance_m": 4.2, "original_speed": "2272", "wheel_diameter_mm": 711.1999999999999, "braking_intensity": 0.0, "is_braking": false, "is_crash": false, "crash_intensity_g": 0.0, "segment_start_sample": 7108, "segment_end_sample": 7121, "Speed_display": 16.4}}, {"type": "Feature", "geometry": {"type": "LineString", "coordinates": [[4.9080339, 52.3465894], [4.9080996, 52.3465965]]}, "properties": {"Speed": 16.8, "road_quality": 2, "marker": 7, "trip_id": "CRASH_Trip1", "hrot_diff": 1, "sample_diff": 12, "time_diff_s": 0.24, "gps_distance_m": 4.5, "original_speed": "2155", "wheel_diameter_mm": 711.1999999999999, "braking_intensity": 0.0, "is_braking": false, "is_crash": false, "crash_intensity_g": 0.0, "segment_start_sample": 7167, "segment_end_sample": 7179, "Speed_display": 15.9}}, {"type": "Feature", "geometry": {"type": "LineString", "coordinates": [[4.9080996, 52.3465965], [4.9081633, 52.3466039]]}, "properties": {"Speed": 12.6, "road_quality": 3, "marker": 7, "trip_id": "CRASH_Trip1", "hrot_diff": 1, "sample_diff": 16, "time_diff_s": 0.32, "gps_distance_m": 4.4, "original_speed": "2118", "wheel_diameter_mm": 711.1999999999999, "braking_intensity": 0.0, "is_braking": false, "is_crash": false, "crash_intensity_g": 0.0, "segment_start_sample": 7215, "segment_end_sample": 7231, "Speed_display": 14.2}}, {"type": "Feature", "geometry": {"type": "LineString", "coordinates": [[4.9081633, 52.3466039], [4.9082149, 52.346606]]}, "properties": {"Speed": 14.4, "road_quality": 3, "marker": 7, "trip_id": "CRASH_Trip1", "hrot_diff": 1, "sample_diff": 14, "time_diff_s": 0.28, "gps_distance_m": 3.5, "original_speed": "1869", "wheel_diameter_mm": 711.1999999999999, "braking_intensity": 0.0, "is_braking": false, "is_crash": false, "crash_intensity_g": 0.0, "segment_start_sample": 7257, "segment_end_sample": 7271, "Speed_display": 13.4}}, {"type": "Feature", "geometry": {"type": "LineString", "coordinates": [[4.9082149, 52.346606], [4.9082566, 52.3466121]]}, "properties": {"Speed": 11.8, "road_quality": 3, "marker": 7, "trip_id": "CRASH_Trip1", "hrot_diff": 1, "sample_diff": 17, "time_diff_s": 0.34, "gps_distance_m": 2.9, "original_speed": "1680", "wheel_diameter_mm": 711.1999999999999, "braking_intensity": 0.0, "is_braking": false, "is_crash": false, "crash_intensity_g": 0.0, "segment_start_sample": 7316, "segment_end_sample": 7333, "Speed_display": 11.7}}, {"type": "Feature", "geometry": {"type": "LineString", "coordinates": [[4.9082566, 52.3466121], [4.9082626, 52.3466149]]}, "properties": {"Speed": 11.2, "road_quality": 3, "marker": 7, "trip_id": "CRASH_Trip1", "hrot_diff": 1, "sample_diff": 18, "time_diff_s": 0.36, "gps_distance_m": 0.5, "original_speed": "1485", "wheel_diameter_mm": 711.1999999999999, "braking_intensity": 0.0, "is_braking": false, "is_crash": false, "crash_intensity_g": 0.0, "segment_start_sample": 7354, "segment_end_sample": 7372, "Speed_display": 10.4}}, {"type": "Feature", "geometry": {"type": "LineString", "coordinates": [[4.9082626, 52.3466149], [4.9082891, 52.3466345]]}, "properties": {"Speed": 8.7, "road_quality": 3, "marker": 6, "trip_id": "CRASH_Trip1", "hrot_diff": 1, "sample_diff": 23, "time_diff_s": 0.46, "gps_distance_m": 2.8, "original_speed": "-1", "wheel_diameter_mm": 711.1999999999999, "braking_intensity": 0.0, "is_braking": false, "is_crash": false, "crash_intensity_g": 0.0, "segment_start_sample": 7409, "segment_end_sample": 7432, "Speed_display": 8.6}}, {"type": "Feature", "geometry": {"type": "LineString", "coordinates": [[4.9082891, 52.3466345], [4.9083139, 52.3466455]]}, "properties": {"Speed": 5.7, "road_quality": 2, "marker": 6, "trip_id": "CRASH_Trip1", "hrot_diff": 1, "sample_diff": 35, "time_diff_s": 0.7, "gps_distance_m": 2.1, "original_speed": "-1", "wheel_diameter_mm": 711.1999999999999, "braking_intensity": 0.0, "is_braking": false, "is_crash": false, "crash_intensity_g": 0.0, "segment_start_sample": 7452, "segment_end_sample": 7487, "Speed_display": 6.9}}, {"type": "Feature", "geometry": {"type": "LineString", "coordinates": [[4.9083139, 52.3466455], [4.9083103, 52.3466554]]}, "properties": {"Speed": 5.4, "road_quality": 2, "marker": 7, "trip_id": "CRASH_Trip1", "hrot_diff": 1, "sample_diff": 37, "time_diff_s": 0.74, "gps_distance_m": 1.1, "original_speed": "1071", "wheel_diameter_mm": 711.1999999999999, "braking_intensity": 0.0, "is_braking": false, "is_crash": false, "crash_intensity_g": 0.0, "segment_start_sample": 7487, "segment_end_sample": 7524, "Speed_display": 6.0}}, {"type": "Feature", "geometry": {"type": "LineString", "coordinates": [[4.9083103, 52.3466554], [4.9083068, 52.3466749]]}, "properties": {"Speed": 3.6, "road_quality": 2, "marker": 7, "trip_id": "CRASH_Trip1", "hrot_diff": 1, "sample_diff": 56, "time_diff_s": 1.12, "gps_distance_m": 2.2, "original_speed": "628", "wheel_diameter_mm": 711.1999999999999, "braking_intensity": 0.0, "is_braking": false, "is_crash": false, "crash_intensity_g": 0.0, "segment_start_sample": 7574, "segment_end_sample": 7630, "Speed_display": 6.0}}, {"type": "Feature", "geometry": {"type": "LineString", "coordinates": [[4.9083068, 52.3466749], [4.9083053, 52.3466893]]}, "properties": {"Speed": 6.7, "road_quality": 2, "marker": 7, "trip_id": "CRASH_Trip1", "hrot_diff": 1, "sample_diff": 30, "time_diff_s": 0.6, "gps_distance_m": 1.6, "original_speed": "512", "wheel_diameter_mm": 711.1999999999999, "braking_intensity": 0.0, "is_braking": false, "is_crash": false, "crash_intensity_g": 0.0, "segment_start_sample": 7663, "segment_end_sample": 7693, "Speed_display": 7.9}}, {"type": "Feature", "geometry": {"type": "LineString", "coordinates": [[4.9083053, 52.3466893], [4.9083028, 52.3467123]]}, "properties": {"Speed": 8.4, "road_quality": 3, "marker": 7, "trip_id": "CRASH_Trip1", "hrot_diff": 1, "sample_diff": 24, "time_diff_s": 0.48, "gps_distance_m": 2.6, "original_speed": "869", "wheel_diameter_mm": 711.1999999999999, "braking_intensity": 0.0, "is_braking": false, "is_crash": false, "crash_intensity_g": 0.0, "segment_start_sample": 7715, "segment_end_sample": 7739, "Speed_display": 8.8}}, {"type": "Feature", "geometry": {"type": "LineString", "coordinates": [[4.9083028, 52.3467123], [4.9082975, 52.3467381]]}, "properties": {"Speed": 15.5, "road_quality": 3, "marker": 7, "trip_id": "CRASH_Trip1", "hrot_diff": 1, "sample_diff": 13, "time_diff_s": 0.26, "gps_distance_m": 2.9, "original_speed": "1027", "wheel_diameter_mm": 711.1999999999999, "braking_intensity": 0.0, "is_braking": false, "is_crash": false, "crash_intensity_g": 0.0, "segment_start_sample": 7763, "segment_end_sample": 7776, "Speed_display": 10.6}}, {"type": "Feature", "geometry": {"type": "LineString", "coordinates": [[4.9082975, 52.3467381], [4.9083003, 52.3467641]]}, "properties": {"Speed": 9.6, "road_quality": 3, "marker": 7, "trip_id": "CRASH_Trip1", "hrot_diff": 1, "sample_diff": 21, "time_diff_s": 0.42, "gps_distance_m": 2.9, "original_speed": "1239", "wheel_diameter_mm": 711.1999999999999, "braking_intensity": 0.0, "is_braking": false, "is_crash": false, "crash_intensity_g": 0.0, "segment_start_sample": 7799, "segment_end_sample": 7820, "Speed_display": 11.5}}, {"type": "Feature", "geometry": {"type": "LineString", "coordinates": [[4.9083003, 52.3467641], [4.9083044, 52.3467907]]}, "properties": {"Speed": 12.6, "road_quality": 3, "marker": 7, "trip_id": "CRASH_Trip1", "hrot_diff": 1, "sample_diff": 16, "time_diff_s": 0.32, "gps_distance_m": 3.0, "original_speed": "1094", "wheel_diameter_mm": 711.1999999999999, "braking_intensity": 0.0, "is_braking": false, "is_crash": false, "crash_intensity_g": 0.0, "segment_start_sample": 7867, "segment_end_sample": 7883, "Speed_display": 12.3}}, {"type": "Feature", "geometry": {"type": "LineString", "coordinates": [[4.9083044, 52.3467907], [4.9083052, 52.3468166]]}, "properties": {"Speed": 11.2, "road_quality": 2, "marker": 7, "trip_id": "CRASH_Trip1", "hrot_diff": 1, "sample_diff": 18, "time_diff_s": 0.36, "gps_distance_m": 2.9, "original_speed": "1260", "wheel_diameter_mm": 711.1999999999999, "braking_intensity": 0.0, "is_braking": false, "is_crash": false, "crash_intensity_g": 0.0, "segment_start_sample": 7926, "segment_end_sample": 7944, "Speed_display": 11.1}}, {"type": "Feature", "geometry": {"type": "LineString", "coordinates": [[4.9083052, 52.3468166], [4.9082985, 52.3468434]]}, "properties": {"Speed": 12.6, "road_quality": 2, "marker": 7, "trip_id": "CRASH_Trip1", "hrot_diff": 1, "sample_diff": 16, "time_diff_s": 0.32, "gps_distance_m": 3.0, "original_speed": "1219", "wheel_diameter_mm": 711.1999999999999, "braking_intensity": 0.0, "is_braking": false, "is_crash": false, "crash_intensity_g": 0.0, "segment_start_sample": 7967, "segment_end_sample": 7983, "Speed_display": 11.6}}, {"type": "Feature", "geometry": {"type": "LineString", "coordinates": [[4.9082985, 52.3468434], [4.9082902, 52.3468688]]}, "properties": {"Speed": 9.6, "road_quality": 3, "marker": 7, "trip_id": "CRASH_Trip1", "hrot_diff": 1, "sample_diff": 21, "time_diff_s": 0.42, "gps_distance_m": 2.9, "original_speed": "1271", "wheel_diameter_mm": 711.1999999999999, "braking_intensity": 0.0, "is_braking": false, "is_crash": false, "crash_intensity_g": 0.0, "segment_start_sample": 8005, "segment_end_sample": 8026, "Speed_display": 11.2}}, {"type": "Feature", "geometry": {"type": "LineString", "coordinates": [[4.9082902, 52.3468688], [4.9082823, 52.3468974]]}, "properties": {"Speed": 11.8, "road_quality": 3, "marker": 7, "trip_id": "CRASH_Trip1", "hrot_diff": 1, "sample_diff": 17, "time_diff_s": 0.34, "gps_distance_m": 3.2, "original_speed": "1315", "wheel_diameter_mm": 711.1999999999999, "braking_intensity": 0.0, "is_braking": false, "is_crash": false, "crash_intensity_g": 0.0, "segment_start_sample": 8062, "segment_end_sample": 8079, "Speed_display": 11.6}}, {"type": "Feature", "geometry": {"type": "LineString", "coordinates": [[4.9082823, 52.3468974], [4.9082718, 52.3469288]]}, "properties": {"Speed": 10.6, "road_quality": 3, "marker": 7, "trip_id": "CRASH_Trip1", "hrot_diff": 1, "sample_diff": 19, "time_diff_s": 0.38, "gps_distance_m": 3.6, "original_speed": "1327", "wheel_diameter_mm": 711.1999999999999, "braking_intensity": 0.0, "is_braking": false, "is_crash": false, "crash_intensity_g": 0.0, "segment_start_sample": 8116, "segment_end_sample": 8135, "Speed_display": 11.4}}, {"type": "Feature", "geometry": {"type": "LineString", "coordinates": [[4.9082718, 52.3469288], [4.9082637, 52.3469583]]}, "properties": {"Speed": 13.4, "road_quality": 3, "marker": 7, "trip_id": "CRASH_Trip1", "hrot_diff": 1, "sample_diff": 15, "time_diff_s": 0.3, "gps_distance_m": 3.3, "original_speed": "1456", "wheel_diameter_mm": 711.1999999999999, "braking_intensity": 0.0, "is_braking": false, "is_crash": false, "crash_intensity_g": 0.0, "segment_start_sample": 8168, "segment_end_sample": 8183, "Speed_display": 12.0}}, {"type": "Feature", "geometry": {"type": "LineString", "coordinates": [[4.9082637, 52.3469583], [4.9082547, 52.3469873]]}, "properties": {"Speed": 11.8, "road_quality": 3, "marker": 7, "trip_id": "CRASH_Trip1", "hrot_diff": 1, "sample_diff": 17, "time_diff_s": 0.34, "gps_distance_m": 3.3, "original_speed": "1626", "wheel_diameter_mm": 711.1999999999999, "braking_intensity": 0.0, "is_braking": false, "is_crash": false, "crash_intensity_g": 0.0, "segment_start_sample": 8227, "segment_end_sample": 8244, "Speed_display": 11.9}}, {"type": "Feature", "geometry": {"type": "LineString", "coordinates": [[4.9082547, 52.3469873], [4.9082453, 52.3470175]]}, "properties": {"Speed": 12.6, "road_quality": 3, "marker": 7, "trip_id": "CRASH_Trip1", "hrot_diff": 1, "sample_diff": 16, "time_diff_s": 0.32, "gps_distance_m": 3.4, "original_speed": "1626", "wheel_diameter_mm": 711.1999999999999, "braking_intensity": 0.0, "is_braking": false, "is_crash": false, "crash_intensity_g": 0.0, "segment_start_sample": 8260, "segment_end_sample": 8276, "Speed_display": 12.3}}, {"type": "Feature", "geometry": {"type": "LineString", "coordinates": [[4.9082453, 52.3470175], [4.9082365, 52.3470434]]}, "properties": {"Speed": 11.2, "road_quality": 3, "marker": 7, "trip_id": "CRASH_Trip1", "hrot_diff": 1, "sample_diff": 18, "time_diff_s": 0.36, "gps_distance_m": 2.9, "original_speed": "1562", "wheel_diameter_mm": 711.1999999999999, "braking_intensity": 0.0, "is_braking": false, "is_crash": false, "crash_intensity_g": 0.0, "segment_start_sample": 8308, "segment_end_sample": 8326, "Speed_display": 12.2}}, {"type": "Feature", "geometry": {"type": "LineString", "coordinates": [[4.9082365, 52.3470434], [4.9082299, 52.3470678]]}, "properties": {"Speed": 12.6, "road_quality": 3, "marker": 7, "trip_id": "CRASH_Trip1", "hrot_diff": 1, "sample_diff": 16, "time_diff_s": 0.32, "gps_distance_m": 2.7, "original_speed": "1538", "wheel_diameter_mm": 711.1999999999999, "braking_intensity": 0.0, "is_braking": false, "is_crash": false, "crash_intensity_g": 0.0, "segment_start_sample": 8357, "segment_end_sample": 8373, "Speed_display": 12.3}}, {"type": "Feature", "geometry": {"type": "LineString", "coordinates": [[4.9082299, 52.3470678], [4.9082191, 52.3471014]]}, "properties": {"Speed": 12.6, "road_quality": 3, "marker": 7, "trip_id": "CRASH_Trip1", "hrot_diff": 1, "sample_diff": 16, "time_diff_s": 0.32, "gps_distance_m": 3.8, "original_speed": "1562", "wheel_diameter_mm": 711.1999999999999, "braking_intensity": 0.0, "is_braking": false, "is_crash": false, "crash_intensity_g": 0.0, "segment_start_sample": 8405, "segment_end_sample": 8421, "Speed_display": 12.7}}, {"type": "Feature", "geometry": {"type": "LineString", "coordinates": [[4.9082191, 52.3471014], [4.9082061, 52.3471404]]}, "properties": {"Speed": 12.6, "road_quality": 3, "marker": 7, "trip_id": "CRASH_Trip1", "hrot_diff": 1, "sample_diff": 16, "time_diff_s": 0.32, "gps_distance_m": 4.4, "original_speed": "1709", "wheel_diameter_mm": 711.1999999999999, "braking_intensity": 0.0, "is_braking": false, "is_crash": false, "crash_intensity_g": 0.0, "segment_start_sample": 8463, "segment_end_sample": 8479, "Speed_display": 13.0}}, {"type": "Feature", "geometry": {"type": "LineString", "coordinates": [[4.9082061, 52.3471404], [4.9081861, 52.3472002]]}, "properties": {"Speed": 14.4, "road_quality": 3, "marker": 7, "trip_id": "CRASH_Trip1", "hrot_diff": 1, "sample_diff": 14, "time_diff_s": 0.28, "gps_distance_m": 6.8, "original_speed": "1724", "wheel_diameter_mm": 711.1999999999999, "braking_intensity": 0.0, "is_braking": false, "is_crash": false, "crash_intensity_g": 0.0, "segment_start_sample": 8567, "segment_end_sample": 8581, "Speed_display": 12.6}}, {"type": "Feature", "geometry": {"type": "LineString", "coordinates": [[4.9081861, 52.3472002], [4.9081813, 52.3472303]]}, "properties": {"Speed": 12.6, "road_quality": 3, "marker": 7, "trip_id": "CRASH_Trip1", "hrot_diff": 1, "sample_diff": 16, "time_diff_s": 0.32, "gps_distance_m": 3.4, "original_speed": "1694", "wheel_diameter_mm": 711.1999999999999, "braking_intensity": 0.0, "is_braking": false, "is_crash": false, "crash_intensity_g": 0.0, "segment_start_sample": 8609, "segment_end_sample": 8625, "Speed_display": 12.4}}, {"type": "Feature", "geometry": {"type": "LineString", "coordinates": [[4.9081813, 52.3472303], [4.908171, 52.3472642]]}, "properties": {"Speed": 10.6, "road_quality": 3, "marker": 7, "trip_id": "CRASH_Trip1", "hrot_diff": 1, "sample_diff": 19, "time_diff_s": 0.38, "gps_distance_m": 3.8, "original_speed": "1709", "wheel_diameter_mm": 711.1999999999999, "braking_intensity": 0.0, "is_braking": false, "is_crash": false, "crash_intensity_g": 0.0, "segment_start_sample": 8668, "segment_end_sample": 8687, "Speed_display": 12.6}}, {"type": "Feature", "geometry": {"type": "LineString", "coordinates": [[4.908171, 52.3472642], [4.9081614, 52.347296]]}, "properties": {"Speed": 11.8, "road_quality": 3, "marker": 7, "trip_id": "CRASH_Trip1", "hrot_diff": 1, "sample_diff": 17, "time_diff_s": 0.34, "gps_distance_m": 3.6, "original_speed": "1709", "wheel_diameter_mm": 711.1999999999999, "braking_intensity": 0.0, "is_braking": false, "is_crash": false, "crash_intensity_g": 0.0, "segment_start_sample": 8711, "segment_end_sample": 8728, "Speed_display": 12.2}}, {"type": "Feature", "geometry": {"type": "LineString", "coordinates": [[4.9081614, 52.347296], [4.9081526, 52.3473277]]}, "properties": {"Speed": 13.4, "road_quality": 3, "marker": 7, "trip_id": "CRASH_Trip1", "hrot_diff": 1, "sample_diff": 15, "time_diff_s": 0.3, "gps_distance_m": 3.6, "original_speed": "1769", "wheel_diameter_mm": 711.1999999999999, "braking_intensity": 0.0, "is_braking": false, "is_crash": false, "crash_intensity_g": 0.0, "segment_start_sample": 8757, "segment_end_sample": 8772, "Speed_display": 12.0}}, {"type": "Feature", "geometry": {"type": "LineString", "coordinates": [[4.9081526, 52.3473277], [4.9081549, 52.3473612]]}, "properties": {"Speed": 12.6, "road_quality": 3, "marker": 7, "trip_id": "CRASH_Trip1", "hrot_diff": 1, "sample_diff": 16, "time_diff_s": 0.32, "gps_distance_m": 3.7, "original_speed": "1709", "wheel_diameter_mm": 711.1999999999999, "braking_intensity": 0.0, "is_braking": false, "is_crash": false, "crash_intensity_g": 0.0, "segment_start_sample": 8816, "segment_end_sample": 8832, "Speed_display": 13.6}}, {"type": "Feature", "geometry": {"type": "LineString", "coordinates": [[4.9081549, 52.3473612], [4.9081761, 52.34739]]}, "properties": {"Speed": 11.8, "road_quality": 3, "marker": 7, "trip_id": "CRASH_Trip1", "hrot_diff": 1, "sample_diff": 17, "time_diff_s": 0.34, "gps_distance_m": 3.5, "original_speed": "1639", "wheel_diameter_mm": 711.1999999999999, "braking_intensity": 0.0, "is_braking": false, "is_crash": false, "crash_intensity_g": 0.0, "segment_start_sample": 8862, "segment_end_sample": 8879, "Speed_display": 14.9}}, {"type": "Feature", "geometry": {"type": "LineString", "coordinates": [[4.9081761, 52.34739], [4.9082162, 52.3474108]]}, "properties": {"Speed": 18.3, "road_quality": 3, "marker": 7, "trip_id": "CRASH_Trip1", "hrot_diff": 1, "sample_diff": 11, "time_diff_s": 0.22, "gps_distance_m": 3.6, "original_speed": "1626", "wheel_diameter_mm": 711.1999999999999, "braking_intensity": 0.0, "is_braking": false, "is_crash": false, "crash_intensity_g": 0.0, "segment_start_sample": 8909, "segment_end_sample": 8920, "Speed_display": 15.3}}, {"type": "Feature", "geometry": {"type": "LineString", "coordinates": [[4.9082162, 52.3474108], [4.9082695, 52.347422]]}, "properties": {"Speed": 18.3, "road_quality": 3, "marker": 7, "trip_id": "CRASH_Trip1", "hrot_diff": 1, "sample_diff": 11, "time_diff_s": 0.22, "gps_distance_m": 3.8, "original_speed": "1754", "wheel_diameter_mm": 711.1999999999999, "braking_intensity": 0.0, "is_braking": false, "is_crash": false, "crash_intensity_g": 0.0, "segment_start_sample": 8966, "segment_end_sample": 8977, "Speed_display": 15.5}}, {"type": "Feature", "geometry": {"type": "LineString", "coordinates": [[4.9082695, 52.347422], [4.9083165, 52.3474341]]}, "properties": {"Speed": 15.5, "road_quality": 3, "marker": 7, "trip_id": "CRASH_Trip1", "hrot_diff": 1, "sample_diff": 13, "time_diff_s": 0.26, "gps_distance_m": 3.5, "original_speed": "1680", "wheel_diameter_mm": 711.1999999999999, "braking_intensity": 0.0, "is_braking": false, "is_crash": false, "crash_intensity_g": 0.0, "segment_start_sample": 9010, "segment_end_sample": 9023, "Speed_display": 16.0}}, {"type": "Feature", "geometry": {"type": "LineString", "coordinates": [[4.9083165, 52.3474341], [4.9083839, 52.3474411]]}, "properties": {"Speed": 13.4, "road_quality": 3, "marker": 7, "trip_id": "CRASH_Trip1", "hrot_diff": 1, "sample_diff": 15, "time_diff_s": 0.3, "gps_distance_m": 4.6, "original_speed": "1754", "wheel_diameter_mm": 711.1999999999999, "braking_intensity": 0.0, "is_braking": false, "is_crash": false, "crash_intensity_g": 0.0, "segment_start_sample": 9066, "segment_end_sample": 9081, "Speed_display": 14.6}}, {"type": "Feature", "geometry": {"type": "LineString", "coordinates": [[4.9083839, 52.3474411], [4.9084489, 52.3474484]]}, "properties": {"Speed": 14.4, "road_quality": 4, "marker": 7, "trip_id": "CRASH_Trip1", "hrot_diff": 1, "sample_diff": 14, "time_diff_s": 0.28, "gps_distance_m": 4.5, "original_speed": "1801", "wheel_diameter_mm": 711.1999999999999, "braking_intensity": 0.0, "is_braking": false, "is_crash": false, "crash_intensity_g": 0.0, "segment_start_sample": 9107, "segment_end_sample": 9121, "Speed_display": 15.9}}, {"type": "Feature", "geometry": {"type": "LineString", "coordinates": [[4.9084489, 52.3474484], [4.9085025, 52.3474565]]}, "properties": {"Speed": 11.2, "road_quality": 4, "marker": 7, "trip_id": "CRASH_Trip1", "hrot_diff": 1, "sample_diff": 18, "time_diff_s": 0.36, "gps_distance_m": 3.8, "original_speed": "1818", "wheel_diameter_mm": 711.1999999999999, "braking_intensity": 0.0, "is_braking": false, "is_crash": false, "crash_intensity_g": 0.0, "segment_start_sample": 9161, "segment_end_sample": 9179, "Speed_display": 15.3}}, {"type": "Feature", "geometry": {"type": "LineString", "coordinates": [[4.9085025, 52.3474565], [4.9085736, 52.3474648]]}, "properties": {"Speed": 25.1, "road_quality": 3, "marker": 7, "trip_id": "CRASH_Trip1", "hrot_diff": 1, "sample_diff": 8, "time_diff_s": 0.16, "gps_distance_m": 4.9, "original_speed": "1709", "wheel_diameter_mm": 711.1999999999999, "braking_intensity": 0.0, "is_braking": false, "is_crash": false, "crash_intensity_g": 0.0, "segment_start_sample": 9211, "segment_end_sample": 9219, "Speed_display": 14.9}}, {"type": "Feature", "geometry": {"type": "LineString", "coordinates": [[4.9085736, 52.3474648], [4.9086305, 52.3474713]]}, "properties": {"Speed": 12.6, "road_quality": 3, "marker": 7, "trip_id": "CRASH_Trip1", "hrot_diff": 1, "sample_diff": 16, "time_diff_s": 0.32, "gps_distance_m": 3.9, "original_speed": "1923", "wheel_diameter_mm": 711.1999999999999, "braking_intensity": 0.0, "is_braking": false, "is_crash": false, "crash_intensity_g": 0.0, "segment_start_sample": 9261, "segment_end_sample": 9277, "Speed_display": 14.4}}, {"type": "Feature", "geometry": {"type": "LineString", "coordinates": [[4.9086305, 52.3474713], [4.9086759, 52.3474798]]}, "properties": {"Speed": 11.2, "road_quality": 3, "marker": 7, "trip_id": "CRASH_Trip1", "hrot_diff": 1, "sample_diff": 18, "time_diff_s": 0.36, "gps_distance_m": 3.2, "original_speed": "1834", "wheel_diameter_mm": 711.1999999999999, "braking_intensity": 0.0, "is_braking": false, "is_crash": false, "crash_intensity_g": 0.0, "segment_start_sample": 9315, "segment_end_sample": 9333, "Speed_display": 14.4}}, {"type": "Feature", "geometry": {"type": "LineString", "coordinates": [[4.9086759, 52.3474798], [4.9087321, 52.3474912]]}, "properties": {"Speed": 11.8, "road_quality": 3, "marker": 7, "trip_id": "CRASH_Trip1", "hrot_diff": 1, "sample_diff": 17, "time_diff_s": 0.34, "gps_distance_m": 4.0, "original_speed": "1834", "wheel_diameter_mm": 711.1999999999999, "braking_intensity": 0.0, "is_braking": false, "is_crash": false, "crash_intensity_g": 0.0, "segment_start_sample": 9357, "segment_end_sample": 9374, "Speed_display": 13.4}}, {"type": "Feature", "geometry": {"type": "LineString", "coordinates": [[4.9087321, 52.3474912], [4.9087883, 52.3475001]]}, "properties": {"Speed": 11.2, "road_quality": 4, "marker": 7, "trip_id": "CRASH_Trip1", "hrot_diff": 1, "sample_diff": 18, "time_diff_s": 0.36, "gps_distance_m": 3.9, "original_speed": "1869", "wheel_diameter_mm": 711.1999999999999, "braking_intensity": 0.0, "is_braking": false, "is_crash": false, "crash_intensity_g": 0.0, "segment_start_sample": 9409, "segment_end_sample": 9427, "Speed_display": 13.4}}, {"type": "Feature", "geometry": {"type": "LineString", "coordinates": [[4.9087883, 52.3475001], [4.9088396, 52.347508]]}, "properties": {"Speed": 20.1, "road_quality": 4, "marker": 7, "trip_id": "CRASH_Trip1", "hrot_diff": 1, "sample_diff": 10, "time_diff_s": 0.2, "gps_distance_m": 3.6, "original_speed": "1769", "wheel_diameter_mm": 711.1999999999999, "braking_intensity": 0.0, "is_braking": false, "is_crash": false, "crash_intensity_g": 0.0, "segment_start_sample": 9468, "segment_end_sample": 9478, "Speed_display": 13.8}}, {"type": "Feature", "geometry": {"type": "LineString", "coordinates": [[4.9088396, 52.347508], [4.9088896, 52.3475173]]}, "properties": {"Speed": 12.6, "road_quality": 4, "marker": 7, "trip_id": "CRASH_Trip1", "hrot_diff": 1, "sample_diff": 16, "time_diff_s": 0.32, "gps_distance_m": 3.6, "original_speed": "1834", "wheel_diameter_mm": 711.1999999999999, "braking_intensity": 0.0, "is_braking": false, "is_crash": false, "crash_intensity_g": 0.0, "segment_start_sample": 9507, "segment_end_sample": 9523, "Speed_display": 14.8}}, {"type": "Feature", "geometry": {"type": "LineString", "coordinates": [[4.9088896, 52.3475173], [4.9089497, 52.3475262]]}, "properties": {"Speed": 13.4, "road_quality": 3, "marker": 7, "trip_id": "CRASH_Trip1", "hrot_diff": 1, "sample_diff": 15, "time_diff_s": 0.3, "gps_distance_m": 4.2, "original_speed": "1869", "wheel_diameter_mm": 711.1999999999999, "braking_intensity": 0.0, "is_braking": false, "is_crash": false, "crash_intensity_g": 0.0, "segment_start_sample": 9561, "segment_end_sample": 9576, "Speed_display": 15.5}}, {"type": "Feature", "geometry": {"type": "LineString", "coordinates": [[4.9089497, 52.3475262], [4.9090079, 52.3475334]]}, "properties": {"Speed": 16.8, "road_quality": 3, "marker": 7, "trip_id": "CRASH_Trip1", "hrot_diff": 1, "sample_diff": 12, "time_diff_s": 0.24, "gps_distance_m": 4.0, "original_speed": "1960", "wheel_diameter_mm": 711.1999999999999, "braking_intensity": 0.0, "is_braking": false, "is_crash": false, "crash_intensity_g": 0.0, "segment_start_sample": 9612, "segment_end_sample": 9624, "Speed_display": 14.5}}, {"type": "Feature", "geometry": {"type": "LineString", "coordinates": [[4.9090079, 52.3475334], [4.9090729, 52.3475415]]}, "properties": {"Speed": 14.4, "road_quality": 3, "marker": 7, "trip_id": "CRASH_Trip1", "hrot_diff": 1, "sample_diff": 14, "time_diff_s": 0.28, "gps_distance_m": 4.5, "original_speed": "1923", "wheel_diameter_mm": 711.1999999999999, "braking_intensity": 0.0, "is_braking": false, "is_crash": false, "crash_intensity_g": 0.0, "segment_start_sample": 9661, "segment_end_sample": 9675, "Speed_display": 14.7}}, {"type": "Feature", "geometry": {"type": "LineString", "coordinates": [[4.9090729, 52.3475415], [4.9091409, 52.3475515]]}, "properties": {"Speed": 15.5, "road_quality": 3, "marker": 7, "trip_id": "CRASH_Trip1", "hrot_diff": 1, "sample_diff": 13, "time_diff_s": 0.26, "gps_distance_m": 4.8, "original_speed": "1941", "wheel_diameter_mm": 711.1999999999999, "braking_intensity": 0.0, "is_braking": false, "is_crash": false, "crash_intensity_g": 0.0, "segment_start_sample": 9715, "segment_end_sample": 9728, "Speed_display": 15.4}}, {"type": "Feature", "geometry": {"type": "LineString", "coordinates": [[4.9091409, 52.3475515], [4.9092109, 52.3475624]]}, "properties": {"Speed": 13.4, "road_quality": 3, "marker": 7, "trip_id": "CRASH_Trip1", "hrot_diff": 1, "sample_diff": 15, "time_diff_s": 0.3, "gps_distance_m": 4.9, "original_speed": "1980", "wheel_diameter_mm": 711.1999999999999, "braking_intensity": 0.0, "is_braking": false, "is_crash": false, "crash_intensity_g": 0.0, "segment_start_sample": 9766, "segment_end_sample": 9781, "Speed_display": 15.7}}, {"type": "Feature", "geometry": {"type": "LineString", "coordinates": [[4.9092109, 52.3475624], [4.9092491, 52.3475692]]}, "properties": {"Speed": 16.8, "road_quality": 3, "marker": 7, "trip_id": "CRASH_Trip1", "hrot_diff": 1, "sample_diff": 12, "time_diff_s": 0.24, "gps_distance_m": 2.7, "original_speed": "1851", "wheel_diameter_mm": 711.1999999999999, "braking_intensity": 0.0, "is_braking": false, "is_crash": false, "crash_intensity_g": 0.0, "segment_start_sample": 9808, "segment_end_sample": 9820, "Speed_display": 15.9}}, {"type": "Feature", "geometry": {"type": "LineString", "coordinates": [[4.9092491, 52.3475692], [4.9093037, 52.347593]]}, "properties": {"Speed": 18.3, "road_quality": 4, "marker": 7, "trip_id": "CRASH_Trip1", "hrot_diff": 1, "sample_diff": 11, "time_diff_s": 0.22, "gps_distance_m": 4.6, "original_speed": "1886", "wheel_diameter_mm": 711.1999999999999, "braking_intensity": 0.0, "is_braking": false, "is_crash": false, "crash_intensity_g": 0.0, "segment_start_sample": 9873, "segment_end_sample": 9884, "Speed_display": 15.5}}, {"type": "Feature", "geometry": {"type": "LineString", "coordinates": [[4.9093037, 52.347593], [4.9093385, 52.3476062]]}, "properties": {"Speed": 15.5, "road_quality": 4, "marker": 7, "trip_id": "CRASH_Trip1", "hrot_diff": 1, "sample_diff": 13, "time_diff_s": 0.26, "gps_distance_m": 2.8, "original_speed": "1869", "wheel_diameter_mm": 711.1999999999999, "braking_intensity": 0.0, "is_braking": false, "is_crash": false, "crash_intensity_g": 0.0, "segment_start_sample": 9912, "segment_end_sample": 9925, "Speed_display": 14.8}}, {"type": "Feature", "geometry": {"type": "LineString", "coordinates": [[4.9093385, 52.3476062], [4.9094008, 52.3476143]]}, "properties": {"Speed": 13.4, "road_quality": 3, "marker": 7, "trip_id": "CRASH_Trip1", "hrot_diff": 1, "sample_diff": 15, "time_diff_s": 0.3, "gps_distance_m": 4.3, "original_speed": "1769", "wheel_diameter_mm": 711.1999999999999, "braking_intensity": 0.0, "is_braking": false, "is_crash": false, "crash_intensity_g": 0.0, "segment_start_sample": 9969, "segment_end_sample": 9984, "Speed_display": 13.8}}, {"type": "Feature", "geometry": {"type": "LineString", "coordinates": [[4.9094008, 52.3476143], [4.9094902, 52.3476322]]}, "properties": {"Speed": 10.1, "road_quality": 3, "marker": 7, "trip_id": "CRASH_Trip1", "hrot_diff": 1, "sample_diff": 20, "time_diff_s": 0.4, "gps_distance_m": 6.4, "original_speed": "1754", "wheel_diameter_mm": 711.1999999999999, "braking_intensity": 0.0, "is_braking": false, "is_crash": false, "crash_intensity_g": 0.0, "segment_start_sample": 10052, "segment_end_sample": 10072, "Speed_display": 13.8}}, {"type": "Feature", "geometry": {"type": "LineString", "coordinates": [[4.9094902, 52.3476322], [4.9095226, 52.3476523]]}, "properties": {"Speed": 11.8, "road_quality": 3, "marker": 7, "trip_id": "CRASH_Trip1", "hrot_diff": 1, "sample_diff": 17, "time_diff_s": 0.34, "gps_distance_m": 3.1, "original_speed": "1626", "wheel_diameter_mm": 711.1999999999999, "braking_intensity": 0.0, "is_braking": false, "is_crash": false, "crash_intensity_g": 0.0, "segment_start_sample": 10115, "segment_end_sample": 10132, "Speed_display": 13.6}}, {"type": "Feature", "geometry": {"type": "LineString", "coordinates": [[4.9095226, 52.3476523], [4.9095297, 52.3476547]]}, "properties": {"Speed": 18.3, "road_quality": 3, "marker": 7, "trip_id": "CRASH_Trip1", "hrot_diff": 1, "sample_diff": 11, "time_diff_s": 0.22, "gps_distance_m": 0.6, "original_speed": "1724", "wheel_diameter_mm": 711.1999999999999, "braking_intensity": 0.0, "is_braking": false, "is_crash": false, "crash_intensity_g": 0.0, "segment_start_sample": 10174, "segment_end_sample": 10185, "Speed_display": 13.6}}, {"type": "Feature", "geometry": {"type": "LineString", "coordinates": [[4.9095297, 52.3476547], [4.9095278, 52.3476914]]}, "properties": {"Speed": 14.4, "road_quality": 3, "marker": 7, "trip_id": "CRASH_Trip1", "hrot_diff": 1, "sample_diff": 14, "time_diff_s": 0.28, "gps_distance_m": 4.1, "original_speed": "1754", "wheel_diameter_mm": 711.1999999999999, "braking_intensity": 0.0, "is_braking": false, "is_crash": false, "crash_intensity_g": 0.0, "segment_start_sample": 10212, "segment_end_sample": 10226, "Speed_display": 14.5}}, {"type": "Feature", "geometry": {"type": "LineString", "coordinates": [[4.9095278, 52.3476914], [4.9095074, 52.347737]]}, "properties": {"Speed": 13.4, "road_quality": 3, "marker": 7, "trip_id": "CRASH_Trip1", "hrot_diff": 1, "sample_diff": 15, "time_diff_s": 0.3, "gps_distance_m": 5.3, "original_speed": "1923", "wheel_diameter_mm": 711.1999999999999, "braking_intensity": 0.0, "is_braking": false, "is_crash": false, "crash_intensity_g": 0.0, "segment_start_sample": 10264, "segment_end_sample": 10279, "Speed_display": 15.2}}, {"type": "Feature", "geometry": {"type": "LineString", "coordinates": [[4.9095074, 52.347737], [4.9094869, 52.3477769]]}, "properties": {"Speed": 14.4, "road_quality": 3, "marker": 7, "trip_id": "CRASH_Trip1", "hrot_diff": 1, "sample_diff": 14, "time_diff_s": 0.28, "gps_distance_m": 4.7, "original_speed": "1904", "wheel_diameter_mm": 711.1999999999999, "braking_intensity": 0.0, "is_braking": false, "is_crash": false, "crash_intensity_g": 0.0, "segment_start_sample": 10305, "segment_end_sample": 10319, "Speed_display": 14.9}}, {"type": "Feature", "geometry": {"type": "LineString", "coordinates": [[4.9094869, 52.3477769], [4.909472, 52.3478166]]}, "properties": {"Speed": 15.5, "road_quality": 3, "marker": 7, "trip_id": "CRASH_Trip1", "hrot_diff": 1, "sample_diff": 13, "time_diff_s": 0.26, "gps_distance_m": 4.5, "original_speed": "1904", "wheel_diameter_mm": 711.1999999999999, "braking_intensity": 0.0, "is_braking": false, "is_crash": false, "crash_intensity_g": 0.0, "segment_start_sample": 10359, "segment_end_sample": 10372, "Speed_display": 15.1}}, {"type": "Feature", "geometry": {"type": "LineString", "coordinates": [[4.909472, 52.3478166], [4.9094564, 52.3478544]]}, "properties": {"Speed": 16.8, "road_quality": 3, "marker": 7, "trip_id": "CRASH_Trip1", "hrot_diff": 1, "sample_diff": 12, "time_diff_s": 0.24, "gps_distance_m": 4.3, "original_speed": "1886", "wheel_diameter_mm": 711.1999999999999, "braking_intensity": 0.0, "is_braking": false, "is_crash": false, "crash_intensity_g": 0.0, "segment_start_sample": 10411, "segment_end_sample": 10423, "Speed_display": 16.5}}, {"type": "Feature", "geometry": {"type": "LineString", "coordinates": [[4.9094564, 52.3478544], [4.9094398, 52.3478948]]}, "properties": {"Speed": 15.5, "road_quality": 3, "marker": 7, "trip_id": "CRASH_Trip1", "hrot_diff": 1, "sample_diff": 13, "time_diff_s": 0.26, "gps_distance_m": 4.6, "original_speed": "2000", "wheel_diameter_mm": 711.1999999999999, "braking_intensity": 0.0, "is_braking": false, "is_crash": false, "crash_intensity_g": 0.0, "segment_start_sample": 10459, "segment_end_sample": 10472, "Speed_display": 16.9}}, {"type": "Feature", "geometry": {"type": "LineString", "coordinates": [[4.9094398, 52.3478948], [4.9094262, 52.3479371]]}, "properties": {"Speed": 20.1, "road_quality": 3, "marker": 7, "trip_id": "CRASH_Trip1", "hrot_diff": 1, "sample_diff": 10, "time_diff_s": 0.2, "gps_distance_m": 4.8, "original_speed": "2032", "wheel_diameter_mm": 711.1999999999999, "braking_intensity": 0.0, "is_braking": false, "is_crash": false, "crash_intensity_g": 0.0, "segment_start_sample": 10509, "segment_end_sample": 10519, "Speed_display": 17.3}}, {"type": "Feature", "geometry": {"type": "LineString", "coordinates": [[4.9094262, 52.3479371], [4.9094059, 52.3479834]]}, "properties": {"Speed": 16.8, "road_quality": 3, "marker": 7, "trip_id": "CRASH_Trip1", "hrot_diff": 1, "sample_diff": 12, "time_diff_s": 0.24, "gps_distance_m": 5.3, "original_speed": "2000", "wheel_diameter_mm": 711.1999999999999, "braking_intensity": 0.0, "is_braking": false, "is_crash": false, "crash_intensity_g": 0.0, "segment_start_sample": 10558, "segment_end_sample": 10570, "Speed_display": 17.5}}]}