{"type": "FeatureCollection", "features": [{"type": "Feature", "geometry": {"type": "LineString", "coordinates": [[4.8056294, 52.3548832], [4.8056372, 52.3547548]]}, "properties": {"Speed": 2.9, "road_quality": 2, "marker": 14, "trip_id": "CRASH_Trip2", "hrot_diff": 1, "sample_diff": 73, "time_diff_s": 1.41, "gps_distance_m": 14.3, "original_speed": "263", "wheel_diameter_mm": 711.1999999999999, "braking_intensity": 0.0, "is_braking": false, "is_crash": false, "crash_intensity_g": 0.0, "segment_start_sample": 190, "segment_end_sample": 263, "time_str": "09:40:43", "Speed_display": 3.7}}, {"type": "Feature", "geometry": {"type": "LineString", "coordinates": [[4.8056372, 52.3547548], [4.8055855, 52.3547594]]}, "properties": {"Speed": 4.1, "road_quality": 2, "marker": 7, "trip_id": "CRASH_Trip2", "hrot_diff": 1, "sample_diff": 56, "time_diff_s": 0.99, "gps_distance_m": 3.5, "original_speed": "362", "wheel_diameter_mm": 711.1999999999999, "braking_intensity": 0.0, "is_braking": false, "is_crash": false, "crash_intensity_g": 0.0, "segment_start_sample": 263, "segment_end_sample": 319, "time_str": "09:40:44", "Speed_display": 3.8}}, {"type": "Feature", "geometry": {"type": "LineString", "coordinates": [[4.8055855, 52.3547594], [4.8055798, 52.3547362]]}, "properties": {"Speed": 4.0, "road_quality": 2, "marker": 7, "trip_id": "CRASH_Trip2", "hrot_diff": 1, "sample_diff": 50, "time_diff_s": 1.003, "gps_distance_m": 2.6, "original_speed": "442", "wheel_diameter_mm": 711.1999999999999, "braking_intensity": 0.0, "is_braking": false, "is_crash": false, "crash_intensity_g": 0.0, "segment_start_sample": 376, "segment_end_sample": 426, "time_str": "09:40:46", "Speed_display": 4.0}}, {"type": "Feature", "geometry": {"type": "LineString", "coordinates": [[4.8055798, 52.3547362], [4.8055932, 52.3547178]]}, "properties": {"Speed": 4.0, "road_quality": 2, "marker": 7, "trip_id": "CRASH_Trip2", "hrot_diff": 1, "sample_diff": 52, "time_diff_s": 1.001, "gps_distance_m": 2.2, "original_speed": "467", "wheel_diameter_mm": 711.1999999999999, "braking_intensity": 0.0, "is_braking": false, "is_crash": false, "crash_intensity_g": 0.0, "segment_start_sample": 426, "segment_end_sample": 478, "time_str": "09:40:47", "Speed_display": 4.4}}, {"type": "Feature", "geometry": {"type": "LineString", "coordinates": [[4.8055932, 52.3547178], [4.8055781, 52.3547146]]}, "properties": {"Speed": 5.1, "road_quality": 2, "marker": 7, "trip_id": "CRASH_Trip2", "hrot_diff": 1, "sample_diff": 37, "time_diff_s": 0.791, "gps_distance_m": 1.1, "original_speed": "490", "wheel_diameter_mm": 711.1999999999999, "braking_intensity": 0.0, "is_braking": false, "is_crash": false, "crash_intensity_g": 0.0, "segment_start_sample": 478, "segment_end_sample": 515, "time_str": "09:40:48", "Speed_display": 4.9}}, {"type": "Feature", "geometry": {"type": "LineString", "coordinates": [[4.8055781, 52.3547146], [4.8055754, 52.354708]]}, "properties": {"Speed": 4.8, "road_quality": 2, "marker": 7, "trip_id": "CRASH_Trip2", "hrot_diff": 1, "sample_diff": 36, "time_diff_s": 0.831, "gps_distance_m": 0.8, "original_speed": "523", "wheel_diameter_mm": 711.1999999999999, "braking_intensity": 0.0, "is_braking": false, "is_crash": false, "crash_intensity_g": 0.0, "segment_start_sample": 515, "segment_end_sample": 551, "time_str": "09:40:49", "Speed_display": 5.5}}, {"type": "Feature", "geometry": {"type": "LineString", "coordinates": [[4.8055754, 52.354708], [4.8055751, 52.3547086]]}, "properties": {"Speed": 6.8, "road_quality": 2, "marker": 7, "trip_id": "CRASH_Trip2", "hrot_diff": 1, "sample_diff": 32, "time_diff_s": 0.59, "gps_distance_m": 0.1, "original_speed": "714", "wheel_diameter_mm": 711.1999999999999, "braking_intensity": 0.0, "is_braking": false, "is_crash": false, "crash_intensity_g": 0.0, "segment_start_sample": 582, "segment_end_sample": 614, "time_str": "09:40:51", "Speed_display": 6.0}}, {"type": "Feature", "geometry": {"type": "LineString", "coordinates": [[4.8055751, 52.3547086], [4.8055803, 52.3547071]]}, "properties": {"Speed": 6.7, "road_quality": 2, "marker": 7, "trip_id": "CRASH_Trip2", "hrot_diff": 1, "sample_diff": 30, "time_diff_s": 0.603, "gps_distance_m": 0.4, "original_speed": "806", "wheel_diameter_mm": 711.1999999999999, "braking_intensity": 0.0, "is_braking": false, "is_crash": false, "crash_intensity_g": 0.0, "segment_start_sample": 643, "segment_end_sample": 673, "time_str": "09:40:52", "Speed_display": 5.8}}, {"type": "Feature", "geometry": {"type": "LineString", "coordinates": [[4.8055803, 52.3547071], [4.8055857, 52.3546946]]}, "properties": {"Speed": 6.8, "road_quality": 2, "marker": 7, "trip_id": "CRASH_Trip2", "hrot_diff": 1, "sample_diff": 30, "time_diff_s": 0.593, "gps_distance_m": 1.4, "original_speed": "826", "wheel_diameter_mm": 711.1999999999999, "braking_intensity": 0.0, "is_braking": false, "is_crash": false, "crash_intensity_g": 0.0, "segment_start_sample": 705, "segment_end_sample": 735, "time_str": "09:40:53", "Speed_display": 5.9}}, {"type": "Feature", "geometry": {"type": "LineString", "coordinates": [[4.8055857, 52.3546946], [4.8055866, 52.3546974]]}, "properties": {"Speed": 4.0, "road_quality": 2, "marker": 7, "trip_id": "CRASH_Trip2", "hrot_diff": 1, "sample_diff": 46, "time_diff_s": 1.004, "gps_distance_m": 0.3, "original_speed": "806", "wheel_diameter_mm": 711.1999999999999, "braking_intensity": 0.0, "is_braking": false, "is_crash": false, "crash_intensity_g": 0.0, "segment_start_sample": 735, "segment_end_sample": 781, "time_str": "09:40:54", "Speed_display": 5.5}}, {"type": "Feature", "geometry": {"type": "LineString", "coordinates": [[4.8055866, 52.3546974], [4.8055916, 52.3546764]]}, "properties": {"Speed": 5.0, "road_quality": 2, "marker": 7, "trip_id": "CRASH_Trip2", "hrot_diff": 1, "sample_diff": 42, "time_diff_s": 0.799, "gps_distance_m": 2.4, "original_speed": "724", "wheel_diameter_mm": 711.1999999999999, "braking_intensity": 0.0, "is_braking": false, "is_crash": false, "crash_intensity_g": 0.0, "segment_start_sample": 781, "segment_end_sample": 823, "time_str": "09:40:55", "Speed_display": 5.2}}, {"type": "Feature", "geometry": {"type": "LineString", "coordinates": [[4.8055916, 52.3546764], [4.8055834, 52.354676]]}, "properties": {"Speed": 5.0, "road_quality": 2, "marker": 7, "trip_id": "CRASH_Trip2", "hrot_diff": 1, "sample_diff": 40, "time_diff_s": 0.81, "gps_distance_m": 0.6, "original_speed": "609", "wheel_diameter_mm": 711.1999999999999, "braking_intensity": 0.0, "is_braking": false, "is_crash": false, "crash_intensity_g": 0.0, "segment_start_sample": 823, "segment_end_sample": 863, "time_str": "09:40:55", "Speed_display": 4.8}}, {"type": "Feature", "geometry": {"type": "LineString", "coordinates": [[4.8055834, 52.354676], [4.805579, 52.3546851]]}, "properties": {"Speed": 5.0, "road_quality": 2, "marker": 7, "trip_id": "CRASH_Trip2", "hrot_diff": 1, "sample_diff": 41, "time_diff_s": 0.8, "gps_distance_m": 1.1, "original_speed": "628", "wheel_diameter_mm": 711.1999999999999, "braking_intensity": 0.0, "is_braking": false, "is_crash": false, "crash_intensity_g": 0.0, "segment_start_sample": 900, "segment_end_sample": 941, "time_str": "09:40:57", "Speed_display": 5.0}}, {"type": "Feature", "geometry": {"type": "LineString", "coordinates": [[4.805579, 52.3546851], [4.8055766, 52.3546973]]}, "properties": {"Speed": 5.0, "road_quality": 2, "marker": 7, "trip_id": "CRASH_Trip2", "hrot_diff": 1, "sample_diff": 41, "time_diff_s": 0.801, "gps_distance_m": 1.4, "original_speed": "645", "wheel_diameter_mm": 711.1999999999999, "braking_intensity": 0.0, "is_braking": false, "is_crash": false, "crash_intensity_g": 0.0, "segment_start_sample": 941, "segment_end_sample": 982, "time_str": "09:40:58", "Speed_display": 5.0}}, {"type": "Feature", "geometry": {"type": "LineString", "coordinates": [[4.8055766, 52.3546973], [4.8055734, 52.354709]]}, "properties": {"Speed": 5.0, "road_quality": 2, "marker": 7, "trip_id": "CRASH_Trip2", "hrot_diff": 1, "sample_diff": 38, "time_diff_s": 0.803, "gps_distance_m": 1.3, "original_speed": "625", "wheel_diameter_mm": 711.1999999999999, "braking_intensity": 0.0, "is_braking": false, "is_crash": false, "crash_intensity_g": 0.0, "segment_start_sample": 982, "segment_end_sample": 1020, "time_str": "09:40:59", "Speed_display": 5.0}}, {"type": "Feature", "geometry": {"type": "LineString", "coordinates": [[4.8055734, 52.354709], [4.805572, 52.3547256]]}, "properties": {"Speed": 5.0, "road_quality": 2, "marker": 7, "trip_id": "CRASH_Trip2", "hrot_diff": 1, "sample_diff": 39, "time_diff_s": 0.81, "gps_distance_m": 1.8, "original_speed": "632", "wheel_diameter_mm": 711.1999999999999, "braking_intensity": 0.0, "is_braking": false, "is_crash": false, "crash_intensity_g": 0.0, "segment_start_sample": 1061, "segment_end_sample": 1100, "time_str": "09:41:00", "Speed_display": 5.0}}, {"type": "Feature", "geometry": {"type": "LineString", "coordinates": [[4.805572, 52.3547256], [4.8055685, 52.3547417]]}, "properties": {"Speed": 5.1, "road_quality": 2, "marker": 7, "trip_id": "CRASH_Trip2", "hrot_diff": 1, "sample_diff": 42, "time_diff_s": 0.792, "gps_distance_m": 1.8, "original_speed": "628", "wheel_diameter_mm": 711.1999999999999, "braking_intensity": 0.0, "is_braking": false, "is_crash": false, "crash_intensity_g": 0.0, "segment_start_sample": 1100, "segment_end_sample": 1142, "time_str": "09:41:01", "Speed_display": 5.0}}, {"type": "Feature", "geometry": {"type": "LineString", "coordinates": [[4.8055685, 52.3547417], [4.8055669, 52.3547534]]}, "properties": {"Speed": 5.0, "road_quality": 2, "marker": 7, "trip_id": "CRASH_Trip2", "hrot_diff": 1, "sample_diff": 39, "time_diff_s": 0.8, "gps_distance_m": 1.3, "original_speed": "621", "wheel_diameter_mm": 711.1999999999999, "braking_intensity": 0.0, "is_braking": false, "is_crash": false, "crash_intensity_g": 0.0, "segment_start_sample": 1142, "segment_end_sample": 1181, "time_str": "09:41:02", "Speed_display": 5.0}}, {"type": "Feature", "geometry": {"type": "LineString", "coordinates": [[4.8055669, 52.3547534], [4.8055653, 52.3547657]]}, "properties": {"Speed": 5.1, "road_quality": 2, "marker": 7, "trip_id": "CRASH_Trip2", "hrot_diff": 1, "sample_diff": 39, "time_diff_s": 0.792, "gps_distance_m": 1.4, "original_speed": "617", "wheel_diameter_mm": 711.1999999999999, "braking_intensity": 0.0, "is_braking": false, "is_crash": false, "crash_intensity_g": 0.0, "segment_start_sample": 1181, "segment_end_sample": 1220, "time_str": "09:41:03", "Speed_display": 5.1}}, {"type": "Feature", "geometry": {"type": "LineString", "coordinates": [[4.8055653, 52.3547657], [4.8055669, 52.3547799]]}, "properties": {"Speed": 5.0, "road_quality": 2, "marker": 7, "trip_id": "CRASH_Trip2", "hrot_diff": 1, "sample_diff": 41, "time_diff_s": 0.81, "gps_distance_m": 1.6, "original_speed": "628", "wheel_diameter_mm": 711.1999999999999, "braking_intensity": 0.0, "is_braking": false, "is_crash": false, "crash_intensity_g": 0.0, "segment_start_sample": 1220, "segment_end_sample": 1261, "time_str": "09:41:03", "Speed_display": 5.0}}, {"type": "Feature", "geometry": {"type": "LineString", "coordinates": [[4.8055669, 52.3547799], [4.805565, 52.354792]]}, "properties": {"Speed": 5.1, "road_quality": 2, "marker": 7, "trip_id": "CRASH_Trip2", "hrot_diff": 1, "sample_diff": 41, "time_diff_s": 0.794, "gps_distance_m": 1.4, "original_speed": "617", "wheel_diameter_mm": 711.1999999999999, "braking_intensity": 0.0, "is_braking": false, "is_crash": false, "crash_intensity_g": 0.0, "segment_start_sample": 1302, "segment_end_sample": 1343, "time_str": "09:41:05", "Speed_display": 4.8}}, {"type": "Feature", "geometry": {"type": "LineString", "coordinates": [[4.805565, 52.354792], [4.8055614, 52.3548085]]}, "properties": {"Speed": 4.9, "road_quality": 2, "marker": 7, "trip_id": "CRASH_Trip2", "hrot_diff": 1, "sample_diff": 43, "time_diff_s": 0.82, "gps_distance_m": 1.9, "original_speed": "609", "wheel_diameter_mm": 711.1999999999999, "braking_intensity": 0.0, "is_braking": false, "is_crash": false, "crash_intensity_g": 0.0, "segment_start_sample": 1343, "segment_end_sample": 1386, "time_str": "09:41:06", "Speed_display": 4.6}}, {"type": "Feature", "geometry": {"type": "LineString", "coordinates": [[4.8055614, 52.3548085], [4.8055587, 52.3548236]]}, "properties": {"Speed": 4.1, "road_quality": 2, "marker": 7, "trip_id": "CRASH_Trip2", "hrot_diff": 1, "sample_diff": 48, "time_diff_s": 0.98, "gps_distance_m": 1.7, "original_speed": "602", "wheel_diameter_mm": 711.1999999999999, "braking_intensity": 0.0, "is_braking": false, "is_crash": false, "crash_intensity_g": 0.0, "segment_start_sample": 1386, "segment_end_sample": 1434, "time_str": "09:41:07", "Speed_display": 4.6}}, {"type": "Feature", "geometry": {"type": "LineString", "coordinates": [[4.8055587, 52.3548236], [4.8055547, 52.3548405]]}, "properties": {"Speed": 4.0, "road_quality": 2, "marker": 7, "trip_id": "CRASH_Trip2", "hrot_diff": 1, "sample_diff": 51, "time_diff_s": 1.005, "gps_distance_m": 1.9, "original_speed": "571", "wheel_diameter_mm": 711.1999999999999, "braking_intensity": 0.0, "is_braking": false, "is_crash": false, "crash_intensity_g": 0.0, "segment_start_sample": 1434, "segment_end_sample": 1485, "time_str": "09:41:08", "Speed_display": 5.0}}, {"type": "Feature", "geometry": {"type": "LineString", "coordinates": [[4.8055547, 52.3548405], [4.8055484, 52.3548532]]}, "properties": {"Speed": 5.0, "road_quality": 4, "marker": 7, "trip_id": "CRASH_Trip2", "hrot_diff": 1, "sample_diff": 36, "time_diff_s": 0.802, "gps_distance_m": 1.5, "original_speed": "526", "wheel_diameter_mm": 711.1999999999999, "braking_intensity": 0.0, "is_braking": false, "is_crash": false, "crash_intensity_g": 0.0, "segment_start_sample": 1485, "segment_end_sample": 1521, "time_str": "09:41:09", "Speed_display": 4.1}}, {"type": "Feature", "geometry": {"type": "LineString", "coordinates": [[4.8055484, 52.3548532], [4.8055482, 52.3548652]]}, "properties": {"Speed": 6.8, "road_quality": 4, "marker": 7, "trip_id": "CRASH_Trip2", "hrot_diff": 1, "sample_diff": 31, "time_diff_s": 0.595, "gps_distance_m": 1.3, "original_speed": "689", "wheel_diameter_mm": 711.1999999999999, "braking_intensity": 0.0, "is_braking": false, "is_crash": false, "crash_intensity_g": 0.0, "segment_start_sample": 1543, "segment_end_sample": 1574, "time_str": "09:41:10", "Speed_display": 4.1}}, {"type": "Feature", "geometry": {"type": "LineString", "coordinates": [[4.8055482, 52.3548652], [4.8055719, 52.3548917]]}, "properties": {"Speed": 0.7, "road_quality": 2, "marker": 6, "trip_id": "CRASH_Trip2", "hrot_diff": 1, "sample_diff": 269, "time_diff_s": 5.398, "gps_distance_m": 3.4, "original_speed": "-1", "wheel_diameter_mm": 711.1999999999999, "braking_intensity": 0.0, "is_braking": false, "is_crash": false, "crash_intensity_g": 0.0, "segment_start_sample": 1605, "segment_end_sample": 1874, "time_str": "09:41:11", "Speed_display": 4.0}}, {"type": "Feature", "geometry": {"type": "LineString", "coordinates": [[4.8055719, 52.3548917], [4.805573, 52.3548917]]}, "properties": {"Speed": 4.0, "road_quality": 2, "marker": 3, "trip_id": "CRASH_Trip2", "hrot_diff": 1, "sample_diff": 55, "time_diff_s": 1.005, "gps_distance_m": 0.1, "original_speed": "0", "wheel_diameter_mm": 711.1999999999999, "braking_intensity": 0.0, "is_braking": false, "is_crash": false, "crash_intensity_g": 0.0, "segment_start_sample": 1874, "segment_end_sample": 1929, "time_str": "09:41:16", "Speed_display": 3.2}}, {"type": "Feature", "geometry": {"type": "LineString", "coordinates": [[4.805573, 52.3548917], [4.8055752, 52.3548945]]}, "properties": {"Speed": 3.4, "road_quality": 2, "marker": 7, "trip_id": "CRASH_Trip2", "hrot_diff": 1, "sample_diff": 59, "time_diff_s": 1.198, "gps_distance_m": 0.3, "original_speed": "154", "wheel_diameter_mm": 711.1999999999999, "braking_intensity": 0.0, "is_braking": false, "is_crash": false, "crash_intensity_g": 0.0, "segment_start_sample": 1929, "segment_end_sample": 1988, "time_str": "09:41:17", "Speed_display": 2.0}}, {"type": "Feature", "geometry": {"type": "LineString", "coordinates": [[4.8055752, 52.3548945], [4.8056123, 52.354914]]}, "properties": {"Speed": 1.3, "road_quality": 2, "marker": 7, "trip_id": "CRASH_Trip2", "hrot_diff": 1, "sample_diff": 156, "time_diff_s": 3.206, "gps_distance_m": 3.3, "original_speed": "438", "wheel_diameter_mm": 711.1999999999999, "braking_intensity": 0.0, "is_braking": false, "is_crash": false, "crash_intensity_g": 0.0, "segment_start_sample": 1988, "segment_end_sample": 2144, "time_str": "09:41:19", "Speed_display": 2.7}}, {"type": "Feature", "geometry": {"type": "LineString", "coordinates": [[4.8056123, 52.354914], [4.8056083, 52.3549224]]}, "properties": {"Speed": 0.7, "road_quality": 2, "marker": 3, "trip_id": "CRASH_Trip2", "hrot_diff": 1, "sample_diff": 283, "time_diff_s": 5.596, "gps_distance_m": 1.0, "original_speed": "0", "wheel_diameter_mm": 711.1999999999999, "braking_intensity": 0.0, "is_braking": false, "is_crash": false, "crash_intensity_g": 0.0, "segment_start_sample": 2144, "segment_end_sample": 2427, "time_str": "09:41:22", "Speed_display": 2.6}}, {"type": "Feature", "geometry": {"type": "LineString", "coordinates": [[4.8056083, 52.3549224], [4.8056134, 52.3549241]]}, "properties": {"Speed": 4.0, "road_quality": 2, "marker": 3, "trip_id": "CRASH_Trip2", "hrot_diff": 1, "sample_diff": 45, "time_diff_s": 0.999, "gps_distance_m": 0.4, "original_speed": "0", "wheel_diameter_mm": 711.1999999999999, "braking_intensity": 0.0, "is_braking": false, "is_crash": false, "crash_intensity_g": 0.0, "segment_start_sample": 2427, "segment_end_sample": 2472, "time_str": "09:41:27", "Speed_display": 2.3}}, {"type": "Feature", "geometry": {"type": "LineString", "coordinates": [[4.8056134, 52.3549241], [4.8056211, 52.3549279]]}, "properties": {"Speed": 3.4, "road_quality": 2, "marker": 7, "trip_id": "CRASH_Trip2", "hrot_diff": 1, "sample_diff": 56, "time_diff_s": 1.2, "gps_distance_m": 0.7, "original_speed": "239", "wheel_diameter_mm": 711.1999999999999, "braking_intensity": 0.0, "is_braking": false, "is_crash": false, "crash_intensity_g": 0.0, "segment_start_sample": 2516, "segment_end_sample": 2572, "time_str": "09:41:29", "Speed_display": 2.4}}, {"type": "Feature", "geometry": {"type": "LineString", "coordinates": [[4.8056211, 52.3549279], [4.8056273, 52.3549293]]}, "properties": {"Speed": 2.2, "road_quality": 4, "marker": 7, "trip_id": "CRASH_Trip2", "hrot_diff": 1, "sample_diff": 89, "time_diff_s": 1.854, "gps_distance_m": 0.4, "original_speed": "500", "wheel_diameter_mm": 711.1999999999999, "braking_intensity": 0.0, "is_braking": false, "is_crash": true, "crash_intensity_g": -7.18, "segment_start_sample": 2572, "segment_end_sample": 2661, "time_str": "09:41:30", "Speed_display": 2.5}}, {"type": "Feature", "geometry": {"type": "LineString", "coordinates": [[4.8056273, 52.3549293], [4.8056411, 52.354932]]}, "properties": {"Speed": 1.7, "road_quality": 2, "marker": 3, "trip_id": "CRASH_Trip2", "hrot_diff": 1, "sample_diff": 119, "time_diff_s": 2.401, "gps_distance_m": 1.0, "original_speed": "0", "wheel_diameter_mm": 711.1999999999999, "braking_intensity": 0.0, "is_braking": false, "is_crash": true, "crash_intensity_g": -7.18, "segment_start_sample": 2661, "segment_end_sample": 2780, "time_str": "09:41:32", "Speed_display": 3.1}}, {"type": "Feature", "geometry": {"type": "LineString", "coordinates": [[4.8056411, 52.354932], [4.8056802, 52.3549387]]}, "properties": {"Speed": 1.3, "road_quality": 2, "marker": 7, "trip_id": "CRASH_Trip2", "hrot_diff": 1, "sample_diff": 156, "time_diff_s": 3.212, "gps_distance_m": 2.8, "original_speed": "763", "wheel_diameter_mm": 711.1999999999999, "braking_intensity": 0.0, "is_braking": false, "is_crash": false, "crash_intensity_g": 0.0, "segment_start_sample": 2787, "segment_end_sample": 2943, "time_str": "09:41:35", "Speed_display": 3.7}}, {"type": "Feature", "geometry": {"type": "LineString", "coordinates": [[4.8056802, 52.3549387], [4.8056867, 52.3549457]]}, "properties": {"Speed": 6.7, "road_quality": 2, "marker": 3, "trip_id": "CRASH_Trip2", "hrot_diff": 1, "sample_diff": 29, "time_diff_s": 0.598, "gps_distance_m": 0.9, "original_speed": "0", "wheel_diameter_mm": 711.1999999999999, "braking_intensity": 0.0, "is_braking": false, "is_crash": false, "crash_intensity_g": 0.0, "segment_start_sample": 2943, "segment_end_sample": 2972, "time_str": "09:41:38", "Speed_display": 4.6}}, {"type": "Feature", "geometry": {"type": "LineString", "coordinates": [[4.8056867, 52.3549457], [4.8057015, 52.3549611]]}, "properties": {"Speed": 6.7, "road_quality": 2, "marker": 7, "trip_id": "CRASH_Trip2", "hrot_diff": 1, "sample_diff": 37, "time_diff_s": 0.6, "gps_distance_m": 2.0, "original_speed": "270", "wheel_diameter_mm": 711.1999999999999, "braking_intensity": 0.0, "is_braking": false, "is_crash": false, "crash_intensity_g": 0.0, "segment_start_sample": 2972, "segment_end_sample": 3009, "time_str": "09:41:38", "Speed_display": 5.6}}, {"type": "Feature", "geometry": {"type": "LineString", "coordinates": [[4.8057015, 52.3549611], [4.8057134, 52.3549754]]}, "properties": {"Speed": 6.7, "road_quality": 2, "marker": 7, "trip_id": "CRASH_Trip2", "hrot_diff": 1, "sample_diff": 31, "time_diff_s": 0.6, "gps_distance_m": 1.8, "original_speed": "724", "wheel_diameter_mm": 711.1999999999999, "braking_intensity": 0.0, "is_braking": false, "is_crash": false, "crash_intensity_g": 0.0, "segment_start_sample": 3044, "segment_end_sample": 3075, "time_str": "09:41:40", "Speed_display": 6.7}}, {"type": "Feature", "geometry": {"type": "LineString", "coordinates": [[4.8057134, 52.3549754], [4.805728, 52.3549869]]}, "properties": {"Speed": 6.7, "road_quality": 2, "marker": 7, "trip_id": "CRASH_Trip2", "hrot_diff": 1, "sample_diff": 29, "time_diff_s": 0.598, "gps_distance_m": 1.6, "original_speed": "751", "wheel_diameter_mm": 711.1999999999999, "braking_intensity": 0.0, "is_braking": false, "is_crash": false, "crash_intensity_g": 0.0, "segment_start_sample": 3111, "segment_end_sample": 3140, "time_str": "09:41:41", "Speed_display": 6.4}}, {"type": "Feature", "geometry": {"type": "LineString", "coordinates": [[4.805728, 52.3549869], [4.8057476, 52.3549902]]}, "properties": {"Speed": 6.8, "road_quality": 2, "marker": 7, "trip_id": "CRASH_Trip2", "hrot_diff": 1, "sample_diff": 37, "time_diff_s": 0.593, "gps_distance_m": 1.4, "original_speed": "757", "wheel_diameter_mm": 711.1999999999999, "braking_intensity": 0.0, "is_braking": false, "is_crash": false, "crash_intensity_g": 0.0, "segment_start_sample": 3140, "segment_end_sample": 3177, "time_str": "09:41:42", "Speed_display": 6.1}}, {"type": "Feature", "geometry": {"type": "LineString", "coordinates": [[4.8057476, 52.3549902], [4.80577, 52.3549918]]}, "properties": {"Speed": 5.0, "road_quality": 2, "marker": 7, "trip_id": "CRASH_Trip2", "hrot_diff": 1, "sample_diff": 39, "time_diff_s": 0.808, "gps_distance_m": 1.5, "original_speed": "763", "wheel_diameter_mm": 711.1999999999999, "braking_intensity": 0.0, "is_braking": false, "is_crash": false, "crash_intensity_g": 0.0, "segment_start_sample": 3177, "segment_end_sample": 3216, "time_str": "09:41:42", "Speed_display": 6.0}}, {"type": "Feature", "geometry": {"type": "LineString", "coordinates": [[4.80577, 52.3549918], [4.8057933, 52.3549946]]}, "properties": {"Speed": 5.1, "road_quality": 2, "marker": 7, "trip_id": "CRASH_Trip2", "hrot_diff": 1, "sample_diff": 39, "time_diff_s": 0.785, "gps_distance_m": 1.6, "original_speed": "684", "wheel_diameter_mm": 711.1999999999999, "braking_intensity": 0.0, "is_braking": false, "is_crash": false, "crash_intensity_g": 0.0, "segment_start_sample": 3247, "segment_end_sample": 3286, "time_str": "09:41:44", "Speed_display": 6.0}}, {"type": "Feature", "geometry": {"type": "LineString", "coordinates": [[4.8057933, 52.3549946], [4.8058162, 52.3549996]]}, "properties": {"Speed": 6.6, "road_quality": 2, "marker": 7, "trip_id": "CRASH_Trip2", "hrot_diff": 1, "sample_diff": 32, "time_diff_s": 0.608, "gps_distance_m": 1.7, "original_speed": "714", "wheel_diameter_mm": 711.1999999999999, "braking_intensity": 0.0, "is_braking": false, "is_crash": false, "crash_intensity_g": 0.0, "segment_start_sample": 3286, "segment_end_sample": 3318, "time_str": "09:41:45", "Speed_display": 5.7}}, {"type": "Feature", "geometry": {"type": "LineString", "coordinates": [[4.8058162, 52.3549996], [4.8058423, 52.3550025]]}, "properties": {"Speed": 6.7, "road_quality": 2, "marker": 7, "trip_id": "CRASH_Trip2", "hrot_diff": 1, "sample_diff": 34, "time_diff_s": 0.597, "gps_distance_m": 1.8, "original_speed": "729", "wheel_diameter_mm": 711.1999999999999, "braking_intensity": 0.0, "is_braking": false, "is_crash": false, "crash_intensity_g": 0.0, "segment_start_sample": 3352, "segment_end_sample": 3386, "time_str": "09:41:46", "Speed_display": 5.7}}, {"type": "Feature", "geometry": {"type": "LineString", "coordinates": [[4.8058423, 52.3550025], [4.8058681, 52.3550077]]}, "properties": {"Speed": 5.0, "road_quality": 2, "marker": 7, "trip_id": "CRASH_Trip2", "hrot_diff": 1, "sample_diff": 37, "time_diff_s": 0.807, "gps_distance_m": 1.8, "original_speed": "746", "wheel_diameter_mm": 711.1999999999999, "braking_intensity": 0.0, "is_braking": false, "is_crash": false, "crash_intensity_g": 0.0, "segment_start_sample": 3386, "segment_end_sample": 3423, "time_str": "09:41:47", "Speed_display": 6.7}}, {"type": "Feature", "geometry": {"type": "LineString", "coordinates": [[4.8058681, 52.3550077], [4.8058939, 52.3550145]]}, "properties": {"Speed": 5.1, "road_quality": 3, "marker": 7, "trip_id": "CRASH_Trip2", "hrot_diff": 1, "sample_diff": 37, "time_diff_s": 0.794, "gps_distance_m": 1.9, "original_speed": "719", "wheel_diameter_mm": 711.1999999999999, "braking_intensity": 0.0, "is_braking": false, "is_crash": false, "crash_intensity_g": 0.0, "segment_start_sample": 3423, "segment_end_sample": 3460, "time_str": "09:41:47", "Speed_display": 9.2}}, {"type": "Feature", "geometry": {"type": "LineString", "coordinates": [[4.8058939, 52.3550145], [4.8059198, 52.3550214]]}, "properties": {"Speed": 10.0, "road_quality": 4, "marker": 7, "trip_id": "CRASH_Trip2", "hrot_diff": 1, "sample_diff": 21, "time_diff_s": 0.404, "gps_distance_m": 1.9, "original_speed": "684", "wheel_diameter_mm": 711.1999999999999, "braking_intensity": 0.0, "is_braking": false, "is_crash": false, "crash_intensity_g": 0.0, "segment_start_sample": 3495, "segment_end_sample": 3516, "time_str": "09:41:49", "Speed_display": 8.0}}, {"type": "Feature", "geometry": {"type": "LineString", "coordinates": [[4.8059198, 52.3550214], [4.8059454, 52.3550269]]}, "properties": {"Speed": 19.2, "road_quality": 4, "marker": 7, "trip_id": "CRASH_Trip2", "hrot_diff": 1, "sample_diff": 7, "time_diff_s": 0.209, "gps_distance_m": 1.8, "original_speed": "1351", "wheel_diameter_mm": 711.1999999999999, "braking_intensity": 0.0, "is_braking": false, "is_crash": true, "crash_intensity_g": -8.13, "segment_start_sample": 3566, "segment_end_sample": 3573, "time_str": "09:41:50", "Speed_display": 7.3}}, {"type": "Feature", "geometry": {"type": "LineString", "coordinates": [[4.8059454, 52.3550269], [4.8060173, 52.3550041]]}, "properties": {"Speed": 0.6, "road_quality": 2, "marker": 6, "trip_id": "CRASH_Trip2", "hrot_diff": 1, "sample_diff": 315, "time_diff_s": 6.188, "gps_distance_m": 5.5, "original_speed": "-1", "wheel_diameter_mm": 711.1999999999999, "braking_intensity": 0.0, "is_braking": false, "is_crash": false, "crash_intensity_g": 0.0, "segment_start_sample": 3583, "segment_end_sample": 3898, "time_str": "09:41:51", "Speed_display": 7.6}}, {"type": "Feature", "geometry": {"type": "LineString", "coordinates": [[4.8060173, 52.3550041], [4.8060147, 52.3550045]]}, "properties": {"Speed": 1.8, "road_quality": 2, "marker": 3, "trip_id": "CRASH_Trip2", "hrot_diff": 1, "sample_diff": 109, "time_diff_s": 2.207, "gps_distance_m": 0.2, "original_speed": "0", "wheel_diameter_mm": 711.1999999999999, "braking_intensity": 0.0, "is_braking": false, "is_crash": false, "crash_intensity_g": 0.0, "segment_start_sample": 3898, "segment_end_sample": 4007, "time_str": "09:41:57", "Speed_display": 7.0}}, {"type": "Feature", "geometry": {"type": "LineString", "coordinates": [[4.8060147, 52.3550045], [4.8060171, 52.3550033]]}, "properties": {"Speed": 6.6, "road_quality": 2, "marker": 3, "trip_id": "CRASH_Trip2", "hrot_diff": 1, "sample_diff": 31, "time_diff_s": 0.605, "gps_distance_m": 0.2, "original_speed": "0", "wheel_diameter_mm": 711.1999999999999, "braking_intensity": 0.0, "is_braking": false, "is_crash": false, "crash_intensity_g": 0.0, "segment_start_sample": 4007, "segment_end_sample": 4038, "time_str": "09:41:59", "Speed_display": 4.5}}, {"type": "Feature", "geometry": {"type": "LineString", "coordinates": [[4.8060171, 52.3550033], [4.8060179, 52.3550025]]}, "properties": {"Speed": 6.7, "road_quality": 2, "marker": 7, "trip_id": "CRASH_Trip2", "hrot_diff": 1, "sample_diff": 30, "time_diff_s": 0.602, "gps_distance_m": 0.1, "original_speed": "357", "wheel_diameter_mm": 711.1999999999999, "braking_intensity": 0.0, "is_braking": false, "is_crash": false, "crash_intensity_g": 0.0, "segment_start_sample": 4038, "segment_end_sample": 4068, "time_str": "09:42:00", "Speed_display": 5.7}}, {"type": "Feature", "geometry": {"type": "LineString", "coordinates": [[4.8060179, 52.3550025], [4.8060173, 52.3550042]]}, "properties": {"Speed": 6.8, "road_quality": 2, "marker": 7, "trip_id": "CRASH_Trip2", "hrot_diff": 1, "sample_diff": 23, "time_diff_s": 0.591, "gps_distance_m": 0.2, "original_speed": "833", "wheel_diameter_mm": 711.1999999999999, "braking_intensity": 0.0, "is_braking": false, "is_crash": false, "crash_intensity_g": 0.0, "segment_start_sample": 4097, "segment_end_sample": 4120, "time_str": "09:42:01", "Speed_display": 6.4}}, {"type": "Feature", "geometry": {"type": "LineString", "coordinates": [[4.8060173, 52.3550042], [4.8060152, 52.3550067]]}, "properties": {"Speed": 6.7, "road_quality": 2, "marker": 7, "trip_id": "CRASH_Trip2", "hrot_diff": 1, "sample_diff": 27, "time_diff_s": 0.598, "gps_distance_m": 0.3, "original_speed": "970", "wheel_diameter_mm": 711.1999999999999, "braking_intensity": 0.0, "is_braking": false, "is_crash": false, "crash_intensity_g": 0.0, "segment_start_sample": 4148, "segment_end_sample": 4175, "time_str": "09:42:02", "Speed_display": 6.4}}, {"type": "Feature", "geometry": {"type": "LineString", "coordinates": [[4.8060152, 52.3550067], [4.8060074, 52.3550048]]}, "properties": {"Speed": 5.1, "road_quality": 2, "marker": 7, "trip_id": "CRASH_Trip2", "hrot_diff": 1, "sample_diff": 38, "time_diff_s": 0.793, "gps_distance_m": 0.6, "original_speed": "840", "wheel_diameter_mm": 711.1999999999999, "braking_intensity": 0.0, "is_braking": false, "is_crash": false, "crash_intensity_g": 0.0, "segment_start_sample": 4212, "segment_end_sample": 4250, "time_str": "09:42:03", "Speed_display": 6.1}}, {"type": "Feature", "geometry": {"type": "LineString", "coordinates": [[4.8060074, 52.3550048], [4.8059967, 52.354999]]}, "properties": {"Speed": 6.6, "road_quality": 2, "marker": 7, "trip_id": "CRASH_Trip2", "hrot_diff": 1, "sample_diff": 35, "time_diff_s": 0.605, "gps_distance_m": 1.0, "original_speed": "719", "wheel_diameter_mm": 711.1999999999999, "braking_intensity": 0.0, "is_braking": false, "is_crash": false, "crash_intensity_g": 0.0, "segment_start_sample": 4250, "segment_end_sample": 4285, "time_str": "09:42:04", "Speed_display": 6.0}}, {"type": "Feature", "geometry": {"type": "LineString", "coordinates": [[4.8059967, 52.354999], [4.8059785, 52.3549898]]}, "properties": {"Speed": 5.1, "road_quality": 2, "marker": 7, "trip_id": "CRASH_Trip2", "hrot_diff": 1, "sample_diff": 36, "time_diff_s": 0.791, "gps_distance_m": 1.6, "original_speed": "675", "wheel_diameter_mm": 711.1999999999999, "braking_intensity": 0.0, "is_braking": false, "is_crash": false, "crash_intensity_g": 0.0, "segment_start_sample": 4285, "segment_end_sample": 4321, "time_str": "09:42:05", "Speed_display": 5.0}}, {"type": "Feature", "geometry": {"type": "LineString", "coordinates": [[4.8059785, 52.3549898], [4.8059573, 52.354982]]}, "properties": {"Speed": 6.7, "road_quality": 2, "marker": 7, "trip_id": "CRASH_Trip2", "hrot_diff": 1, "sample_diff": 31, "time_diff_s": 0.599, "gps_distance_m": 1.7, "original_speed": "709", "wheel_diameter_mm": 711.1999999999999, "braking_intensity": 0.0, "is_braking": false, "is_crash": false, "crash_intensity_g": 0.0, "segment_start_sample": 4355, "segment_end_sample": 4386, "time_str": "09:42:06", "Speed_display": 4.7}}, {"type": "Feature", "geometry": {"type": "LineString", "coordinates": [[4.8059573, 52.354982], [4.8058832, 52.3549715]]}, "properties": {"Speed": 1.4, "road_quality": 2, "marker": 7, "trip_id": "CRASH_Trip2", "hrot_diff": 1, "sample_diff": 137, "time_diff_s": 2.804, "gps_distance_m": 5.2, "original_speed": "787", "wheel_diameter_mm": 711.1999999999999, "braking_intensity": 0.0, "is_braking": false, "is_crash": false, "crash_intensity_g": 0.0, "segment_start_sample": 4417, "segment_end_sample": 4554, "time_str": "09:42:07", "Speed_display": 4.4}}, {"type": "Feature", "geometry": {"type": "LineString", "coordinates": [[4.8058832, 52.3549715], [4.8058535, 52.3549686]]}, "properties": {"Speed": 3.9, "road_quality": 2, "marker": 3, "trip_id": "CRASH_Trip2", "hrot_diff": 1, "sample_diff": 53, "time_diff_s": 1.026, "gps_distance_m": 2.0, "original_speed": "0", "wheel_diameter_mm": 711.1999999999999, "braking_intensity": 0.0, "is_braking": false, "is_crash": false, "crash_intensity_g": 0.0, "segment_start_sample": 4554, "segment_end_sample": 4607, "time_str": "09:42:10", "Speed_display": 4.4}}, {"type": "Feature", "geometry": {"type": "LineString", "coordinates": [[4.8058535, 52.3549686], [4.8058403, 52.354974]]}, "properties": {"Speed": 5.0, "road_quality": 2, "marker": 7, "trip_id": "CRASH_Trip2", "hrot_diff": 1, "sample_diff": 41, "time_diff_s": 0.812, "gps_distance_m": 1.1, "original_speed": "346", "wheel_diameter_mm": 711.1999999999999, "braking_intensity": 0.0, "is_braking": false, "is_crash": false, "crash_intensity_g": 0.0, "segment_start_sample": 4653, "segment_end_sample": 4694, "time_str": "09:42:12", "Speed_display": 4.0}}, {"type": "Feature", "geometry": {"type": "LineString", "coordinates": [[4.8058403, 52.354974], [4.8058312, 52.3549804]]}, "properties": {"Speed": 5.0, "road_quality": 2, "marker": 7, "trip_id": "CRASH_Trip2", "hrot_diff": 1, "sample_diff": 38, "time_diff_s": 0.798, "gps_distance_m": 0.9, "original_speed": "537", "wheel_diameter_mm": 711.1999999999999, "braking_intensity": 0.0, "is_braking": false, "is_crash": false, "crash_intensity_g": 0.0, "segment_start_sample": 4694, "segment_end_sample": 4732, "time_str": "09:42:13", "Speed_display": 4.8}}, {"type": "Feature", "geometry": {"type": "LineString", "coordinates": [[4.8058312, 52.3549804], [4.8058161, 52.3549804]]}, "properties": {"Speed": 4.9, "road_quality": 2, "marker": 7, "trip_id": "CRASH_Trip2", "hrot_diff": 1, "sample_diff": 39, "time_diff_s": 0.826, "gps_distance_m": 1.0, "original_speed": "602", "wheel_diameter_mm": 711.1999999999999, "braking_intensity": 0.0, "is_braking": false, "is_crash": false, "crash_intensity_g": 0.0, "segment_start_sample": 4732, "segment_end_sample": 4771, "time_str": "09:42:14", "Speed_display": 5.0}}, {"type": "Feature", "geometry": {"type": "LineString", "coordinates": [[4.8058161, 52.3549804], [4.8058, 52.3549796]]}, "properties": {"Speed": 5.0, "road_quality": 2, "marker": 7, "trip_id": "CRASH_Trip2", "hrot_diff": 1, "sample_diff": 39, "time_diff_s": 0.799, "gps_distance_m": 1.1, "original_speed": "657", "wheel_diameter_mm": 711.1999999999999, "braking_intensity": 0.0, "is_braking": false, "is_crash": false, "crash_intensity_g": 0.0, "segment_start_sample": 4807, "segment_end_sample": 4846, "time_str": "09:42:15", "Speed_display": 5.3}}, {"type": "Feature", "geometry": {"type": "LineString", "coordinates": [[4.8058, 52.3549796], [4.8057822, 52.3549782]]}, "properties": {"Speed": 5.0, "road_quality": 2, "marker": 7, "trip_id": "CRASH_Trip2", "hrot_diff": 1, "sample_diff": 38, "time_diff_s": 0.799, "gps_distance_m": 1.2, "original_speed": "666", "wheel_diameter_mm": 711.1999999999999, "braking_intensity": 0.0, "is_braking": false, "is_crash": false, "crash_intensity_g": 0.0, "segment_start_sample": 4846, "segment_end_sample": 4884, "time_str": "09:42:16", "Speed_display": 5.3}}, {"type": "Feature", "geometry": {"type": "LineString", "coordinates": [[4.8057822, 52.3549782], [4.8057596, 52.3549735]]}, "properties": {"Speed": 6.8, "road_quality": 2, "marker": 7, "trip_id": "CRASH_Trip2", "hrot_diff": 1, "sample_diff": 35, "time_diff_s": 0.592, "gps_distance_m": 1.6, "original_speed": "657", "wheel_diameter_mm": 711.1999999999999, "braking_intensity": 0.0, "is_braking": false, "is_crash": false, "crash_intensity_g": 0.0, "segment_start_sample": 4884, "segment_end_sample": 4919, "time_str": "09:42:17", "Speed_display": 5.4}}, {"type": "Feature", "geometry": {"type": "LineString", "coordinates": [[4.8057596, 52.3549735], [4.8057235, 52.3549618]]}, "properties": {"Speed": 4.8, "road_quality": 2, "marker": 7, "trip_id": "CRASH_Trip2", "hrot_diff": 1, "sample_diff": 35, "time_diff_s": 0.842, "gps_distance_m": 2.8, "original_speed": "662", "wheel_diameter_mm": 711.1999999999999, "braking_intensity": 0.0, "is_braking": false, "is_crash": false, "crash_intensity_g": 0.0, "segment_start_sample": 4995, "segment_end_sample": 5030, "time_str": "09:42:19", "Speed_display": 5.4}}, {"type": "Feature", "geometry": {"type": "LineString", "coordinates": [[4.8057235, 52.3549618], [4.8057045, 52.3549475]]}, "properties": {"Speed": 5.2, "road_quality": 2, "marker": 7, "trip_id": "CRASH_Trip2", "hrot_diff": 1, "sample_diff": 44, "time_diff_s": 0.768, "gps_distance_m": 2.0, "original_speed": "680", "wheel_diameter_mm": 711.1999999999999, "braking_intensity": 0.0, "is_braking": false, "is_crash": false, "crash_intensity_g": 0.0, "segment_start_sample": 5030, "segment_end_sample": 5074, "time_str": "09:42:20", "Speed_display": 5.7}}, {"type": "Feature", "geometry": {"type": "LineString", "coordinates": [[4.8057045, 52.3549475], [4.8056834, 52.3549394]]}, "properties": {"Speed": 5.1, "road_quality": 2, "marker": 7, "trip_id": "CRASH_Trip2", "hrot_diff": 1, "sample_diff": 40, "time_diff_s": 0.794, "gps_distance_m": 1.7, "original_speed": "666", "wheel_diameter_mm": 711.1999999999999, "braking_intensity": 0.0, "is_braking": false, "is_crash": false, "crash_intensity_g": 0.0, "segment_start_sample": 5074, "segment_end_sample": 5114, "time_str": "09:42:20", "Speed_display": 5.4}}, {"type": "Feature", "geometry": {"type": "LineString", "coordinates": [[4.8056834, 52.3549394], [4.805661, 52.3549354]]}, "properties": {"Speed": 6.7, "road_quality": 2, "marker": 7, "trip_id": "CRASH_Trip2", "hrot_diff": 1, "sample_diff": 37, "time_diff_s": 0.604, "gps_distance_m": 1.6, "original_speed": "621", "wheel_diameter_mm": 711.1999999999999, "braking_intensity": 0.0, "is_braking": false, "is_crash": false, "crash_intensity_g": 0.0, "segment_start_sample": 5151, "segment_end_sample": 5188, "time_str": "09:42:22", "Speed_display": 5.4}}, {"type": "Feature", "geometry": {"type": "LineString", "coordinates": [[4.805661, 52.3549354], [4.8056453, 52.3549329]]}, "properties": {"Speed": 5.0, "road_quality": 2, "marker": 7, "trip_id": "CRASH_Trip2", "hrot_diff": 1, "sample_diff": 40, "time_diff_s": 0.81, "gps_distance_m": 1.1, "original_speed": "662", "wheel_diameter_mm": 711.1999999999999, "braking_intensity": 0.0, "is_braking": false, "is_crash": false, "crash_intensity_g": 0.0, "segment_start_sample": 5188, "segment_end_sample": 5228, "time_str": "09:42:23", "Speed_display": 5.7}}, {"type": "Feature", "geometry": {"type": "LineString", "coordinates": [[4.8056453, 52.3549329], [4.8056272, 52.3549304]]}, "properties": {"Speed": 5.0, "road_quality": 2, "marker": 7, "trip_id": "CRASH_Trip2", "hrot_diff": 1, "sample_diff": 36, "time_diff_s": 0.798, "gps_distance_m": 1.3, "original_speed": "662", "wheel_diameter_mm": 711.1999999999999, "braking_intensity": 0.0, "is_braking": false, "is_crash": false, "crash_intensity_g": 0.0, "segment_start_sample": 5228, "segment_end_sample": 5264, "time_str": "09:42:23", "Speed_display": 6.0}}, {"type": "Feature", "geometry": {"type": "LineString", "coordinates": [[4.8056272, 52.3549304], [4.8056093, 52.3549239]]}, "properties": {"Speed": 6.8, "road_quality": 2, "marker": 7, "trip_id": "CRASH_Trip2", "hrot_diff": 1, "sample_diff": 28, "time_diff_s": 0.594, "gps_distance_m": 1.4, "original_speed": "694", "wheel_diameter_mm": 711.1999999999999, "braking_intensity": 0.0, "is_braking": false, "is_crash": false, "crash_intensity_g": 0.0, "segment_start_sample": 5296, "segment_end_sample": 5324, "time_str": "09:42:25", "Speed_display": 6.0}}, {"type": "Feature", "geometry": {"type": "LineString", "coordinates": [[4.8056093, 52.3549239], [4.8055929, 52.3549177]]}, "properties": {"Speed": 6.7, "road_quality": 2, "marker": 7, "trip_id": "CRASH_Trip2", "hrot_diff": 1, "sample_diff": 27, "time_diff_s": 0.599, "gps_distance_m": 1.3, "original_speed": "900", "wheel_diameter_mm": 711.1999999999999, "braking_intensity": 0.0, "is_braking": false, "is_crash": false, "crash_intensity_g": 0.0, "segment_start_sample": 5347, "segment_end_sample": 5374, "time_str": "09:42:26", "Speed_display": 6.0}}, {"type": "Feature", "geometry": {"type": "LineString", "coordinates": [[4.8055929, 52.3549177], [4.8055758, 52.3549174]]}, "properties": {"Speed": 6.7, "road_quality": 2, "marker": 7, "trip_id": "CRASH_Trip2", "hrot_diff": 1, "sample_diff": 29, "time_diff_s": 0.596, "gps_distance_m": 1.2, "original_speed": "990", "wheel_diameter_mm": 711.1999999999999, "braking_intensity": 0.0, "is_braking": false, "is_crash": false, "crash_intensity_g": 0.0, "segment_start_sample": 5398, "segment_end_sample": 5427, "time_str": "09:42:27", "Speed_display": 6.4}}, {"type": "Feature", "geometry": {"type": "LineString", "coordinates": [[4.8055758, 52.3549174], [4.8055719, 52.3549013]]}, "properties": {"Speed": 5.0, "road_quality": 2, "marker": 7, "trip_id": "CRASH_Trip2", "hrot_diff": 1, "sample_diff": 33, "time_diff_s": 0.812, "gps_distance_m": 1.8, "original_speed": "884", "wheel_diameter_mm": 711.1999999999999, "braking_intensity": 0.0, "is_braking": false, "is_crash": false, "crash_intensity_g": 0.0, "segment_start_sample": 5458, "segment_end_sample": 5491, "time_str": "09:42:28", "Speed_display": 6.0}}, {"type": "Feature", "geometry": {"type": "LineString", "coordinates": [[4.8055719, 52.3549013], [4.8055757, 52.3548817]]}, "properties": {"Speed": 6.7, "road_quality": 2, "marker": 7, "trip_id": "CRASH_Trip2", "hrot_diff": 1, "sample_diff": 32, "time_diff_s": 0.603, "gps_distance_m": 2.2, "original_speed": "806", "wheel_diameter_mm": 711.1999999999999, "braking_intensity": 0.0, "is_braking": false, "is_crash": false, "crash_intensity_g": 0.0, "segment_start_sample": 5491, "segment_end_sample": 5523, "time_str": "09:42:29", "Speed_display": 6.0}}, {"type": "Feature", "geometry": {"type": "LineString", "coordinates": [[4.8055757, 52.3548817], [4.8055753, 52.354865]]}, "properties": {"Speed": 5.0, "road_quality": 2, "marker": 7, "trip_id": "CRASH_Trip2", "hrot_diff": 1, "sample_diff": 34, "time_diff_s": 0.799, "gps_distance_m": 1.9, "original_speed": "757", "wheel_diameter_mm": 711.1999999999999, "braking_intensity": 0.0, "is_braking": false, "is_crash": false, "crash_intensity_g": 0.0, "segment_start_sample": 5558, "segment_end_sample": 5592, "time_str": "09:42:30", "Speed_display": 5.7}}, {"type": "Feature", "geometry": {"type": "LineString", "coordinates": [[4.8055753, 52.354865], [4.8055723, 52.3548495]]}, "properties": {"Speed": 6.8, "road_quality": 2, "marker": 7, "trip_id": "CRASH_Trip2", "hrot_diff": 1, "sample_diff": 34, "time_diff_s": 0.595, "gps_distance_m": 1.7, "original_speed": "735", "wheel_diameter_mm": 711.1999999999999, "braking_intensity": 0.0, "is_braking": false, "is_crash": false, "crash_intensity_g": 0.0, "segment_start_sample": 5592, "segment_end_sample": 5626, "time_str": "09:42:31", "Speed_display": 5.7}}, {"type": "Feature", "geometry": {"type": "LineString", "coordinates": [[4.8055723, 52.3548495], [4.8055649, 52.3548359]]}, "properties": {"Speed": 5.1, "road_quality": 2, "marker": 7, "trip_id": "CRASH_Trip2", "hrot_diff": 1, "sample_diff": 34, "time_diff_s": 0.794, "gps_distance_m": 1.6, "original_speed": "729", "wheel_diameter_mm": 711.1999999999999, "braking_intensity": 0.0, "is_braking": false, "is_crash": false, "crash_intensity_g": 0.0, "segment_start_sample": 5626, "segment_end_sample": 5660, "time_str": "09:42:31", "Speed_display": 5.7}}, {"type": "Feature", "geometry": {"type": "LineString", "coordinates": [[4.8055649, 52.3548359], [4.8055592, 52.3548216]]}, "properties": {"Speed": 4.9, "road_quality": 2, "marker": 7, "trip_id": "CRASH_Trip2", "hrot_diff": 1, "sample_diff": 34, "time_diff_s": 0.813, "gps_distance_m": 1.6, "original_speed": "724", "wheel_diameter_mm": 711.1999999999999, "braking_intensity": 0.0, "is_braking": false, "is_crash": false, "crash_intensity_g": 0.0, "segment_start_sample": 5696, "segment_end_sample": 5730, "time_str": "09:42:33", "Speed_display": 5.7}}, {"type": "Feature", "geometry": {"type": "LineString", "coordinates": [[4.8055592, 52.3548216], [4.8055411, 52.3548241]]}, "properties": {"Speed": 6.7, "road_quality": 2, "marker": 7, "trip_id": "CRASH_Trip2", "hrot_diff": 1, "sample_diff": 36, "time_diff_s": 0.6, "gps_distance_m": 1.3, "original_speed": "714", "wheel_diameter_mm": 711.1999999999999, "braking_intensity": 0.0, "is_braking": false, "is_crash": false, "crash_intensity_g": 0.0, "segment_start_sample": 5730, "segment_end_sample": 5766, "time_str": "09:42:34", "Speed_display": 5.7}}, {"type": "Feature", "geometry": {"type": "LineString", "coordinates": [[4.8055411, 52.3548241], [4.8055319, 52.3548168]]}, "properties": {"Speed": 5.1, "road_quality": 2, "marker": 7, "trip_id": "CRASH_Trip2", "hrot_diff": 1, "sample_diff": 34, "time_diff_s": 0.796, "gps_distance_m": 1.0, "original_speed": "719", "wheel_diameter_mm": 711.1999999999999, "braking_intensity": 0.0, "is_braking": false, "is_crash": false, "crash_intensity_g": 0.0, "segment_start_sample": 5799, "segment_end_sample": 5833, "time_str": "09:42:35", "Speed_display": 6.0}}, {"type": "Feature", "geometry": {"type": "LineString", "coordinates": [[4.8055319, 52.3548168], [4.8055291, 52.354803]]}, "properties": {"Speed": 6.7, "road_quality": 2, "marker": 7, "trip_id": "CRASH_Trip2", "hrot_diff": 1, "sample_diff": 33, "time_diff_s": 0.603, "gps_distance_m": 1.5, "original_speed": "735", "wheel_diameter_mm": 711.1999999999999, "braking_intensity": 0.0, "is_braking": false, "is_crash": false, "crash_intensity_g": 0.0, "segment_start_sample": 5833, "segment_end_sample": 5866, "time_str": "09:42:36", "Speed_display": 6.1}}, {"type": "Feature", "geometry": {"type": "LineString", "coordinates": [[4.8055291, 52.354803], [4.8055271, 52.3547888]]}, "properties": {"Speed": 6.7, "road_quality": 2, "marker": 7, "trip_id": "CRASH_Trip2", "hrot_diff": 1, "sample_diff": 32, "time_diff_s": 0.603, "gps_distance_m": 1.6, "original_speed": "769", "wheel_diameter_mm": 711.1999999999999, "braking_intensity": 0.0, "is_braking": false, "is_crash": false, "crash_intensity_g": 0.0, "segment_start_sample": 5896, "segment_end_sample": 5928, "time_str": "09:42:37", "Speed_display": 6.1}}, {"type": "Feature", "geometry": {"type": "LineString", "coordinates": [[4.8055271, 52.3547888], [4.8055356, 52.3547743]]}, "properties": {"Speed": 5.1, "road_quality": 2, "marker": 7, "trip_id": "CRASH_Trip2", "hrot_diff": 1, "sample_diff": 33, "time_diff_s": 0.795, "gps_distance_m": 1.7, "original_speed": "813", "wheel_diameter_mm": 711.1999999999999, "braking_intensity": 0.0, "is_braking": false, "is_crash": false, "crash_intensity_g": 0.0, "segment_start_sample": 5957, "segment_end_sample": 5990, "time_str": "09:42:38", "Speed_display": 6.4}}, {"type": "Feature", "geometry": {"type": "LineString", "coordinates": [[4.8055356, 52.3547743], [4.8055515, 52.3547713]]}, "properties": {"Speed": 6.7, "road_quality": 2, "marker": 7, "trip_id": "CRASH_Trip2", "hrot_diff": 1, "sample_diff": 34, "time_diff_s": 0.6, "gps_distance_m": 1.1, "original_speed": "813", "wheel_diameter_mm": 711.1999999999999, "braking_intensity": 0.0, "is_braking": false, "is_crash": false, "crash_intensity_g": 0.0, "segment_start_sample": 5990, "segment_end_sample": 6024, "time_str": "09:42:39", "Speed_display": 6.1}}, {"type": "Feature", "geometry": {"type": "LineString", "coordinates": [[4.8055515, 52.3547713], [4.8055655, 52.3547853]]}, "properties": {"Speed": 6.7, "road_quality": 2, "marker": 7, "trip_id": "CRASH_Trip2", "hrot_diff": 1, "sample_diff": 35, "time_diff_s": 0.6, "gps_distance_m": 1.8, "original_speed": "775", "wheel_diameter_mm": 711.1999999999999, "braking_intensity": 0.0, "is_braking": false, "is_crash": false, "crash_intensity_g": 0.0, "segment_start_sample": 6024, "segment_end_sample": 6059, "time_str": "09:42:39", "Speed_display": 5.7}}, {"type": "Feature", "geometry": {"type": "LineString", "coordinates": [[4.8055655, 52.3547853], [4.8055619, 52.3548009]]}, "properties": {"Speed": 5.1, "road_quality": 2, "marker": 7, "trip_id": "CRASH_Trip2", "hrot_diff": 1, "sample_diff": 37, "time_diff_s": 0.792, "gps_distance_m": 1.8, "original_speed": "709", "wheel_diameter_mm": 711.1999999999999, "braking_intensity": 0.0, "is_braking": false, "is_crash": false, "crash_intensity_g": 0.0, "segment_start_sample": 6096, "segment_end_sample": 6133, "time_str": "09:42:41", "Speed_display": 6.0}}, {"type": "Feature", "geometry": {"type": "LineString", "coordinates": [[4.8055619, 52.3548009], [4.8055534, 52.3548164]]}, "properties": {"Speed": 5.0, "road_quality": 2, "marker": 7, "trip_id": "CRASH_Trip2", "hrot_diff": 1, "sample_diff": 39, "time_diff_s": 0.799, "gps_distance_m": 1.8, "original_speed": "684", "wheel_diameter_mm": 711.1999999999999, "braking_intensity": 0.0, "is_braking": false, "is_crash": false, "crash_intensity_g": 0.0, "segment_start_sample": 6133, "segment_end_sample": 6172, "time_str": "09:42:42", "Speed_display": 6.1}}, {"type": "Feature", "geometry": {"type": "LineString", "coordinates": [[4.8055534, 52.3548164], [4.8055486, 52.3548331]]}, "properties": {"Speed": 6.7, "road_quality": 2, "marker": 7, "trip_id": "CRASH_Trip2", "hrot_diff": 1, "sample_diff": 37, "time_diff_s": 0.6, "gps_distance_m": 1.9, "original_speed": "666", "wheel_diameter_mm": 711.1999999999999, "braking_intensity": 0.0, "is_braking": false, "is_crash": false, "crash_intensity_g": 0.0, "segment_start_sample": 6172, "segment_end_sample": 6209, "time_str": "09:42:42", "Speed_display": 5.7}}, {"type": "Feature", "geometry": {"type": "LineString", "coordinates": [[4.8055486, 52.3548331], [4.8055462, 52.3548505]]}, "properties": {"Speed": 6.8, "road_quality": 2, "marker": 7, "trip_id": "CRASH_Trip2", "hrot_diff": 1, "sample_diff": 31, "time_diff_s": 0.593, "gps_distance_m": 1.9, "original_speed": "666", "wheel_diameter_mm": 711.1999999999999, "braking_intensity": 0.0, "is_braking": false, "is_crash": false, "crash_intensity_g": 0.0, "segment_start_sample": 6246, "segment_end_sample": 6277, "time_str": "09:42:44", "Speed_display": 5.7}}, {"type": "Feature", "geometry": {"type": "LineString", "coordinates": [[4.8055462, 52.3548505], [4.8055446, 52.354865]]}, "properties": {"Speed": 5.1, "road_quality": 2, "marker": 7, "trip_id": "CRASH_Trip2", "hrot_diff": 1, "sample_diff": 37, "time_diff_s": 0.795, "gps_distance_m": 1.6, "original_speed": "704", "wheel_diameter_mm": 711.1999999999999, "braking_intensity": 0.0, "is_braking": false, "is_crash": false, "crash_intensity_g": 0.0, "segment_start_sample": 6277, "segment_end_sample": 6314, "time_str": "09:42:44", "Speed_display": 6.1}}, {"type": "Feature", "geometry": {"type": "LineString", "coordinates": [[4.8055446, 52.354865], [4.8055416, 52.3548801]]}, "properties": {"Speed": 5.1, "road_quality": 2, "marker": 7, "trip_id": "CRASH_Trip2", "hrot_diff": 1, "sample_diff": 34, "time_diff_s": 0.79, "gps_distance_m": 1.7, "original_speed": "719", "wheel_diameter_mm": 711.1999999999999, "braking_intensity": 0.0, "is_braking": false, "is_crash": false, "crash_intensity_g": 0.0, "segment_start_sample": 6348, "segment_end_sample": 6382, "time_str": "09:42:46", "Speed_display": 5.8}}, {"type": "Feature", "geometry": {"type": "LineString", "coordinates": [[4.8055416, 52.3548801], [4.8055383, 52.3548947]]}, "properties": {"Speed": 6.7, "road_quality": 2, "marker": 7, "trip_id": "CRASH_Trip2", "hrot_diff": 1, "sample_diff": 35, "time_diff_s": 0.604, "gps_distance_m": 1.6, "original_speed": "719", "wheel_diameter_mm": 711.1999999999999, "braking_intensity": 0.0, "is_braking": false, "is_crash": false, "crash_intensity_g": 0.0, "segment_start_sample": 6382, "segment_end_sample": 6417, "time_str": "09:42:47", "Speed_display": 5.4}}, {"type": "Feature", "geometry": {"type": "LineString", "coordinates": [[4.8055383, 52.3548947], [4.8055368, 52.3549082]]}, "properties": {"Speed": 5.1, "road_quality": 2, "marker": 7, "trip_id": "CRASH_Trip2", "hrot_diff": 1, "sample_diff": 38, "time_diff_s": 0.795, "gps_distance_m": 1.5, "original_speed": "709", "wheel_diameter_mm": 711.1999999999999, "braking_intensity": 0.0, "is_braking": false, "is_crash": false, "crash_intensity_g": 0.0, "segment_start_sample": 6454, "segment_end_sample": 6492, "time_str": "09:42:48", "Speed_display": 5.4}}, {"type": "Feature", "geometry": {"type": "LineString", "coordinates": [[4.8055368, 52.3549082], [4.8055384, 52.3549208]]}, "properties": {"Speed": 5.1, "road_quality": 2, "marker": 7, "trip_id": "CRASH_Trip2", "hrot_diff": 1, "sample_diff": 39, "time_diff_s": 0.793, "gps_distance_m": 1.4, "original_speed": "680", "wheel_diameter_mm": 711.1999999999999, "braking_intensity": 0.0, "is_braking": false, "is_crash": false, "crash_intensity_g": 0.0, "segment_start_sample": 6492, "segment_end_sample": 6531, "time_str": "09:42:49", "Speed_display": 5.4}}, {"type": "Feature", "geometry": {"type": "LineString", "coordinates": [[4.8055384, 52.3549208], [4.8055416, 52.3549314]]}, "properties": {"Speed": 5.0, "road_quality": 2, "marker": 7, "trip_id": "CRASH_Trip2", "hrot_diff": 1, "sample_diff": 43, "time_diff_s": 0.805, "gps_distance_m": 1.2, "original_speed": "662", "wheel_diameter_mm": 711.1999999999999, "braking_intensity": 0.0, "is_braking": false, "is_crash": false, "crash_intensity_g": 0.0, "segment_start_sample": 6566, "segment_end_sample": 6609, "time_str": "09:42:50", "Speed_display": 4.9}}, {"type": "Feature", "geometry": {"type": "LineString", "coordinates": [[4.8055416, 52.3549314], [4.8055537, 52.3549414]]}, "properties": {"Speed": 5.1, "road_quality": 2, "marker": 7, "trip_id": "CRASH_Trip2", "hrot_diff": 1, "sample_diff": 35, "time_diff_s": 0.796, "gps_distance_m": 1.4, "original_speed": "657", "wheel_diameter_mm": 711.1999999999999, "braking_intensity": 0.0, "is_braking": false, "is_crash": false, "crash_intensity_g": 0.0, "segment_start_sample": 6609, "segment_end_sample": 6644, "time_str": "09:42:51", "Speed_display": 4.0}}, {"type": "Feature", "geometry": {"type": "LineString", "coordinates": [[4.8055537, 52.3549414], [4.8055741, 52.3549466]]}, "properties": {"Speed": 4.0, "road_quality": 2, "marker": 7, "trip_id": "CRASH_Trip2", "hrot_diff": 1, "sample_diff": 46, "time_diff_s": 1.007, "gps_distance_m": 1.5, "original_speed": "649", "wheel_diameter_mm": 711.1999999999999, "braking_intensity": 0.0, "is_braking": false, "is_crash": false, "crash_intensity_g": 0.0, "segment_start_sample": 6685, "segment_end_sample": 6731, "time_str": "09:42:53", "Speed_display": 3.2}}, {"type": "Feature", "geometry": {"type": "LineString", "coordinates": [[4.8055741, 52.3549466], [4.805635, 52.3549435]]}, "properties": {"Speed": 1.0, "road_quality": 3, "marker": 7, "trip_id": "CRASH_Trip2", "hrot_diff": 1, "sample_diff": 214, "time_diff_s": 4.204, "gps_distance_m": 4.2, "original_speed": "613", "wheel_diameter_mm": 711.1999999999999, "braking_intensity": 0.0, "is_braking": false, "is_crash": false, "crash_intensity_g": 0.0, "segment_start_sample": 6731, "segment_end_sample": 6945, "time_str": "09:42:54", "Speed_display": 3.0}}, {"type": "Feature", "geometry": {"type": "LineString", "coordinates": [[4.8056314, 52.3549314], [4.8056385, 52.3549307]]}, "properties": {"Speed": 1.0, "road_quality": 2, "marker": 3, "trip_id": "CRASH_Trip2", "hrot_diff": 1, "sample_diff": 207, "time_diff_s": 4.201, "gps_distance_m": 0.5, "original_speed": "0", "wheel_diameter_mm": 711.1999999999999, "braking_intensity": 0.0, "is_braking": false, "is_crash": false, "crash_intensity_g": 0.0, "segment_start_sample": 7508, "segment_end_sample": 7715, "time_str": "09:43:09", "Speed_display": 3.0}}, {"type": "Feature", "geometry": {"type": "LineString", "coordinates": [[4.8056385, 52.3549307], [4.8056406, 52.3549292]]}, "properties": {"Speed": 4.0, "road_quality": 2, "marker": 3, "trip_id": "CRASH_Trip2", "hrot_diff": 1, "sample_diff": 49, "time_diff_s": 1.005, "gps_distance_m": 0.2, "original_speed": "0", "wheel_diameter_mm": 711.1999999999999, "braking_intensity": 0.0, "is_braking": false, "is_crash": false, "crash_intensity_g": 0.0, "segment_start_sample": 7715, "segment_end_sample": 7764, "time_str": "09:43:13", "Speed_display": 3.2}}, {"type": "Feature", "geometry": {"type": "LineString", "coordinates": [[4.8056406, 52.3549292], [4.8056511, 52.3549269]]}, "properties": {"Speed": 5.0, "road_quality": 2, "marker": 7, "trip_id": "CRASH_Trip2", "hrot_diff": 1, "sample_diff": 45, "time_diff_s": 0.797, "gps_distance_m": 0.8, "original_speed": "195", "wheel_diameter_mm": 711.1999999999999, "braking_intensity": 0.0, "is_braking": false, "is_crash": false, "crash_intensity_g": 0.0, "segment_start_sample": 7764, "segment_end_sample": 7809, "time_str": "09:43:14", "Speed_display": 4.3}}, {"type": "Feature", "geometry": {"type": "LineString", "coordinates": [[4.8056511, 52.3549269], [4.8056652, 52.3549231]]}, "properties": {"Speed": 5.0, "road_quality": 2, "marker": 7, "trip_id": "CRASH_Trip2", "hrot_diff": 1, "sample_diff": 39, "time_diff_s": 0.8, "gps_distance_m": 1.0, "original_speed": "549", "wheel_diameter_mm": 711.1999999999999, "braking_intensity": 0.0, "is_braking": false, "is_crash": false, "crash_intensity_g": 0.0, "segment_start_sample": 7852, "segment_end_sample": 7891, "time_str": "09:43:16", "Speed_display": 4.9}}, {"type": "Feature", "geometry": {"type": "LineString", "coordinates": [[4.8056652, 52.3549231], [4.8056802, 52.3549222]]}, "properties": {"Speed": 6.7, "road_quality": 2, "marker": 7, "trip_id": "CRASH_Trip2", "hrot_diff": 1, "sample_diff": 38, "time_diff_s": 0.597, "gps_distance_m": 1.0, "original_speed": "588", "wheel_diameter_mm": 711.1999999999999, "braking_intensity": 0.0, "is_braking": false, "is_crash": false, "crash_intensity_g": 0.0, "segment_start_sample": 7891, "segment_end_sample": 7929, "time_str": "09:43:17", "Speed_display": 5.1}}, {"type": "Feature", "geometry": {"type": "LineString", "coordinates": [[4.8056802, 52.3549222], [4.805692, 52.3549217]]}, "properties": {"Speed": 4.0, "road_quality": 2, "marker": 7, "trip_id": "CRASH_Trip2", "hrot_diff": 1, "sample_diff": 45, "time_diff_s": 1.006, "gps_distance_m": 0.8, "original_speed": "628", "wheel_diameter_mm": 711.1999999999999, "braking_intensity": 0.0, "is_braking": false, "is_crash": false, "crash_intensity_g": 0.0, "segment_start_sample": 7929, "segment_end_sample": 7974, "time_str": "09:43:17", "Speed_display": 4.9}}, {"type": "Feature", "geometry": {"type": "LineString", "coordinates": [[4.805692, 52.3549217], [4.8057087, 52.3549207]]}, "properties": {"Speed": 5.0, "road_quality": 2, "marker": 7, "trip_id": "CRASH_Trip2", "hrot_diff": 1, "sample_diff": 41, "time_diff_s": 0.799, "gps_distance_m": 1.1, "original_speed": "625", "wheel_diameter_mm": 711.1999999999999, "braking_intensity": 0.0, "is_braking": false, "is_crash": false, "crash_intensity_g": 0.0, "segment_start_sample": 7974, "segment_end_sample": 8015, "time_str": "09:43:18", "Speed_display": 5.3}}, {"type": "Feature", "geometry": {"type": "LineString", "coordinates": [[4.8057087, 52.3549207], [4.8057346, 52.3549238]]}, "properties": {"Speed": 4.0, "road_quality": 2, "marker": 7, "trip_id": "CRASH_Trip2", "hrot_diff": 1, "sample_diff": 43, "time_diff_s": 1.004, "gps_distance_m": 1.8, "original_speed": "625", "wheel_diameter_mm": 711.1999999999999, "braking_intensity": 0.0, "is_braking": false, "is_crash": false, "crash_intensity_g": 0.0, "segment_start_sample": 8048, "segment_end_sample": 8091, "time_str": "09:43:20", "Speed_display": 4.9}}, {"type": "Feature", "geometry": {"type": "LineString", "coordinates": [[4.8057346, 52.3549238], [4.8057553, 52.3549289]]}, "properties": {"Speed": 6.7, "road_quality": 2, "marker": 7, "trip_id": "CRASH_Trip2", "hrot_diff": 1, "sample_diff": 33, "time_diff_s": 0.598, "gps_distance_m": 1.5, "original_speed": "666", "wheel_diameter_mm": 711.1999999999999, "braking_intensity": 0.0, "is_braking": false, "is_crash": false, "crash_intensity_g": 0.0, "segment_start_sample": 8091, "segment_end_sample": 8124, "time_str": "09:43:21", "Speed_display": 5.5}}, {"type": "Feature", "geometry": {"type": "LineString", "coordinates": [[4.8057553, 52.3549289], [4.8057837, 52.3549374]]}, "properties": {"Speed": 5.0, "road_quality": 2, "marker": 7, "trip_id": "CRASH_Trip2", "hrot_diff": 1, "sample_diff": 37, "time_diff_s": 0.798, "gps_distance_m": 2.1, "original_speed": "657", "wheel_diameter_mm": 711.1999999999999, "braking_intensity": 0.0, "is_braking": false, "is_crash": false, "crash_intensity_g": 0.0, "segment_start_sample": 8124, "segment_end_sample": 8161, "time_str": "09:43:21", "Speed_display": 5.5}}, {"type": "Feature", "geometry": {"type": "LineString", "coordinates": [[4.8057837, 52.3549374], [4.8058124, 52.354946]]}, "properties": {"Speed": 6.8, "road_quality": 2, "marker": 7, "trip_id": "CRASH_Trip2", "hrot_diff": 1, "sample_diff": 39, "time_diff_s": 0.588, "gps_distance_m": 2.2, "original_speed": "684", "wheel_diameter_mm": 711.1999999999999, "braking_intensity": 0.0, "is_braking": false, "is_crash": false, "crash_intensity_g": 0.0, "segment_start_sample": 8200, "segment_end_sample": 8239, "time_str": "09:43:23", "Speed_display": 5.7}}, {"type": "Feature", "geometry": {"type": "LineString", "coordinates": [[4.8058124, 52.354946], [4.8058353, 52.3549548]]}, "properties": {"Speed": 5.1, "road_quality": 2, "marker": 7, "trip_id": "CRASH_Trip2", "hrot_diff": 1, "sample_diff": 38, "time_diff_s": 0.793, "gps_distance_m": 1.8, "original_speed": "649", "wheel_diameter_mm": 711.1999999999999, "braking_intensity": 0.0, "is_braking": false, "is_crash": false, "crash_intensity_g": 0.0, "segment_start_sample": 8239, "segment_end_sample": 8277, "time_str": "09:43:24", "Speed_display": 5.4}}, {"type": "Feature", "geometry": {"type": "LineString", "coordinates": [[4.8058353, 52.3549548], [4.8058541, 52.3549601]]}, "properties": {"Speed": 5.0, "road_quality": 2, "marker": 7, "trip_id": "CRASH_Trip2", "hrot_diff": 1, "sample_diff": 38, "time_diff_s": 0.801, "gps_distance_m": 1.4, "original_speed": "645", "wheel_diameter_mm": 711.1999999999999, "braking_intensity": 0.0, "is_braking": false, "is_crash": false, "crash_intensity_g": 0.0, "segment_start_sample": 8277, "segment_end_sample": 8315, "time_str": "09:43:24", "Speed_display": 5.7}}, {"type": "Feature", "geometry": {"type": "LineString", "coordinates": [[4.8058541, 52.3549601], [4.8058804, 52.3549663]]}, "properties": {"Speed": 5.1, "road_quality": 2, "marker": 7, "trip_id": "CRASH_Trip2", "hrot_diff": 1, "sample_diff": 38, "time_diff_s": 0.796, "gps_distance_m": 1.9, "original_speed": "662", "wheel_diameter_mm": 711.1999999999999, "braking_intensity": 0.0, "is_braking": false, "is_crash": false, "crash_intensity_g": 0.0, "segment_start_sample": 8352, "segment_end_sample": 8390, "time_str": "09:43:26", "Speed_display": 5.4}}, {"type": "Feature", "geometry": {"type": "LineString", "coordinates": [[4.8058804, 52.3549663], [4.8059079, 52.3549713]]}, "properties": {"Speed": 6.7, "road_quality": 2, "marker": 7, "trip_id": "CRASH_Trip2", "hrot_diff": 1, "sample_diff": 36, "time_diff_s": 0.6, "gps_distance_m": 1.9, "original_speed": "666", "wheel_diameter_mm": 711.1999999999999, "braking_intensity": 0.0, "is_braking": false, "is_crash": false, "crash_intensity_g": 0.0, "segment_start_sample": 8390, "segment_end_sample": 8426, "time_str": "09:43:27", "Speed_display": 5.7}}, {"type": "Feature", "geometry": {"type": "LineString", "coordinates": [[4.8059079, 52.3549713], [4.8059347, 52.3549742]]}, "properties": {"Speed": 5.1, "road_quality": 2, "marker": 7, "trip_id": "CRASH_Trip2", "hrot_diff": 1, "sample_diff": 39, "time_diff_s": 0.795, "gps_distance_m": 1.8, "original_speed": "671", "wheel_diameter_mm": 711.1999999999999, "braking_intensity": 0.0, "is_braking": false, "is_crash": false, "crash_intensity_g": 0.0, "segment_start_sample": 8426, "segment_end_sample": 8465, "time_str": "09:43:27", "Speed_display": 5.7}}, {"type": "Feature", "geometry": {"type": "LineString", "coordinates": [[4.8059347, 52.3549742], [4.8059567, 52.3549793]]}, "properties": {"Speed": 6.7, "road_quality": 2, "marker": 7, "trip_id": "CRASH_Trip2", "hrot_diff": 1, "sample_diff": 34, "time_diff_s": 0.603, "gps_distance_m": 1.6, "original_speed": "653", "wheel_diameter_mm": 711.1999999999999, "braking_intensity": 0.0, "is_braking": false, "is_crash": false, "crash_intensity_g": 0.0, "segment_start_sample": 8504, "segment_end_sample": 8538, "time_str": "09:43:29", "Speed_display": 5.7}}, {"type": "Feature", "geometry": {"type": "LineString", "coordinates": [[4.8059567, 52.3549793], [4.8059766, 52.3549842]]}, "properties": {"Speed": 5.1, "road_quality": 2, "marker": 7, "trip_id": "CRASH_Trip2", "hrot_diff": 1, "sample_diff": 39, "time_diff_s": 0.794, "gps_distance_m": 1.5, "original_speed": "662", "wheel_diameter_mm": 711.1999999999999, "braking_intensity": 0.0, "is_braking": false, "is_crash": false, "crash_intensity_g": 0.0, "segment_start_sample": 8538, "segment_end_sample": 8577, "time_str": "09:43:30", "Speed_display": 5.4}}, {"type": "Feature", "geometry": {"type": "LineString", "coordinates": [[4.8059766, 52.3549842], [4.8059975, 52.3549896]]}, "properties": {"Speed": 5.1, "road_quality": 2, "marker": 7, "trip_id": "CRASH_Trip2", "hrot_diff": 1, "sample_diff": 39, "time_diff_s": 0.794, "gps_distance_m": 1.5, "original_speed": "684", "wheel_diameter_mm": 711.1999999999999, "braking_intensity": 0.0, "is_braking": false, "is_crash": false, "crash_intensity_g": 0.0, "segment_start_sample": 8577, "segment_end_sample": 8616, "time_str": "09:43:30", "Speed_display": 5.2}}, {"type": "Feature", "geometry": {"type": "LineString", "coordinates": [[4.8059975, 52.3549896], [4.8060167, 52.3549946]]}, "properties": {"Speed": 5.1, "road_quality": 2, "marker": 7, "trip_id": "CRASH_Trip2", "hrot_diff": 1, "sample_diff": 40, "time_diff_s": 0.796, "gps_distance_m": 1.4, "original_speed": "628", "wheel_diameter_mm": 711.1999999999999, "braking_intensity": 0.0, "is_braking": false, "is_crash": false, "crash_intensity_g": 0.0, "segment_start_sample": 8658, "segment_end_sample": 8698, "time_str": "09:43:32", "Speed_display": 4.9}}, {"type": "Feature", "geometry": {"type": "LineString", "coordinates": [[4.8060167, 52.3549946], [4.8060352, 52.3549986]]}, "properties": {"Speed": 4.0, "road_quality": 2, "marker": 7, "trip_id": "CRASH_Trip2", "hrot_diff": 1, "sample_diff": 43, "time_diff_s": 1.003, "gps_distance_m": 1.3, "original_speed": "613", "wheel_diameter_mm": 711.1999999999999, "braking_intensity": 0.0, "is_braking": false, "is_crash": false, "crash_intensity_g": 0.0, "segment_start_sample": 8698, "segment_end_sample": 8741, "time_str": "09:43:33", "Speed_display": 5.2}}, {"type": "Feature", "geometry": {"type": "LineString", "coordinates": [[4.8060352, 52.3549986], [4.806058, 52.3550042]]}, "properties": {"Speed": 5.1, "road_quality": 2, "marker": 7, "trip_id": "CRASH_Trip2", "hrot_diff": 1, "sample_diff": 42, "time_diff_s": 0.795, "gps_distance_m": 1.7, "original_speed": "606", "wheel_diameter_mm": 711.1999999999999, "braking_intensity": 0.0, "is_braking": false, "is_crash": false, "crash_intensity_g": 0.0, "segment_start_sample": 8741, "segment_end_sample": 8783, "time_str": "09:43:34", "Speed_display": 5.2}}, {"type": "Feature", "geometry": {"type": "LineString", "coordinates": [[4.806058, 52.3550042], [4.8060727, 52.3550079]]}, "properties": {"Speed": 6.7, "road_quality": 2, "marker": 7, "trip_id": "CRASH_Trip2", "hrot_diff": 1, "sample_diff": 36, "time_diff_s": 0.604, "gps_distance_m": 1.1, "original_speed": "595", "wheel_diameter_mm": 711.1999999999999, "braking_intensity": 0.0, "is_braking": false, "is_crash": false, "crash_intensity_g": 0.0, "segment_start_sample": 8783, "segment_end_sample": 8819, "time_str": "09:43:35", "Speed_display": 5.5}}, {"type": "Feature", "geometry": {"type": "LineString", "coordinates": [[4.8060727, 52.3550079], [4.8060978, 52.3550141]]}, "properties": {"Speed": 4.9, "road_quality": 2, "marker": 7, "trip_id": "CRASH_Trip2", "hrot_diff": 1, "sample_diff": 34, "time_diff_s": 0.814, "gps_distance_m": 1.8, "original_speed": "662", "wheel_diameter_mm": 711.1999999999999, "braking_intensity": 0.0, "is_braking": false, "is_crash": false, "crash_intensity_g": 0.0, "segment_start_sample": 8856, "segment_end_sample": 8890, "time_str": "09:43:36", "Speed_display": 5.6}}, {"type": "Feature", "geometry": {"type": "LineString", "coordinates": [[4.8060978, 52.3550141], [4.8061229, 52.3550202]]}, "properties": {"Speed": 6.7, "road_quality": 2, "marker": 7, "trip_id": "CRASH_Trip2", "hrot_diff": 1, "sample_diff": 39, "time_diff_s": 0.6, "gps_distance_m": 1.8, "original_speed": "694", "wheel_diameter_mm": 711.1999999999999, "braking_intensity": 0.0, "is_braking": false, "is_crash": false, "crash_intensity_g": 0.0, "segment_start_sample": 8890, "segment_end_sample": 8929, "time_str": "09:43:37", "Speed_display": 5.9}}, {"type": "Feature", "geometry": {"type": "LineString", "coordinates": [[4.8061229, 52.3550202], [4.8061559, 52.3550269]]}, "properties": {"Speed": 4.8, "road_quality": 2, "marker": 7, "trip_id": "CRASH_Trip2", "hrot_diff": 1, "sample_diff": 37, "time_diff_s": 0.837, "gps_distance_m": 2.4, "original_speed": "684", "wheel_diameter_mm": 711.1999999999999, "braking_intensity": 0.0, "is_braking": false, "is_crash": false, "crash_intensity_g": 0.0, "segment_start_sample": 8963, "segment_end_sample": 9000, "time_str": "09:43:38", "Speed_display": 5.6}}, {"type": "Feature", "geometry": {"type": "LineString", "coordinates": [[4.8061559, 52.3550269], [4.8061796, 52.3550332]]}, "properties": {"Speed": 6.6, "road_quality": 2, "marker": 7, "trip_id": "CRASH_Trip2", "hrot_diff": 1, "sample_diff": 32, "time_diff_s": 0.612, "gps_distance_m": 1.8, "original_speed": "719", "wheel_diameter_mm": 711.1999999999999, "braking_intensity": 0.0, "is_braking": false, "is_crash": false, "crash_intensity_g": 0.0, "segment_start_sample": 9031, "segment_end_sample": 9063, "time_str": "09:43:40", "Speed_display": 5.9}}, {"type": "Feature", "geometry": {"type": "LineString", "coordinates": [[4.8061796, 52.3550332], [4.8062021, 52.3550417]]}, "properties": {"Speed": 4.9, "road_quality": 2, "marker": 7, "trip_id": "CRASH_Trip2", "hrot_diff": 1, "sample_diff": 39, "time_diff_s": 0.823, "gps_distance_m": 1.8, "original_speed": "775", "wheel_diameter_mm": 711.1999999999999, "braking_intensity": 0.0, "is_braking": false, "is_crash": false, "crash_intensity_g": 0.0, "segment_start_sample": 9097, "segment_end_sample": 9136, "time_str": "09:43:41", "Speed_display": 5.6}}, {"type": "Feature", "geometry": {"type": "LineString", "coordinates": [[4.8062021, 52.3550417], [4.8062235, 52.3550516]]}, "properties": {"Speed": 6.7, "road_quality": 2, "marker": 7, "trip_id": "CRASH_Trip2", "hrot_diff": 1, "sample_diff": 31, "time_diff_s": 0.599, "gps_distance_m": 1.8, "original_speed": "719", "wheel_diameter_mm": 711.1999999999999, "braking_intensity": 0.0, "is_braking": false, "is_crash": false, "crash_intensity_g": 0.0, "segment_start_sample": 9136, "segment_end_sample": 9167, "time_str": "09:43:42", "Speed_display": 5.6}}, {"type": "Feature", "geometry": {"type": "LineString", "coordinates": [[4.8062235, 52.3550516], [4.8062437, 52.3550587]]}, "properties": {"Speed": 5.0, "road_quality": 2, "marker": 7, "trip_id": "CRASH_Trip2", "hrot_diff": 1, "sample_diff": 42, "time_diff_s": 0.81, "gps_distance_m": 1.6, "original_speed": "699", "wheel_diameter_mm": 711.1999999999999, "braking_intensity": 0.0, "is_braking": false, "is_crash": false, "crash_intensity_g": 0.0, "segment_start_sample": 9167, "segment_end_sample": 9209, "time_str": "09:43:42", "Speed_display": 5.1}}, {"type": "Feature", "geometry": {"type": "LineString", "coordinates": [[4.8062437, 52.3550587], [4.806263, 52.3550693]]}, "properties": {"Speed": 4.9, "road_quality": 2, "marker": 7, "trip_id": "CRASH_Trip2", "hrot_diff": 1, "sample_diff": 41, "time_diff_s": 0.814, "gps_distance_m": 1.8, "original_speed": "649", "wheel_diameter_mm": 711.1999999999999, "braking_intensity": 0.0, "is_braking": false, "is_crash": false, "crash_intensity_g": 0.0, "segment_start_sample": 9248, "segment_end_sample": 9289, "time_str": "09:43:44", "Speed_display": 5.1}}, {"type": "Feature", "geometry": {"type": "LineString", "coordinates": [[4.806263, 52.3550693], [4.8062778, 52.3550776]]}, "properties": {"Speed": 4.1, "road_quality": 2, "marker": 7, "trip_id": "CRASH_Trip2", "hrot_diff": 1, "sample_diff": 48, "time_diff_s": 0.981, "gps_distance_m": 1.4, "original_speed": "621", "wheel_diameter_mm": 711.1999999999999, "braking_intensity": 0.0, "is_braking": false, "is_crash": false, "crash_intensity_g": 0.0, "segment_start_sample": 9289, "segment_end_sample": 9337, "time_str": "09:43:45", "Speed_display": 4.8}}, {"type": "Feature", "geometry": {"type": "LineString", "coordinates": [[4.8062778, 52.3550776], [4.8062963, 52.3550797]]}, "properties": {"Speed": 4.9, "road_quality": 2, "marker": 7, "trip_id": "CRASH_Trip2", "hrot_diff": 1, "sample_diff": 41, "time_diff_s": 0.822, "gps_distance_m": 1.3, "original_speed": "591", "wheel_diameter_mm": 711.1999999999999, "braking_intensity": 0.0, "is_braking": false, "is_crash": false, "crash_intensity_g": 0.0, "segment_start_sample": 9337, "segment_end_sample": 9378, "time_str": "09:43:46", "Speed_display": 5.1}}, {"type": "Feature", "geometry": {"type": "LineString", "coordinates": [[4.8062963, 52.3550797], [4.8063194, 52.3550785]]}, "properties": {"Speed": 5.1, "road_quality": 3, "marker": 7, "trip_id": "CRASH_Trip2", "hrot_diff": 1, "sample_diff": 34, "time_diff_s": 0.789, "gps_distance_m": 1.6, "original_speed": "561", "wheel_diameter_mm": 711.1999999999999, "braking_intensity": 0.0, "is_braking": false, "is_crash": false, "crash_intensity_g": 0.0, "segment_start_sample": 9378, "segment_end_sample": 9412, "time_str": "09:43:47", "Speed_display": 8.4}}, {"type": "Feature", "geometry": {"type": "LineString", "coordinates": [[4.8063194, 52.3550785], [4.8063404, 52.3550748]]}, "properties": {"Speed": 6.7, "road_quality": 3, "marker": 7, "trip_id": "CRASH_Trip2", "hrot_diff": 1, "sample_diff": 23, "time_diff_s": 0.598, "gps_distance_m": 1.5, "original_speed": "740", "wheel_diameter_mm": 711.1999999999999, "braking_intensity": 0.0, "is_braking": false, "is_crash": false, "crash_intensity_g": 0.0, "segment_start_sample": 9438, "segment_end_sample": 9461, "time_str": "09:43:48", "Speed_display": 8.9}}, {"type": "Feature", "geometry": {"type": "LineString", "coordinates": [[4.8063404, 52.3550748], [4.8063756, 52.3550597]]}, "properties": {"Speed": 21.4, "road_quality": 3, "marker": 7, "trip_id": "CRASH_Trip2", "hrot_diff": 1, "sample_diff": 16, "time_diff_s": 0.188, "gps_distance_m": 2.9, "original_speed": "961", "wheel_diameter_mm": 711.1999999999999, "braking_intensity": 0.0, "is_braking": false, "is_crash": false, "crash_intensity_g": 0.0, "segment_start_sample": 9493, "segment_end_sample": 9509, "time_str": "09:43:49", "Speed_display": 10.0}}, {"type": "Feature", "geometry": {"type": "LineString", "coordinates": [[4.8064264, 52.3550533], [4.8064315, 52.3550588]]}, "properties": {"Speed": 6.6, "road_quality": 2, "marker": 3, "trip_id": "CRASH_Trip2", "hrot_diff": 1, "sample_diff": 26, "time_diff_s": 0.605, "gps_distance_m": 0.7, "original_speed": "0", "wheel_diameter_mm": 711.1999999999999, "braking_intensity": 0.0, "is_braking": false, "is_crash": false, "crash_intensity_g": 0.0, "segment_start_sample": 9846, "segment_end_sample": 9872, "time_str": "09:43:56", "Speed_display": 10.0}}, {"type": "Feature", "geometry": {"type": "LineString", "coordinates": [[4.8064315, 52.3550588], [4.8064318, 52.3550694]]}, "properties": {"Speed": 10.2, "road_quality": 2, "marker": 7, "trip_id": "CRASH_Trip2", "hrot_diff": 1, "sample_diff": 27, "time_diff_s": 0.395, "gps_distance_m": 1.2, "original_speed": "148", "wheel_diameter_mm": 711.1999999999999, "braking_intensity": 0.0, "is_braking": false, "is_crash": false, "crash_intensity_g": 0.0, "segment_start_sample": 9872, "segment_end_sample": 9899, "time_str": "09:43:57", "Speed_display": 9.6}}, {"type": "Feature", "geometry": {"type": "LineString", "coordinates": [[4.8064318, 52.3550694], [4.8064232, 52.3550796]]}, "properties": {"Speed": 5.0, "road_quality": 2, "marker": 7, "trip_id": "CRASH_Trip2", "hrot_diff": 1, "sample_diff": 35, "time_diff_s": 0.797, "gps_distance_m": 1.3, "original_speed": "925", "wheel_diameter_mm": 711.1999999999999, "braking_intensity": 0.0, "is_braking": false, "is_crash": false, "crash_intensity_g": 0.0, "segment_start_sample": 9927, "segment_end_sample": 9962, "time_str": "09:43:58", "Speed_display": 6.7}}, {"type": "Feature", "geometry": {"type": "LineString", "coordinates": [[4.8064232, 52.3550796], [4.8064061, 52.3550859]]}, "properties": {"Speed": 4.9, "road_quality": 2, "marker": 7, "trip_id": "CRASH_Trip2", "hrot_diff": 1, "sample_diff": 38, "time_diff_s": 0.816, "gps_distance_m": 1.4, "original_speed": "847", "wheel_diameter_mm": 711.1999999999999, "braking_intensity": 0.0, "is_braking": false, "is_crash": false, "crash_intensity_g": 0.0, "segment_start_sample": 9962, "segment_end_sample": 10000, "time_str": "09:43:58", "Speed_display": 6.2}}, {"type": "Feature", "geometry": {"type": "LineString", "coordinates": [[4.8064061, 52.3550859], [4.8063786, 52.3550854]]}, "properties": {"Speed": 6.7, "road_quality": 2, "marker": 7, "trip_id": "CRASH_Trip2", "hrot_diff": 1, "sample_diff": 38, "time_diff_s": 0.6, "gps_distance_m": 1.9, "original_speed": "662", "wheel_diameter_mm": 711.1999999999999, "braking_intensity": 0.0, "is_braking": false, "is_crash": false, "crash_intensity_g": 0.0, "segment_start_sample": 10040, "segment_end_sample": 10078, "time_str": "09:44:00", "Speed_display": 5.1}}, {"type": "Feature", "geometry": {"type": "LineString", "coordinates": [[4.8063786, 52.3550854], [4.8063563, 52.355087]]}, "properties": {"Speed": 4.0, "road_quality": 2, "marker": 7, "trip_id": "CRASH_Trip2", "hrot_diff": 1, "sample_diff": 44, "time_diff_s": 1.009, "gps_distance_m": 1.5, "original_speed": "641", "wheel_diameter_mm": 711.1999999999999, "braking_intensity": 0.0, "is_braking": false, "is_crash": false, "crash_intensity_g": 0.0, "segment_start_sample": 10078, "segment_end_sample": 10122, "time_str": "09:44:01", "Speed_display": 5.5}}, {"type": "Feature", "geometry": {"type": "LineString", "coordinates": [[4.8063563, 52.355087], [4.8063098, 52.355081]]}, "properties": {"Speed": 5.1, "road_quality": 2, "marker": 7, "trip_id": "CRASH_Trip2", "hrot_diff": 1, "sample_diff": 35, "time_diff_s": 0.795, "gps_distance_m": 3.2, "original_speed": "617", "wheel_diameter_mm": 711.1999999999999, "braking_intensity": 0.0, "is_braking": false, "is_crash": false, "crash_intensity_g": 0.0, "segment_start_sample": 10158, "segment_end_sample": 10193, "time_str": "09:44:02", "Speed_display": 5.5}}, {"type": "Feature", "geometry": {"type": "LineString", "coordinates": [[4.8063098, 52.355081], [4.8062779, 52.3550754]]}, "properties": {"Speed": 6.7, "road_quality": 2, "marker": 7, "trip_id": "CRASH_Trip2", "hrot_diff": 1, "sample_diff": 35, "time_diff_s": 0.598, "gps_distance_m": 2.3, "original_speed": "662", "wheel_diameter_mm": 711.1999999999999, "braking_intensity": 0.0, "is_braking": false, "is_crash": false, "crash_intensity_g": 0.0, "segment_start_sample": 10193, "segment_end_sample": 10228, "time_str": "09:44:03", "Speed_display": 5.5}}, {"type": "Feature", "geometry": {"type": "LineString", "coordinates": [[4.8062779, 52.3550754], [4.8062561, 52.3550724]]}, "properties": {"Speed": 5.0, "road_quality": 2, "marker": 7, "trip_id": "CRASH_Trip2", "hrot_diff": 1, "sample_diff": 37, "time_diff_s": 0.798, "gps_distance_m": 1.5, "original_speed": "709", "wheel_diameter_mm": 711.1999999999999, "braking_intensity": 0.0, "is_braking": false, "is_crash": false, "crash_intensity_g": 0.0, "segment_start_sample": 10228, "segment_end_sample": 10265, "time_str": "09:44:04", "Speed_display": 6.0}}, {"type": "Feature", "geometry": {"type": "LineString", "coordinates": [[4.8062561, 52.3550724], [4.8062201, 52.3550671]]}, "properties": {"Speed": 6.7, "road_quality": 2, "marker": 7, "trip_id": "CRASH_Trip2", "hrot_diff": 1, "sample_diff": 35, "time_diff_s": 0.599, "gps_distance_m": 2.5, "original_speed": "689", "wheel_diameter_mm": 711.1999999999999, "braking_intensity": 0.0, "is_braking": false, "is_crash": false, "crash_intensity_g": 0.0, "segment_start_sample": 10301, "segment_end_sample": 10336, "time_str": "09:44:05", "Speed_display": 6.4}}, {"type": "Feature", "geometry": {"type": "LineString", "coordinates": [[4.8062201, 52.3550671], [4.8061925, 52.3550621]]}, "properties": {"Speed": 6.7, "road_quality": 4, "marker": 7, "trip_id": "CRASH_Trip2", "hrot_diff": 1, "sample_diff": 31, "time_diff_s": 0.602, "gps_distance_m": 2.0, "original_speed": "694", "wheel_diameter_mm": 711.1999999999999, "braking_intensity": 0.0, "is_braking": false, "is_crash": false, "crash_intensity_g": 0.0, "segment_start_sample": 10336, "segment_end_sample": 10367, "time_str": "09:44:06", "Speed_display": 5.3}}, {"type": "Feature", "geometry": {"type": "LineString", "coordinates": [[4.8061925, 52.3550621], [4.8061644, 52.3550554]]}, "properties": {"Speed": 6.7, "road_quality": 4, "marker": 7, "trip_id": "CRASH_Trip2", "hrot_diff": 1, "sample_diff": 29, "time_diff_s": 0.601, "gps_distance_m": 2.0, "original_speed": "847", "wheel_diameter_mm": 711.1999999999999, "braking_intensity": 0.0, "is_braking": false, "is_crash": false, "crash_intensity_g": 0.0, "segment_start_sample": 10388, "segment_end_sample": 10417, "time_str": "09:44:07", "Speed_display": 5.3}}, {"type": "Feature", "geometry": {"type": "LineString", "coordinates": [[4.8061116, 52.3550485], [4.8060988, 52.3550417]]}, "properties": {"Speed": 1.3, "road_quality": 2, "marker": 7, "trip_id": "CRASH_Trip2", "hrot_diff": 1, "sample_diff": 158, "time_diff_s": 3.214, "gps_distance_m": 1.2, "original_speed": "625", "wheel_diameter_mm": 711.1999999999999, "braking_intensity": 0.0, "is_braking": false, "is_crash": false, "crash_intensity_g": 0.0, "segment_start_sample": 10608, "segment_end_sample": 10766, "time_str": "09:44:11", "Speed_display": 5.0}}, {"type": "Feature", "geometry": {"type": "LineString", "coordinates": [[4.8060988, 52.3550417], [4.8060927, 52.3550423]]}, "properties": {"Speed": 5.1, "road_quality": 2, "marker": 3, "trip_id": "CRASH_Trip2", "hrot_diff": 1, "sample_diff": 39, "time_diff_s": 0.794, "gps_distance_m": 0.4, "original_speed": "0", "wheel_diameter_mm": 711.1999999999999, "braking_intensity": 0.0, "is_braking": false, "is_crash": false, "crash_intensity_g": 0.0, "segment_start_sample": 10766, "segment_end_sample": 10805, "time_str": "09:44:14", "Speed_display": 4.8}}, {"type": "Feature", "geometry": {"type": "LineString", "coordinates": [[4.8060927, 52.3550423], [4.8060798, 52.3550401]]}, "properties": {"Speed": 5.0, "road_quality": 2, "marker": 7, "trip_id": "CRASH_Trip2", "hrot_diff": 1, "sample_diff": 36, "time_diff_s": 0.801, "gps_distance_m": 0.9, "original_speed": "374", "wheel_diameter_mm": 711.1999999999999, "braking_intensity": 0.0, "is_braking": false, "is_crash": false, "crash_intensity_g": 0.0, "segment_start_sample": 10836, "segment_end_sample": 10872, "time_str": "09:44:16", "Speed_display": 4.8}}, {"type": "Feature", "geometry": {"type": "LineString", "coordinates": [[4.8060798, 52.3550401], [4.8060607, 52.3550226]]}, "properties": {"Speed": 6.1, "road_quality": 2, "marker": 7, "trip_id": "CRASH_Trip2", "hrot_diff": 1, "sample_diff": 34, "time_diff_s": 0.654, "gps_distance_m": 2.3, "original_speed": "729", "wheel_diameter_mm": 711.1999999999999, "braking_intensity": 0.0, "is_braking": false, "is_crash": false, "crash_intensity_g": 0.0, "segment_start_sample": 10872, "segment_end_sample": 10906, "time_str": "09:44:17", "Speed_display": 5.6}}, {"type": "Feature", "geometry": {"type": "LineString", "coordinates": [[4.8060607, 52.3550226], [4.8060432, 52.3550055]]}, "properties": {"Speed": 6.6, "road_quality": 2, "marker": 7, "trip_id": "CRASH_Trip2", "hrot_diff": 1, "sample_diff": 32, "time_diff_s": 0.613, "gps_distance_m": 2.2, "original_speed": "704", "wheel_diameter_mm": 711.1999999999999, "braking_intensity": 0.0, "is_braking": false, "is_crash": false, "crash_intensity_g": 0.0, "segment_start_sample": 10944, "segment_end_sample": 10976, "time_str": "09:44:18", "Speed_display": 5.5}}, {"type": "Feature", "geometry": {"type": "LineString", "coordinates": [[4.8060432, 52.3550055], [4.8060314, 52.3549938]]}, "properties": {"Speed": 5.0, "road_quality": 2, "marker": 7, "trip_id": "CRASH_Trip2", "hrot_diff": 1, "sample_diff": 39, "time_diff_s": 0.797, "gps_distance_m": 1.5, "original_speed": "704", "wheel_diameter_mm": 711.1999999999999, "braking_intensity": 0.0, "is_braking": false, "is_crash": false, "crash_intensity_g": 0.0, "segment_start_sample": 10976, "segment_end_sample": 11015, "time_str": "09:44:19", "Speed_display": 5.5}}, {"type": "Feature", "geometry": {"type": "LineString", "coordinates": [[4.8060314, 52.3549938], [4.8060221, 52.3549798]]}, "properties": {"Speed": 5.0, "road_quality": 2, "marker": 7, "trip_id": "CRASH_Trip2", "hrot_diff": 1, "sample_diff": 38, "time_diff_s": 0.805, "gps_distance_m": 1.7, "original_speed": "709", "wheel_diameter_mm": 711.1999999999999, "braking_intensity": 0.0, "is_braking": false, "is_crash": false, "crash_intensity_g": 0.0, "segment_start_sample": 11015, "segment_end_sample": 11053, "time_str": "09:44:19", "Speed_display": 5.3}}, {"type": "Feature", "geometry": {"type": "LineString", "coordinates": [[4.8060221, 52.3549798], [4.8060223, 52.3549682]]}, "properties": {"Speed": 4.7, "road_quality": 2, "marker": 7, "trip_id": "CRASH_Trip2", "hrot_diff": 1, "sample_diff": 46, "time_diff_s": 0.853, "gps_distance_m": 1.3, "original_speed": "653", "wheel_diameter_mm": 711.1999999999999, "braking_intensity": 0.0, "is_braking": false, "is_crash": false, "crash_intensity_g": 0.0, "segment_start_sample": 11091, "segment_end_sample": 11137, "time_str": "09:44:21", "Speed_display": 4.9}}, {"type": "Feature", "geometry": {"type": "Point", "coordinates": [4.8056211, 52.3549279]}, "properties": {"event_type": "crash", "trip_id": "CRASH_Trip2", "severity": "Minor", "peak_g": -7.18, "suddenness_s": 0.1, "speed_at_impact_kmh": 2.2, "came_to_stop": true, "recovery_time_s": 5.6, "unresolved": false, "preimpact_speed_kmh": 4.0, "crash_type": "Low-Speed Fall", "crash_outcome": "Resolved", "time_str": "09:41:30"}}, {"type": "Feature", "geometry": {"type": "Point", "coordinates": [4.8059198, 52.3550214]}, "properties": {"event_type": "crash", "trip_id": "CRASH_Trip2", "severity": "Hard", "peak_g": -8.13, "suddenness_s": 0.0, "speed_at_impact_kmh": 19.2, "came_to_stop": true, "recovery_time_s": 8.8, "unresolved": false, "preimpact_speed_kmh": 12.1, "crash_type": "Moving Crash", "crash_outcome": "Resolved", "time_str": "09:41:50"}}]}